<?xml version="1.0" encoding="UTF-8"?>
<kml xmlns="http://www.opengis.net/kml/2.2">
  <Document>
    <name>Arrasate_OTA_03</name>
    <description>OTA de Arrasate</description>
    <Style id="poly-0288D1-1200-77-nodesc-normal">
      <LineStyle>
        <color>ffd18802</color>
        <width>1.2</width>
      </LineStyle>
      <PolyStyle>
        <color>4dd18802</color>
        <fill>1</fill>
        <outline>1</outline>
      </PolyStyle>
      <BalloonStyle>
        <text><![CDATA[<h3>$[name]</h3>]]></text>
      </BalloonStyle>
    </Style>
    <Style id="poly-0288D1-1200-77-nodesc-highlight">
      <LineStyle>
        <color>ffd18802</color>
        <width>1.8</width>
      </LineStyle>
      <PolyStyle>
        <color>4dd18802</color>
        <fill>1</fill>
        <outline>1</outline>
      </PolyStyle>
      <BalloonStyle>
        <text><![CDATA[<h3>$[name]</h3>]]></text>
      </BalloonStyle>
    </Style>
    <StyleMap id="poly-0288D1-1200-77-nodesc">
      <Pair>
        <key>normal</key>
        <styleUrl>#poly-0288D1-1200-77-nodesc-normal</styleUrl>
      </Pair>
      <Pair>
        <key>highlight</key>
        <styleUrl>#poly-0288D1-1200-77-nodesc-highlight</styleUrl>
      </Pair>
    </StyleMap>
    <Style id="poly-097138-1200-77-nodesc-normal">
      <LineStyle>
        <color>ff387109</color>
        <width>1.2</width>
      </LineStyle>
      <PolyStyle>
        <color>4d387109</color>
        <fill>1</fill>
        <outline>1</outline>
      </PolyStyle>
      <BalloonStyle>
        <text><![CDATA[<h3>$[name]</h3>]]></text>
      </BalloonStyle>
    </Style>
    <Style id="poly-097138-1200-77-nodesc-highlight">
      <LineStyle>
        <color>ff387109</color>
        <width>1.8</width>
      </LineStyle>
      <PolyStyle>
        <color>4d387109</color>
        <fill>1</fill>
        <outline>1</outline>
      </PolyStyle>
      <BalloonStyle>
        <text><![CDATA[<h3>$[name]</h3>]]></text>
      </BalloonStyle>
    </Style>
    <StyleMap id="poly-097138-1200-77-nodesc">
      <Pair>
        <key>normal</key>
        <styleUrl>#poly-097138-1200-77-nodesc-normal</styleUrl>
      </Pair>
      <Pair>
        <key>highlight</key>
        <styleUrl>#poly-097138-1200-77-nodesc-highlight</styleUrl>
      </Pair>
    </StyleMap>
    <Style id="poly-097138-1200-79-nodesc-normal">
      <LineStyle>
        <color>ff387109</color>
        <width>1.2</width>
      </LineStyle>
      <PolyStyle>
        <color>4f387109</color>
        <fill>1</fill>
        <outline>1</outline>
      </PolyStyle>
      <BalloonStyle>
        <text><![CDATA[<h3>$[name]</h3>]]></text>
      </BalloonStyle>
    </Style>
    <Style id="poly-097138-1200-79-nodesc-highlight">
      <LineStyle>
        <color>ff387109</color>
        <width>1.8</width>
      </LineStyle>
      <PolyStyle>
        <color>4f387109</color>
        <fill>1</fill>
        <outline>1</outline>
      </PolyStyle>
      <BalloonStyle>
        <text><![CDATA[<h3>$[name]</h3>]]></text>
      </BalloonStyle>
    </Style>
    <StyleMap id="poly-097138-1200-79-nodesc">
      <Pair>
        <key>normal</key>
        <styleUrl>#poly-097138-1200-79-nodesc-normal</styleUrl>
      </Pair>
      <Pair>
        <key>highlight</key>
        <styleUrl>#poly-097138-1200-79-nodesc-highlight</styleUrl>
      </Pair>
    </StyleMap>
    <Style id="poly-0F9D58-1200-77-nodesc-normal">
      <LineStyle>
        <color>ff589d0f</color>
        <width>1.2</width>
      </LineStyle>
      <PolyStyle>
        <color>4d589d0f</color>
        <fill>1</fill>
        <outline>1</outline>
      </PolyStyle>
      <BalloonStyle>
        <text><![CDATA[<h3>$[name]</h3>]]></text>
      </BalloonStyle>
    </Style>
    <Style id="poly-0F9D58-1200-77-nodesc-highlight">
      <LineStyle>
        <color>ff589d0f</color>
        <width>1.8</width>
      </LineStyle>
      <PolyStyle>
        <color>4d589d0f</color>
        <fill>1</fill>
        <outline>1</outline>
      </PolyStyle>
      <BalloonStyle>
        <text><![CDATA[<h3>$[name]</h3>]]></text>
      </BalloonStyle>
    </Style>
    <StyleMap id="poly-0F9D58-1200-77-nodesc">
      <Pair>
        <key>normal</key>
        <styleUrl>#poly-0F9D58-1200-77-nodesc-normal</styleUrl>
      </Pair>
      <Pair>
        <key>highlight</key>
        <styleUrl>#poly-0F9D58-1200-77-nodesc-highlight</styleUrl>
      </Pair>
    </StyleMap>
    <Style id="poly-4E342E-1200-77-nodesc-normal">
      <LineStyle>
        <color>ff2e344e</color>
        <width>1.2</width>
      </LineStyle>
      <PolyStyle>
        <color>4d2e344e</color>
        <fill>1</fill>
        <outline>1</outline>
      </PolyStyle>
      <BalloonStyle>
        <text><![CDATA[<h3>$[name]</h3>]]></text>
      </BalloonStyle>
    </Style>
    <Style id="poly-4E342E-1200-77-nodesc-highlight">
      <LineStyle>
        <color>ff2e344e</color>
        <width>1.8</width>
      </LineStyle>
      <PolyStyle>
        <color>4d2e344e</color>
        <fill>1</fill>
        <outline>1</outline>
      </PolyStyle>
      <BalloonStyle>
        <text><![CDATA[<h3>$[name]</h3>]]></text>
      </BalloonStyle>
    </Style>
    <StyleMap id="poly-4E342E-1200-77-nodesc">
      <Pair>
        <key>normal</key>
        <styleUrl>#poly-4E342E-1200-77-nodesc-normal</styleUrl>
      </Pair>
      <Pair>
        <key>highlight</key>
        <styleUrl>#poly-4E342E-1200-77-nodesc-highlight</styleUrl>
      </Pair>
    </StyleMap>
    <Style id="poly-A52714-1200-77-nodesc-normal">
      <LineStyle>
        <color>ff1427a5</color>
        <width>1.2</width>
      </LineStyle>
      <PolyStyle>
        <color>4d1427a5</color>
        <fill>1</fill>
        <outline>1</outline>
      </PolyStyle>
      <BalloonStyle>
        <text><![CDATA[<h3>$[name]</h3>]]></text>
      </BalloonStyle>
    </Style>
    <Style id="poly-A52714-1200-77-nodesc-highlight">
      <LineStyle>
        <color>ff1427a5</color>
        <width>1.8</width>
      </LineStyle>
      <PolyStyle>
        <color>4d1427a5</color>
        <fill>1</fill>
        <outline>1</outline>
      </PolyStyle>
      <BalloonStyle>
        <text><![CDATA[<h3>$[name]</h3>]]></text>
      </BalloonStyle>
    </Style>
    <StyleMap id="poly-A52714-1200-77-nodesc">
      <Pair>
        <key>normal</key>
        <styleUrl>#poly-A52714-1200-77-nodesc-normal</styleUrl>
      </Pair>
      <Pair>
        <key>highlight</key>
        <styleUrl>#poly-A52714-1200-77-nodesc-highlight</styleUrl>
      </Pair>
    </StyleMap>
    <Style id="poly-F48FB1-1200-77-nodesc-normal">
      <LineStyle>
        <color>ffb18ff4</color>
        <width>1.2</width>
      </LineStyle>
      <PolyStyle>
        <color>4db18ff4</color>
        <fill>1</fill>
        <outline>1</outline>
      </PolyStyle>
      <BalloonStyle>
        <text><![CDATA[<h3>$[name]</h3>]]></text>
      </BalloonStyle>
    </Style>
    <Style id="poly-F48FB1-1200-77-nodesc-highlight">
      <LineStyle>
        <color>ffb18ff4</color>
        <width>1.8</width>
      </LineStyle>
      <PolyStyle>
        <color>4db18ff4</color>
        <fill>1</fill>
        <outline>1</outline>
      </PolyStyle>
      <BalloonStyle>
        <text><![CDATA[<h3>$[name]</h3>]]></text>
      </BalloonStyle>
    </Style>
    <StyleMap id="poly-F48FB1-1200-77-nodesc">
      <Pair>
        <key>normal</key>
        <styleUrl>#poly-F48FB1-1200-77-nodesc-normal</styleUrl>
      </Pair>
      <Pair>
        <key>highlight</key>
        <styleUrl>#poly-F48FB1-1200-77-nodesc-highlight</styleUrl>
      </Pair>
    </StyleMap>
    <Folder>
      <name>ZONA_0_VERDE</name>
	  <ExtendedData>
		<zoneId>50010</zoneId><zoneColor>FFFFFF</zoneColor>
	  </ExtendedData>
      <Placemark>
        <name>SECTOR_01_MERKE</name>
		<ExtendedData>
			<zoneId>60102</zoneId><zoneColor>FF4646</zoneColor>
	    </ExtendedData>
        <styleUrl>#poly-A52714-1200-77-nodesc</styleUrl>
        <Polygon>
          <outerBoundaryIs>
            <LinearRing>
              <tessellate>1</tessellate>
              <coordinates>
                -2.4875765,43.0670503,0
                -2.4877375,43.0669504,0
                -2.4873405,43.0666956,0
                -2.4870602,43.0664983,0
                -2.4866558,43.0666697,0
                -2.4870387,43.0669438,0
                -2.4872546,43.0668112,0
                -2.4874182,43.0669288,0
                -2.4875765,43.0670503,0
              </coordinates>
            </LinearRing>
          </outerBoundaryIs>
        </Polygon>
      </Placemark>
      <Placemark>
        <name>SECTOR_01_ARRUNTA_1</name>
		<ExtendedData>
			<zoneId>60103</zoneId><zoneColor>003399</zoneColor>
	    </ExtendedData>
        <styleUrl>#poly-0288D1-1200-77-nodesc</styleUrl>
        <Polygon>
          <outerBoundaryIs>
            <LinearRing>
              <tessellate>1</tessellate>
              <coordinates>
                -2.4895606,43.0674432,0
                -2.4894586,43.067259,0
                -2.4886432,43.067259,0
                -2.4883536,43.0671414,0
                -2.4879781,43.0668906,0
                -2.487683,43.0666711,0
                -2.4867603,43.066048,0
                -2.4866584,43.066146,0
                -2.4871251,43.0665222,0
                -2.4874577,43.0667417,0
                -2.4877849,43.0669807,0
                -2.4877045,43.0670493,0
                -2.48786,43.0671571,0
                -2.4882087,43.0673452,0
                -2.4885949,43.0674824,0
                -2.4891207,43.0675215,0
                -2.4895606,43.0674432,0
              </coordinates>
            </LinearRing>
          </outerBoundaryIs>
        </Polygon>
      </Placemark>
      <Placemark>
        <name>SECTOR_01_ARRUNTA_2</name>
		<ExtendedData>
			<zoneId>60103</zoneId><zoneColor>003399</zoneColor>
	    </ExtendedData>
        <styleUrl>#poly-0288D1-1200-77-nodesc</styleUrl>
        <Polygon>
          <outerBoundaryIs>
            <LinearRing>
              <tessellate>1</tessellate>
              <coordinates>
                -2.4898824,43.0672712,0
                -2.4901881,43.0670909,0
                -2.4906763,43.0668323,0
                -2.4908426,43.0666677,0
                -2.4913978,43.0663777,0
                -2.4914602,43.066427,0
                -2.4915923,43.0663645,0
                -2.4917129,43.0662562,0
                -2.4918,43.0661175,0
                -2.4918961,43.0660366,0
                -2.4920104,43.0659596,0
                -2.4921397,43.0658646,0
                -2.4922985,43.0657637,0
                -2.4923669,43.0657091,0
                -2.49245,43.0656682,0
                -2.4926229,43.0655933,0
                -2.4925854,43.0655561,0
                -2.4924149,43.0656309,0
                -2.4923677,43.0656502,0
                -2.4923246,43.0656714,0
                -2.4922531,43.0657228,0
                -2.4921017,43.0658277,0
                -2.4919564,43.0659238,0
                -2.4918981,43.0658911,0
                -2.4917686,43.0659948,0
                -2.4916003,43.0660751,0
                -2.4914649,43.0661803,0
                -2.4913006,43.0662758,0
                -2.491084,43.0664443,0
                -2.4903115,43.0667813,0
                -2.4898478,43.0667544,0
                -2.4896677,43.0668154,0
                -2.4894379,43.0668823,0
                -2.4897214,43.0671242,0
                -2.4898824,43.0672712,0
              </coordinates>
            </LinearRing>
          </outerBoundaryIs>
        </Polygon>
      </Placemark>
      <Placemark>
        <name>SECTOR_01_ARRUNTA_3</name>
		<ExtendedData>
			<zoneId>60103</zoneId><zoneColor>003399</zoneColor>
	    </ExtendedData>
        <styleUrl>#poly-0288D1-1200-77-nodesc</styleUrl>
        <Polygon>
          <outerBoundaryIs>
            <LinearRing>
              <tessellate>1</tessellate>
              <coordinates>
                -2.488224,43.0664359,0
                -2.4884493,43.0662713,0
                -2.4879612,43.0661263,0
                -2.4871672,43.0660989,0
                -2.4870278,43.0661498,0
                -2.4872155,43.0663144,0
                -2.4876125,43.0664163,0
                -2.4879022,43.0665339,0
                -2.488224,43.0664359,0
              </coordinates>
            </LinearRing>
          </outerBoundaryIs>
        </Polygon>
      </Placemark>
      <Placemark>
        <name>SECTOR_01_LUZE_1</name>
		<ExtendedData>
			<zoneId>60104</zoneId><zoneColor>006600</zoneColor>
	    </ExtendedData>
        <styleUrl>#poly-097138-1200-77-nodesc</styleUrl>
        <Polygon>
          <outerBoundaryIs>
            <LinearRing>
              <tessellate>1</tessellate>
              <coordinates>
                -2.4897732,43.0681413,0
                -2.4899462,43.0679071,0
                -2.4897437,43.0677317,0
                -2.4892984,43.0678062,0
                -2.4887835,43.0677514,0
                -2.4877803,43.0675867,0
                -2.4876757,43.0678199,0
                -2.4885448,43.0680511,0
                -2.4890731,43.0682197,0
                -2.4897732,43.0681413,0
              </coordinates>
            </LinearRing>
          </outerBoundaryIs>
        </Polygon>
      </Placemark>
      <Placemark>
        <name>SECTOR_01_LUZE_2</name>
		<ExtendedData>
			<zoneId>60104</zoneId><zoneColor>006600</zoneColor>
	    </ExtendedData>
        <styleUrl>#poly-097138-1200-79-nodesc</styleUrl>
        <Polygon>
          <outerBoundaryIs>
            <LinearRing>
              <tessellate>1</tessellate>
              <coordinates>
                -2.4937219,43.0650594,0
                -2.4936749,43.0650027,0
                -2.4930124,43.0652868,0
                -2.4924518,43.0655435,0
                -2.4921367,43.0656816,0
                -2.4920147,43.0657777,0
                -2.4918726,43.0658624,0
                -2.4919638,43.0659108,0
                -2.4922139,43.0657369,0
                -2.4923537,43.0656421,0
                -2.4925418,43.065563,0
                -2.4926376,43.06552,0
                -2.4928609,43.0654181,0
                -2.4932042,43.065274,0
                -2.4933987,43.0651947,0
                -2.493561,43.0651178,0
                -2.4937219,43.0650594,0
              </coordinates>
            </LinearRing>
          </outerBoundaryIs>
        </Polygon>
      </Placemark>
      <Placemark>
        <name>SECTOR_01_BR_1</name>
		<ExtendedData>
			<zoneId>60105</zoneId><zoneColor>8B4513</zoneColor>
	    </ExtendedData>
        <styleUrl>#poly-4E342E-1200-77-nodesc</styleUrl>
        <Polygon>
          <outerBoundaryIs>
            <LinearRing>
              <tessellate>1</tessellate>
              <coordinates>
                -2.4885842,43.0669416,0
                -2.4887666,43.0667495,0
                -2.488536,43.0664086,0
                -2.4882892,43.0664634,0
                -2.4879512,43.0668122,0
                -2.4880746,43.0668945,0
                -2.4885842,43.0669416,0
              </coordinates>
            </LinearRing>
          </outerBoundaryIs>
        </Polygon>
      </Placemark>
      <Placemark>
        <name>SECTOR_01_BR_2</name>
		<ExtendedData>
			<zoneId>60105</zoneId><zoneColor>8B4513</zoneColor>
	    </ExtendedData>
        <styleUrl>#poly-4E342E-1200-77-nodesc</styleUrl>
        <Polygon>
          <outerBoundaryIs>
            <LinearRing>
              <tessellate>1</tessellate>
              <coordinates>
                -2.4919731,43.0657086,0
                -2.4921957,43.0655734,0
                -2.4921957,43.0654871,0
                -2.4920616,43.0653069,0
                -2.4918846,43.0653167,0
                -2.4917746,43.0654303,0
                -2.4916807,43.0654989,0
                -2.4919731,43.0657086,0
              </coordinates>
            </LinearRing>
          </outerBoundaryIs>
        </Polygon>
      </Placemark>
      <Placemark>
        <name>SECTOR_01_BR_3</name>
		<ExtendedData>
			<zoneId>60105</zoneId><zoneColor>8B4513</zoneColor>
	    </ExtendedData>
        <styleUrl>#poly-4E342E-1200-77-nodesc</styleUrl>
        <Polygon>
          <outerBoundaryIs>
            <LinearRing>
              <tessellate>1</tessellate>
              <coordinates>
                -2.4914474,43.0664865,0
                -2.4913777,43.0664101,0
                -2.4910799,43.0665668,0
                -2.4908654,43.0666746,0
                -2.4907822,43.0667452,0
                -2.4907151,43.066847,0
                -2.4904523,43.0669764,0
                -2.4899534,43.0672527,0
                -2.4897898,43.0675387,0
                -2.4898461,43.0676995,0
                -2.4908037,43.0671684,0
                -2.4910665,43.0670156,0
                -2.4910236,43.066896,0
                -2.490927,43.0667765,0
                -2.4912328,43.0666393,0
                -2.4914474,43.0664865,0
              </coordinates>
            </LinearRing>
          </outerBoundaryIs>
        </Polygon>
      </Placemark>
      <Placemark>
        <name>SECTOR_02_EXPRESS_1</name>
		<ExtendedData>
			<zoneId>60201</zoneId><zoneColor>FF00FF</zoneColor>
	    </ExtendedData>
        <styleUrl>#poly-F48FB1-1200-77-nodesc</styleUrl>
        <Polygon>
          <outerBoundaryIs>
            <LinearRing>
              <tessellate>1</tessellate>
              <coordinates>
                -2.4883766,43.0650199,0
                -2.4880226,43.0646711,0
                -2.4877758,43.0647886,0
                -2.4880387,43.0650944,0
                -2.488221,43.0650787,0
                -2.4883766,43.0650199,0
              </coordinates>
            </LinearRing>
          </outerBoundaryIs>
        </Polygon>
      </Placemark>
      <Placemark>
        <name>SECTOR_02_ARRUNTA_1</name>
		<ExtendedData>
			<zoneId>60203</zoneId><zoneColor>003399</zoneColor>
	    </ExtendedData>
        <styleUrl>#poly-0288D1-1200-77-nodesc</styleUrl>
        <Polygon>
          <outerBoundaryIs>
            <LinearRing>
              <tessellate>1</tessellate>
              <coordinates>
                -2.4920959,43.0628752,0
                -2.4918921,43.0626871,0
                -2.4911303,43.0634866,0
                -2.4917043,43.0628869,0
                -2.4919243,43.0630437,0
                -2.4920959,43.0628752,0
              </coordinates>
            </LinearRing>
          </outerBoundaryIs>
        </Polygon>
      </Placemark>
      <Placemark>
        <name>SECTOR_02_ARRUNTA_2</name>
		<ExtendedData>
			<zoneId>60203</zoneId><zoneColor>003399</zoneColor>
	    </ExtendedData>
        <styleUrl>#poly-0288D1-1200-77-nodesc</styleUrl>
        <Polygon>
          <outerBoundaryIs>
            <LinearRing>
              <tessellate>1</tessellate>
              <coordinates>
                -2.48749,43.064287,0
                -2.487533,43.0641479,0
                -2.4867739,43.0640264,0
                -2.4866854,43.0641929,0
                -2.48749,43.064287,0
              </coordinates>
            </LinearRing>
          </outerBoundaryIs>
        </Polygon>
      </Placemark>
      <Placemark>
        <name>SECTOR_02_ARRUNTA_3</name>
		<ExtendedData>
			<zoneId>60203</zoneId><zoneColor>003399</zoneColor>
	    </ExtendedData>
        <styleUrl>#poly-0288D1-1200-77-nodesc</styleUrl>
        <Polygon>
          <outerBoundaryIs>
            <LinearRing>
              <tessellate>1</tessellate>
              <coordinates>
                -2.4866921,43.0641626,0
                -2.486739,43.0640303,0
                -2.4854399,43.0638545,0
                -2.4854382,43.0639754,0
                -2.4866921,43.0641626,0
              </coordinates>
            </LinearRing>
          </outerBoundaryIs>
        </Polygon>
      </Placemark>
      <Placemark>
        <name>SECTOR_02_ARRUNTA_4</name>
		<ExtendedData>
			<zoneId>60203</zoneId><zoneColor>003399</zoneColor>
	    </ExtendedData>
        <styleUrl>#poly-0288D1-1200-77-nodesc</styleUrl>
        <Polygon>
          <outerBoundaryIs>
            <LinearRing>
              <tessellate>1</tessellate>
              <coordinates>
                -2.4891775,43.0634248,0
                -2.4890005,43.0631191,0
                -2.4880778,43.0633464,0
                -2.487595,43.0634483,0
                -2.4870478,43.0632641,0
                -2.4862217,43.0627036,0
                -2.485814,43.062688,0
                -2.4857228,43.0631308,0
                -2.4868869,43.0637383,0
                -2.4874877,43.0638951,0
                -2.4881582,43.0638285,0
                -2.4891775,43.0634248,0
              </coordinates>
            </LinearRing>
          </outerBoundaryIs>
        </Polygon>
      </Placemark>
      <Placemark>
        <name>SECTOR_02_LUZE_1</name>
		<ExtendedData>
			<zoneId>60204</zoneId><zoneColor>006600</zoneColor>
	    </ExtendedData>
        <styleUrl>#poly-097138-1200-77-nodesc</styleUrl>
        <Polygon>
          <outerBoundaryIs>
            <LinearRing>
              <tessellate>1</tessellate>
              <coordinates>
                -2.4938003,43.0629468,0
                -2.4936983,43.062886,0
                -2.4932826,43.063033,0
                -2.4922044,43.0632858,0
                -2.4923385,43.0634661,0
                -2.4931029,43.0632231,0
                -2.4936554,43.0630408,0
                -2.4938003,43.0629468,0
              </coordinates>
            </LinearRing>
          </outerBoundaryIs>
        </Polygon>
      </Placemark>
      <Placemark>
        <name>SECTOR_02_BR_1</name>
		<ExtendedData>
			<zoneId>60205</zoneId><zoneColor>8B4513</zoneColor>
	    </ExtendedData>
        <styleUrl>#poly-4E342E-1200-77-nodesc</styleUrl>
        <Polygon>
          <outerBoundaryIs>
            <LinearRing>
              <tessellate>1</tessellate>
              <coordinates>
                -2.4922622,43.0634769,0
                -2.4921496,43.0633044,0
                -2.4918009,43.0635728,0
                -2.4913449,43.064343,0
                -2.4903579,43.0648838,0
                -2.4905094,43.065165,0
                -2.4917017,43.0647878,0
                -2.4921603,43.0647035,0
                -2.4922783,43.0639138,0
                -2.49245,43.0635827,0
                -2.4922622,43.0634769,0
              </coordinates>
            </LinearRing>
          </outerBoundaryIs>
        </Polygon>
      </Placemark>
      <Placemark>
        <name>SECTOR_02_BR_2</name>
		<ExtendedData>
			<zoneId>60205</zoneId><zoneColor>8B4513</zoneColor>
	    </ExtendedData>
        <styleUrl>#poly-4E342E-1200-77-nodesc</styleUrl>
        <Polygon>
          <outerBoundaryIs>
            <LinearRing>
              <tessellate>1</tessellate>
              <coordinates>
                -2.4889774,43.0643262,0
                -2.4889023,43.0642243,0
                -2.48749,43.064287,0
                -2.4871481,43.0645633,0
                -2.4867297,43.0644693,0
                -2.4861879,43.0646005,0
                -2.4861557,43.0648357,0
                -2.4861959,43.0649846,0
                -2.4862764,43.065108,0
                -2.4867378,43.0657665,0
                -2.4870999,43.065886,0
                -2.4883551,43.0654157,0
                -2.4874754,43.0648435,0
                -2.4880226,43.0646711,0
                -2.4889774,43.0643262,0
              </coordinates>
            </LinearRing>
          </outerBoundaryIs>
        </Polygon>
      </Placemark>
      <Placemark>
        <name>SECTOR_02_BR_3</name>
		<ExtendedData>
			<zoneId>60205</zoneId><zoneColor>8B4513</zoneColor>
	    </ExtendedData>
        <styleUrl>#poly-4E342E-1200-77-nodesc</styleUrl>
        <Polygon>
          <outerBoundaryIs>
            <LinearRing>
              <tessellate>1</tessellate>
              <coordinates>
                -2.4910765,43.0630721,0
                -2.4908726,43.0628291,0
                -2.4902986,43.0629898,0
                -2.4897032,43.0629074,0
                -2.4890434,43.0631191,0
                -2.4892579,43.0634287,0
                -2.4898909,43.0632994,0
                -2.4905883,43.0632288,0
                -2.4910765,43.0630721,0
              </coordinates>
            </LinearRing>
          </outerBoundaryIs>
        </Polygon>
      </Placemark>
      <Placemark>
        <name>SECTOR_03_MERKE_1</name>
		<ExtendedData>
			<zoneId>60302</zoneId><zoneColor>FF4646</zoneColor>
	    </ExtendedData>
        <styleUrl>#poly-A52714-1200-77-nodesc</styleUrl>
        <Polygon>
          <outerBoundaryIs>
            <LinearRing>
              <tessellate>1</tessellate>
              <coordinates>
                -2.4960734,43.0633701,0
                -2.4959983,43.0632996,0
                -2.4959339,43.0633584,0
                -2.4957623,43.0634093,0
                -2.4955906,43.0634093,0
                -2.4955852,43.0635092,0
                -2.4956925,43.0635308,0
                -2.4958106,43.0637523,0
                -2.4958856,43.0636406,0
                -2.4959715,43.0634681,0
                -2.4960734,43.0633701,0
              </coordinates>
            </LinearRing>
          </outerBoundaryIs>
        </Polygon>
      </Placemark>
      <Placemark>
        <name>SECTOR_03_ARRUNTA_1</name>
		<ExtendedData>
			<zoneId>60303</zoneId><zoneColor>003399</zoneColor>
	    </ExtendedData>
        <styleUrl>#poly-0288D1-1200-77-nodesc</styleUrl>
        <Polygon>
          <outerBoundaryIs>
            <LinearRing>
              <tessellate>1</tessellate>
              <coordinates>
                -2.4938074,43.0651582,0
                -2.4937591,43.0651171,0
                -2.4934399,43.0652444,0
                -2.4930859,43.0654013,0
                -2.4928912,43.0654876,0
                -2.492654,43.0655893,0
                -2.4924527,43.0656604,0
                -2.4921203,43.0658891,0
                -2.491895,43.0660498,0
                -2.4917662,43.0661439,0
                -2.4918842,43.0660988,0
                -2.4921551,43.0659342,0
                -2.4926594,43.0656559,0
                -2.493051,43.0654737,0
                -2.493456,43.0652973,0
                -2.4938074,43.0651582,0
              </coordinates>
            </LinearRing>
          </outerBoundaryIs>
        </Polygon>
      </Placemark>
      <Placemark>
        <name>SECTOR_03_ARRUNTA_2</name>
		<ExtendedData>
			<zoneId>60303</zoneId><zoneColor>003399</zoneColor>
	    </ExtendedData>
        <styleUrl>#poly-0288D1-1200-77-nodesc</styleUrl>
        <Polygon>
          <outerBoundaryIs>
            <LinearRing>
              <tessellate>1</tessellate>
              <coordinates>
                -2.4961646,43.0634211,0
                -2.4960788,43.0633897,0
                -2.4959822,43.0634818,0
                -2.4958803,43.0636896,0
                -2.4957757,43.0638542,0
                -2.4953894,43.0642735,0
                -2.4950488,43.0645831,0
                -2.494794,43.0648085,0
                -2.4949281,43.0648771,0
                -2.4951158,43.0647379,0
                -2.4953814,43.0645165,0
                -2.4955745,43.0642735,0
                -2.4957649,43.0640874,0
                -2.4959232,43.0638914,0
                -2.4960788,43.0636014,0
                -2.4961646,43.0634211,0
              </coordinates>
            </LinearRing>
          </outerBoundaryIs>
        </Polygon>
      </Placemark>
      <Placemark>
        <name>SECTOR_03_ARRUNTA_3</name>
		<ExtendedData>
			<zoneId>60303</zoneId><zoneColor>003399</zoneColor>
	    </ExtendedData>
        <styleUrl>#poly-0288D1-1200-77-nodesc</styleUrl>
        <Polygon>
          <outerBoundaryIs>
            <LinearRing>
              <tessellate>1</tessellate>
              <coordinates>
                -2.4949281,43.0648771,0
                -2.494794,43.0648085,0
                -2.4945216,43.0648906,0
                -2.494299,43.0649612,0
                -2.4943767,43.0650964,0
                -2.4949281,43.0648771,0
              </coordinates>
            </LinearRing>
          </outerBoundaryIs>
        </Polygon>
      </Placemark>
      <Placemark>
        <name>SECTOR_03_LUZE_1</name>
		<ExtendedData>
			<zoneId>60304</zoneId><zoneColor>006600</zoneColor>
	    </ExtendedData>
        <styleUrl>#poly-097138-1200-77-nodesc</styleUrl>
        <Polygon>
          <outerBoundaryIs>
            <LinearRing>
              <tessellate>1</tessellate>
              <coordinates>
                -2.4937591,43.0651171,0
                -2.4937219,43.0650594,0
                -2.492584,43.0655405,0
                -2.4926229,43.0655933,0
                -2.4937591,43.0651171,0
              </coordinates>
            </LinearRing>
          </outerBoundaryIs>
        </Polygon>
      </Placemark>
      <Placemark>
        <name>SECTOR_03_LUZE_2</name>
		<ExtendedData>
			<zoneId>60304</zoneId><zoneColor>006600</zoneColor>
	    </ExtendedData>
        <styleUrl>#poly-097138-1200-77-nodesc</styleUrl>
        <Polygon>
          <outerBoundaryIs>
            <LinearRing>
              <tessellate>1</tessellate>
              <coordinates>
                -2.4957854,43.0664459,0
                -2.4953562,43.0658345,0
                -2.4950022,43.0654152,0
                -2.4944657,43.0651722,0
                -2.4942619,43.0652467,0
                -2.4948144,43.0654975,0
                -2.4951524,43.0658541,0
                -2.4956191,43.0665008,0
                -2.4957854,43.0664459,0
              </coordinates>
            </LinearRing>
          </outerBoundaryIs>
        </Polygon>
      </Placemark>
      <Placemark>
        <name>SECTOR_03_BR_1 (60305) #8B4513</name>
		<ExtendedData>
			<zoneId>60305</zoneId><zoneColor>8B4513</zoneColor>
	    </ExtendedData>
        <styleUrl>#poly-4E342E-1200-77-nodesc</styleUrl>
        <Polygon>
          <outerBoundaryIs>
            <LinearRing>
              <tessellate>1</tessellate>
              <coordinates>
                -2.4957924,43.0667789,0
                -2.4952961,43.0660813,0
                -2.4950816,43.0657992,0
                -2.4945988,43.0653954,0
                -2.4941776,43.0652426,0
                -2.4941843,43.0649173,0
                -2.4939255,43.0651622,0
                -2.4933703,43.0654503,0
                -2.4928124,43.0656855,0
                -2.4921848,43.0659872,0
                -2.4918842,43.0660988,0
                -2.4919219,43.0661832,0
                -2.4921526,43.0661205,0
                -2.4924959,43.0659794,0
                -2.4928446,43.0658266,0
                -2.493322,43.0656345,0
                -2.4937297,43.0654582,0
                -2.4942233,43.0653367,0
                -2.4945773,43.0655327,0
                -2.4948133,43.0657364,0
                -2.4952103,43.0661479,0
                -2.4956368,43.0668436,0
                -2.4957924,43.0667789,0
              </coordinates>
            </LinearRing>
          </outerBoundaryIs>
        </Polygon>
      </Placemark>
      <Placemark>
        <name>SECTOR_03_BR_2</name>
		<ExtendedData>
			<zoneId>60305</zoneId><zoneColor>8B4513</zoneColor>
	    </ExtendedData>
        <styleUrl>#poly-4E342E-1200-77-nodesc</styleUrl>
        <Polygon>
          <outerBoundaryIs>
            <LinearRing>
              <tessellate>1</tessellate>
              <coordinates>
                -2.4955007,43.0641109,0
                -2.4956188,43.0640051,0
                -2.4953774,43.0639737,0
                -2.495364,43.0638541,0
                -2.4953733,43.063666,0
                -2.4954002,43.0634819,0
                -2.4954618,43.0634054,0
                -2.4957837,43.0633858,0
                -2.4959621,43.0633074,0
                -2.4959192,43.0631624,0
                -2.4952862,43.0631938,0
                -2.4950072,43.0633074,0
                -2.4949643,43.0635857,0
                -2.4950233,43.0639894,0
                -2.4951628,43.0640756,0
                -2.4955007,43.0641109,0
              </coordinates>
            </LinearRing>
          </outerBoundaryIs>
        </Polygon>
      </Placemark>
      <Placemark>
        <name>SECTOR_04_ARRUNTA_1</name>
		<ExtendedData>
			<zoneId>60403</zoneId><zoneColor>003399</zoneColor>
	    </ExtendedData>
        <styleUrl>#poly-0288D1-1200-77-nodesc</styleUrl>
        <Polygon>
          <outerBoundaryIs>
            <LinearRing>
              <tessellate>1</tessellate>
              <coordinates>
                -2.4884906,43.0686139,0
                -2.4887106,43.0685237,0
                -2.4876806,43.0680652,0
                -2.4875036,43.0681828,0
                -2.4884906,43.0686139,0
              </coordinates>
            </LinearRing>
          </outerBoundaryIs>
        </Polygon>
      </Placemark>
      <Placemark>
        <name>SECTOR_04_LUZE_1</name>
		<ExtendedData>
			<zoneId>60404</zoneId><zoneColor>006600</zoneColor>
	    </ExtendedData>
        <styleUrl>#poly-0F9D58-1200-77-nodesc</styleUrl>
        <Polygon>
          <outerBoundaryIs>
            <LinearRing>
              <tessellate>1</tessellate>
              <coordinates>
                -2.4901874,43.0685318,0
                -2.4901338,43.0683005,0
                -2.4899943,43.0683436,0
                -2.4899996,43.0684573,0
                -2.4896456,43.0685318,0
                -2.488959,43.0685435,0
                -2.4887106,43.0685237,0
                -2.4887497,43.0686728,0
                -2.4897475,43.0686415,0
                -2.4901874,43.0685318,0
              </coordinates>
            </LinearRing>
          </outerBoundaryIs>
        </Polygon>
      </Placemark>
      <Placemark>
        <name>SECTOR_04_BR_1</name>
		<ExtendedData>
			<zoneId>60405</zoneId><zoneColor>8B4513</zoneColor>
	    </ExtendedData>
        <styleUrl>#poly-4E342E-1200-77-nodesc</styleUrl>
        <Polygon>
          <outerBoundaryIs>
            <LinearRing>
              <tessellate>1</tessellate>
              <coordinates>
                -2.487958,43.0690261,0
                -2.487958,43.0687753,0
                -2.487486,43.0687282,0
                -2.4870139,43.0682893,0
                -2.4868208,43.0683599,0
                -2.4870568,43.0688223,0
                -2.4874431,43.0689947,0
                -2.487958,43.0690261,0
              </coordinates>
            </LinearRing>
          </outerBoundaryIs>
        </Polygon>
      </Placemark>
      <Placemark>
        <name>SECTOR_04_BR_2</name>
		<ExtendedData>
			<zoneId>60405</zoneId><zoneColor>8B4513</zoneColor>
	    </ExtendedData>
        <styleUrl>#poly-4E342E-1200-77-nodesc</styleUrl>
        <Polygon>
          <outerBoundaryIs>
            <LinearRing>
              <tessellate>1</tessellate>
              <coordinates>
                -2.4899996,43.0684573,0
                -2.4899514,43.0683319,0
                -2.4888248,43.0684299,0
                -2.4887712,43.0685161,0
                -2.4890126,43.0685278,0
                -2.4896456,43.0685318,0
                -2.4899996,43.0684573,0
              </coordinates>
            </LinearRing>
          </outerBoundaryIs>
        </Polygon>
      </Placemark>
    </Folder>
    <Folder>
      <name>ZONA_1_AZUL(</name>
	  <ExtendedData>
		<zoneId>50011</zoneId><zoneColor>FFFFFF</zoneColor>
	  </ExtendedData>
      <Placemark>
        <name>SECTOR_11_ARRUNTA_1</name>
		<ExtendedData>
			<zoneId>61103</zoneId><zoneColor>003399</zoneColor>
	    </ExtendedData>
        <styleUrl>#poly-0288D1-1200-77-nodesc</styleUrl>
        <Polygon>
          <outerBoundaryIs>
            <LinearRing>
              <tessellate>1</tessellate>
              <coordinates>
                -2.4976342,43.0627698,0
                -2.4974787,43.0625621,0
                -2.4968752,43.0627835,0
                -2.4963843,43.0630088,0
                -2.4965131,43.0631931,0
                -2.4970951,43.0630206,0
                -2.4976342,43.0627698,0
              </coordinates>
            </LinearRing>
          </outerBoundaryIs>
        </Polygon>
      </Placemark>
      <Placemark>
        <name>SECTOR_11_ARRUNTA_2</name>
		<ExtendedData>
			<zoneId>61103</zoneId><zoneColor>003399</zoneColor>
	    </ExtendedData>
        <styleUrl>#poly-0288D1-1200-77-nodesc</styleUrl>
        <Polygon>
          <outerBoundaryIs>
            <LinearRing>
              <tessellate>1</tessellate>
              <coordinates>
                -2.4993269,43.0612632,0
                -2.4991553,43.0612808,0
                -2.499225,43.0616277,0
                -2.4986913,43.0620196,0
                -2.4987905,43.0620843,0
                -2.4993806,43.0616198,0
                -2.4994181,43.0614944,0
                -2.4993269,43.0612632,0
              </coordinates>
            </LinearRing>
          </outerBoundaryIs>
        </Polygon>
      </Placemark>
      <Placemark>
        <name>SECTOR_11_ARRUNTA_3</name>
		<ExtendedData>
			<zoneId>61103</zoneId><zoneColor>003399</zoneColor>
	    </ExtendedData>
        <styleUrl>#poly-0288D1-1200-77-nodesc</styleUrl>
        <Polygon>
          <outerBoundaryIs>
            <LinearRing>
              <tessellate>1</tessellate>
              <coordinates>
                -2.4966152,43.0621392,0
                -2.4965562,43.0618217,0
                -2.4965294,43.0614964,0
                -2.4964918,43.0612377,0
                -2.4965991,43.0612025,0
                -2.4965294,43.0610888,0
                -2.4961968,43.0611476,0
                -2.4959125,43.061418,0
                -2.4961191,43.0614808,0
                -2.4961432,43.0615533,0
                -2.4962089,43.0618247,0
                -2.4962692,43.0621255,0
                -2.4963202,43.0623449,0
                -2.4966152,43.0621392,0
              </coordinates>
            </LinearRing>
          </outerBoundaryIs>
        </Polygon>
      </Placemark>
      <Placemark>
        <name>SECTOR_11_LUZE_1</name>
		<ExtendedData>
			<zoneId>61104</zoneId><zoneColor>006600</zoneColor>
	    </ExtendedData>
        <styleUrl>#poly-097138-1200-77-nodesc</styleUrl>
        <Polygon>
          <outerBoundaryIs>
            <LinearRing>
              <tessellate>1</tessellate>
              <coordinates>
                -2.4994262,43.0611006,0
                -2.4994047,43.0609751,0
                -2.4987985,43.0609124,0
                -2.4981012,43.0609124,0
                -2.4970712,43.0610222,0
                -2.496583,43.0610731,0
                -2.4966742,43.0611907,0
                -2.4979617,43.0610574,0
                -2.4986001,43.0610104,0
                -2.499056,43.061081,0
                -2.4994262,43.0611006,0
              </coordinates>
            </LinearRing>
          </outerBoundaryIs>
        </Polygon>
      </Placemark>
      <Placemark>
        <name>SECTOR_11_BR_1</name>
		<ExtendedData>
			<zoneId>61105</zoneId><zoneColor>8B4513</zoneColor>
	    </ExtendedData>
        <styleUrl>#poly-4E342E-1200-77-nodesc</styleUrl>
        <Polygon>
          <outerBoundaryIs>
            <LinearRing>
              <tessellate>1</tessellate>
              <coordinates>
                -2.4962854,43.0622822,0
                -2.496229,43.0619991,0
                -2.4961459,43.0616238,0
                -2.496111,43.0614945,0
                -2.4957435,43.0613671,0
                -2.4952366,43.0616786,0
                -2.4946599,43.0619726,0
                -2.4948611,43.0623038,0
                -2.4952245,43.0626193,0
                -2.4954619,43.0628094,0
                -2.4958669,43.0625919,0
                -2.4962183,43.0623744,0
                -2.4962854,43.0622822,0
              </coordinates>
            </LinearRing>
          </outerBoundaryIs>
        </Polygon>
      </Placemark>
      <Placemark>
        <name>SECTOR_12_ARRUNTA_1</name>
		<ExtendedData>
			<zoneId>61203</zoneId><zoneColor>003399</zoneColor>
	    </ExtendedData>
        <styleUrl>#poly-0288D1-1200-77-nodesc</styleUrl>
        <Polygon>
          <outerBoundaryIs>
            <LinearRing>
              <tessellate>1</tessellate>
              <coordinates>
                -2.5017738,43.0620536,0
                -2.5017845,43.06194,0
                -2.5012105,43.0619321,0
                -2.5002717,43.0619753,0
                -2.499333,43.0620184,0
                -2.4993759,43.0622261,0
                -2.4995744,43.062183,0
                -2.5000893,43.0621673,0
                -2.5007867,43.062136,0
                -2.5013071,43.0621124,0
                -2.5017738,43.0620536,0
              </coordinates>
            </LinearRing>
          </outerBoundaryIs>
        </Polygon>
      </Placemark>
      <Placemark>
        <name>SECTOR_12_LUZE_1</name>
		<ExtendedData>
			<zoneId>61204</zoneId><zoneColor>006600</zoneColor>
	    </ExtendedData>
        <styleUrl>#poly-097138-1200-77-nodesc</styleUrl>
        <Polygon>
          <outerBoundaryIs>
            <LinearRing>
              <tessellate>1</tessellate>
              <coordinates>
                -2.5035655,43.0602586,0
                -2.5035172,43.0600077,0
                -2.5033026,43.0599842,0
                -2.5025355,43.060188,0
                -2.501527,43.0604232,0
                -2.5010871,43.0605408,0
                -2.500658,43.0605917,0
                -2.5006955,43.0607642,0
                -2.5009047,43.0608975,0
                -2.5013848,43.0607348,0
                -2.501645,43.0606623,0
                -2.5023746,43.0605015,0
                -2.5035655,43.0602586,0
              </coordinates>
            </LinearRing>
          </outerBoundaryIs>
        </Polygon>
      </Placemark>
      <Placemark>
        <name>SECTOR_12_BR_1</name>
		<ExtendedData>
			<zoneId>61205</zoneId><zoneColor>8B4513</zoneColor>
	    </ExtendedData>
        <styleUrl>#poly-4E342E-1200-77-nodesc</styleUrl>
        <Polygon>
          <outerBoundaryIs>
            <LinearRing>
              <tessellate>1</tessellate>
              <coordinates>
                -2.5017738,43.0621242,0
                -2.5017738,43.0620536,0
                -2.5015431,43.0620732,0
                -2.5013071,43.0621124,0
                -2.5010978,43.0621634,0
                -2.5000893,43.0621673,0
                -2.4996655,43.0621712,0
                -2.4994885,43.06223,0
                -2.4996709,43.062281,0
                -2.5002181,43.062277,0
                -2.5008779,43.0622692,0
                -2.501291,43.0622731,0
                -2.5017738,43.0621242,0
              </coordinates>
            </LinearRing>
          </outerBoundaryIs>
        </Polygon>
      </Placemark>
      <Placemark>
        <name>SECTOR_12_BR_2</name>
		<ExtendedData>
			<zoneId>61205</zoneId><zoneColor>8B4513</zoneColor>
	    </ExtendedData>
        <styleUrl>#poly-4E342E-1200-77-nodesc</styleUrl>
        <Polygon>
          <outerBoundaryIs>
            <LinearRing>
              <tessellate>1</tessellate>
              <coordinates>
                -2.501763,43.0619047,0
                -2.5017094,43.0614462,0
                -2.5017094,43.0611287,0
                -2.5014734,43.0612306,0
                -2.5015699,43.0618969,0
                -2.501763,43.0619047,0
              </coordinates>
            </LinearRing>
          </outerBoundaryIs>
        </Polygon>
      </Placemark>
      <Placemark>
        <name>SECTOR_12_BR_3</name>
		<ExtendedData>
			<zoneId>61205</zoneId><zoneColor>8B4513</zoneColor>
	    </ExtendedData>
        <styleUrl>#poly-4E342E-1200-77-nodesc</styleUrl>
        <Polygon>
          <outerBoundaryIs>
            <LinearRing>
              <tessellate>1</tessellate>
              <coordinates>
                -2.5006365,43.0607328,0
                -2.5005775,43.0606388,0
                -2.5002395,43.0606819,0
                -2.5000035,43.0607916,0
                -2.4997836,43.0608974,0
                -2.4995314,43.0609758,0
                -2.499451,43.0609837,0
                -2.4994939,43.0611012,0
                -2.4996709,43.0611326,0
                -2.5000464,43.0610777,0
                -2.5002449,43.061015,0
                -2.5006365,43.0607328,0
              </coordinates>
            </LinearRing>
          </outerBoundaryIs>
        </Polygon>
      </Placemark>
      <Placemark>
        <name>SECTOR_12_BR_4</name>
		<ExtendedData>
			<zoneId>61205</zoneId><zoneColor>8B4513</zoneColor>
	    </ExtendedData>
        <styleUrl>#poly-4E342E-1200-77-nodesc</styleUrl>
        <Polygon>
          <outerBoundaryIs>
            <LinearRing>
              <tessellate>1</tessellate>
              <coordinates>
                -2.5013142,43.0625261,0
                -2.501282,43.0623301,0
                -2.4996298,43.0623301,0
                -2.4987286,43.0623615,0
                -2.4977214,43.0627858,0
                -2.49655,43.0633604,0
                -2.4966428,43.0634342,0
                -2.4970039,43.0634178,0
                -2.4973321,43.0634449,0
                -2.4976014,43.0633741,0
                -2.4980755,43.0631189,0
                -2.4990183,43.0625966,0
                -2.5008314,43.0625653,0
                -2.5013142,43.0625261,0
              </coordinates>
            </LinearRing>
          </outerBoundaryIs>
        </Polygon>
      </Placemark>
      <Placemark>
        <name>SECTOR_13_ARRUNTA_1</name>
		<ExtendedData>
			<zoneId>61303</zoneId><zoneColor>003399</zoneColor>
	    </ExtendedData>
        <styleUrl>#poly-0288D1-1200-77-nodesc</styleUrl>
        <Polygon>
          <outerBoundaryIs>
            <LinearRing>
              <tessellate>1</tessellate>
              <coordinates>
                -2.4968312,43.0634255,0
                -2.4967668,43.0635862,0
                -2.4975178,43.0636058,0
                -2.497947,43.0635274,0
                -2.4989448,43.0629043,0
                -2.4988107,43.0627475,0
                -2.49777,43.0633746,0
                -2.4973623,43.0634882,0
                -2.4968312,43.0634255,0
              </coordinates>
            </LinearRing>
          </outerBoundaryIs>
        </Polygon>
      </Placemark>
      <Placemark>
        <name>SECTOR_13_ARRUNTA_2</name>
		<ExtendedData>
			<zoneId>61303</zoneId><zoneColor>003399</zoneColor>
	    </ExtendedData>
        <styleUrl>#poly-0288D1-1200-77-nodesc</styleUrl>
        <Polygon>
          <outerBoundaryIs>
            <LinearRing>
              <tessellate>1</tessellate>
              <coordinates>
                -2.5011951,43.0627397,0
                -2.5012193,43.0626299,0
                -2.4988938,43.0626808,0
                -2.4989448,43.0628024,0
                -2.499052,43.0627729,0
                -2.5011951,43.0627397,0
              </coordinates>
            </LinearRing>
          </outerBoundaryIs>
        </Polygon>
      </Placemark>
      <Placemark>
        <name>SECTOR_13_BR_1</name>
		<ExtendedData>
			<zoneId>61305</zoneId><zoneColor>8B4513</zoneColor>
	    </ExtendedData>
        <styleUrl>#poly-4E342E-1200-77-nodesc</styleUrl>
        <Polygon>
          <outerBoundaryIs>
            <LinearRing>
              <tessellate>1</tessellate>
              <coordinates>
                -2.501289,43.0626495,0
                -2.5012757,43.0627514,0
                -2.499052,43.0627729,0
                -2.499154,43.0629239,0
                -2.5036547,43.0629866,0
                -2.5034133,43.0626299,0
                -2.501289,43.0626495,0
              </coordinates>
            </LinearRing>
          </outerBoundaryIs>
        </Polygon>
      </Placemark>
      <Placemark>
        <name>SECTOR_13_BR_2</name>
		<ExtendedData>
			<zoneId>61305</zoneId><zoneColor>8B4513</zoneColor>
	    </ExtendedData>
        <styleUrl>#poly-4E342E-1200-77-nodesc</styleUrl>
        <Polygon>
          <outerBoundaryIs>
            <LinearRing>
              <tessellate>1</tessellate>
              <coordinates>
                -2.5011399,43.063638,0
                -2.5011506,43.0631284,0
                -2.5002923,43.0631343,0
                -2.499434,43.0631246,0
                -2.4990532,43.0632147,0
                -2.4986776,43.0632421,0
                -2.497889,43.0635831,0
                -2.4969932,43.0636576,0
                -2.4958881,43.0641984,0
                -2.4962945,43.0643356,0
                -2.4968725,43.0644257,0
                -2.4979856,43.0645433,0
                -2.4984201,43.0644042,0
                -2.4987581,43.0642102,0
                -2.498962,43.0637751,0
                -2.5011399,43.063638,0
              </coordinates>
            </LinearRing>
          </outerBoundaryIs>
        </Polygon>
      </Placemark>
    </Folder>
    <Folder>
      <name>ZONA_2_AMARILLA</name>
	  <ExtendedData>
		<zoneId>50012</zoneId><zoneColor>FFFFFF</zoneColor>
	  </ExtendedData>
      <Placemark>
        <name>SECTOR_21_MERKE_1</name>
		<ExtendedData>
			<zoneId>62102</zoneId><zoneColor>FF4646</zoneColor>
	    </ExtendedData>
        <styleUrl>#poly-A52714-1200-77-nodesc</styleUrl>
        <Polygon>
          <outerBoundaryIs>
            <LinearRing>
              <tessellate>1</tessellate>
              <coordinates>
                -2.4921026,43.0620315,0
                -2.4922474,43.0614887,0
                -2.4923708,43.0609419,0
                -2.4920597,43.0609282,0
                -2.4918612,43.0612731,0
                -2.4917673,43.0620551,0
                -2.4921026,43.0620315,0
              </coordinates>
            </LinearRing>
          </outerBoundaryIs>
        </Polygon>
      </Placemark>
      <Placemark>
        <name>SECTOR_21_ARRUNTA_1</name>
		<ExtendedData>
			<zoneId>62103</zoneId><zoneColor>003399</zoneColor>
	    </ExtendedData>
        <styleUrl>#poly-0288D1-1200-77-nodesc</styleUrl>
        <Polygon>
          <outerBoundaryIs>
            <LinearRing>
              <tessellate>1</tessellate>
              <coordinates>
                -2.4950785,43.0605089,0
                -2.4951375,43.0603364,0
                -2.494483,43.0602306,0
                -2.4943006,43.0604148,0
                -2.4939895,43.0607166,0
                -2.4936676,43.061085,0
                -2.4932492,43.0615514,0
                -2.4926913,43.0621981,0
                -2.4923855,43.0624647,0
                -2.4924446,43.0626175,0
                -2.4925733,43.0625861,0
                -2.4929542,43.0622373,0
                -2.493276,43.0618611,0
                -2.4936194,43.0614848,0
                -2.4938554,43.0611948,0
                -2.4941612,43.0608264,0
                -2.4945072,43.0610312,0
                -2.4943811,43.061526,0
                -2.4946976,43.0616455,0
                -2.4950785,43.0605089,0
              </coordinates>
            </LinearRing>
          </outerBoundaryIs>
        </Polygon>
      </Placemark>
      <Placemark>
        <name>SECTOR_21_ARRUNTA_2</name>
		<ExtendedData>
			<zoneId>62103</zoneId><zoneColor>003399</zoneColor>
	    </ExtendedData>
        <styleUrl>#poly-0288D1-1200-77-nodesc</styleUrl>
        <Polygon>
          <outerBoundaryIs>
            <LinearRing>
              <tessellate>1</tessellate>
              <coordinates>
                -2.4939186,43.0615803,0
                -2.4937255,43.0618057,0
                -2.4936745,43.0619703,0
                -2.4938167,43.0621153,0
                -2.4939937,43.0622388,0
                -2.4937657,43.0625171,0
                -2.4935779,43.0626895,0
                -2.4936584,43.0627111,0
                -2.4941707,43.0623368,0
                -2.4941788,43.0621232,0
                -2.4938247,43.0619899,0
                -2.4939159,43.0617587,0
                -2.4940876,43.0616783,0
                -2.4939186,43.0615803,0
              </coordinates>
            </LinearRing>
          </outerBoundaryIs>
        </Polygon>
      </Placemark>
      <Placemark>
        <name>SECTOR_21_ARRUNTA_3</name>
		<ExtendedData>
			<zoneId>62103</zoneId><zoneColor>003399</zoneColor>
	    </ExtendedData>
        <styleUrl>#poly-0288D1-1200-77-nodesc</styleUrl>
        <Polygon>
          <outerBoundaryIs>
            <LinearRing>
              <tessellate>1</tessellate>
              <coordinates>
                -2.4932794,43.0611797,0
                -2.4936763,43.0607838,0
                -2.4930541,43.0605565,0
                -2.4926732,43.0609681,0
                -2.4932794,43.0611797,0
              </coordinates>
            </LinearRing>
          </outerBoundaryIs>
        </Polygon>
      </Placemark>
      <Placemark>
        <name>SECTOR_21_LUZE_1</name>
		<ExtendedData>
			<zoneId>62104</zoneId><zoneColor>006600</zoneColor>
	    </ExtendedData>
        <styleUrl>#poly-097138-1200-77-nodesc</styleUrl>
        <Polygon>
          <outerBoundaryIs>
            <LinearRing>
              <tessellate>1</tessellate>
              <coordinates>
                -2.4950365,43.0602284,0
                -2.4954013,43.0592994,0
                -2.4940602,43.0593935,0
                -2.4933682,43.059515,0
                -2.4928371,43.0596875,0
                -2.4926118,43.0600167,0
                -2.4923275,43.061365,0
                -2.4920271,43.0624428,0
                -2.4922524,43.0624232,0
                -2.4924401,43.0618275,0
                -2.4926332,43.0609731,0
                -2.4928478,43.0599344,0
                -2.4931107,43.059711,0
                -2.4933843,43.0596836,0
                -2.493792,43.0596012,0
                -2.4942909,43.0595111,0
                -2.4949936,43.0594915,0
                -2.4948595,43.0598325,0
                -2.4947254,43.0602127,0
                -2.4950365,43.0602284,0
              </coordinates>
            </LinearRing>
          </outerBoundaryIs>
        </Polygon>
      </Placemark>
      <Placemark>
        <name>SECTOR_21_BR_1</name>
		<ExtendedData>
			<zoneId>62105</zoneId><zoneColor>8B4513</zoneColor>
	    </ExtendedData>
        <styleUrl>#poly-4E342E-1200-77-nodesc</styleUrl>
        <Polygon>
          <outerBoundaryIs>
            <LinearRing>
              <tessellate>1</tessellate>
              <coordinates>
                -2.494484,43.0602048,0
                -2.4947629,43.0599187,0
                -2.4940977,43.0597228,0
                -2.4933843,43.0596836,0
                -2.4931536,43.0597071,0
                -2.4930249,43.0598129,0
                -2.4929444,43.0604204,0
                -2.4937464,43.0607761,0
                -2.493277,43.0612376,0
                -2.4927874,43.0610554,0
                -2.4926728,43.061173,0
                -2.4932287,43.0614865,0
                -2.4936096,43.0610789,0
                -2.4940602,43.0606203,0
                -2.494484,43.0602048,0
              </coordinates>
            </LinearRing>
          </outerBoundaryIs>
        </Polygon>
      </Placemark>
      <Placemark>
        <name>SECTOR_21_BR_2</name>
		<ExtendedData>
			<zoneId>62105</zoneId><zoneColor>8B4513</zoneColor>
	    </ExtendedData>
        <styleUrl>#poly-4E342E-1200-77-nodesc</styleUrl>
        <Polygon>
          <outerBoundaryIs>
            <LinearRing>
              <tessellate>1</tessellate>
              <coordinates>
                -2.4939867,43.0628933,0
                -2.4945553,43.0622779,0
                -2.4943756,43.0621388,0
                -2.494204,43.0623445,0
                -2.4936521,43.0627286,0
                -2.4935423,43.0627012,0
                -2.4937127,43.0625542,0
                -2.4938456,43.0623975,0
                -2.4939611,43.0622387,0
                -2.493764,43.0620976,0
                -2.4936474,43.0619487,0
                -2.493809,43.0616469,0
                -2.4941852,43.0612785,0
                -2.4939223,43.0612158,0
                -2.4933805,43.0618586,0
                -2.4926885,43.0625876,0
                -2.492844,43.0629873,0
                -2.4932947,43.0629344,0
                -2.4935683,43.0628384,0
                -2.4939867,43.0628933,0
              </coordinates>
            </LinearRing>
          </outerBoundaryIs>
        </Polygon>
      </Placemark>
    </Folder>
    <Folder>
      <name>ZONA_3_NARANJA</name>
	  <ExtendedData>
		<zoneId>50013</zoneId><zoneColor>FFFFFF</zoneColor>
	  </ExtendedData>
      <Placemark>
        <name>SECTOR_31_ARRUNTA_2</name>
		<ExtendedData>
			<zoneId>63103</zoneId><zoneColor>003399</zoneColor>
	    </ExtendedData>
        <styleUrl>#poly-0288D1-1200-77-nodesc</styleUrl>
        <Polygon>
          <outerBoundaryIs>
            <LinearRing>
              <tessellate>1</tessellate>
              <coordinates>
                -2.4851863,43.0645991,0
                -2.4851755,43.0644306,0
                -2.4847464,43.0644815,0
                -2.4838666,43.0646265,0
                -2.4829976,43.0647755,0
                -2.4831049,43.0649557,0
                -2.4832658,43.0648852,0
                -2.484049,43.0647363,0
                -2.484387,43.0646657,0
                -2.4851863,43.0645991,0
              </coordinates>
            </LinearRing>
          </outerBoundaryIs>
        </Polygon>
      </Placemark>
      <Placemark>
        <name>SECTOR_31_LUZE_1</name>
		<ExtendedData>
			<zoneId>63104</zoneId><zoneColor>006600</zoneColor>
	    </ExtendedData>
        <styleUrl>#poly-097138-1200-77-nodesc</styleUrl>
        <Polygon>
          <outerBoundaryIs>
            <LinearRing>
              <tessellate>1</tessellate>
              <coordinates>
                -2.4832549,43.0654459,0
                -2.4830188,43.0648424,0
                -2.4827667,43.0649443,0
                -2.4829276,43.065493,0
                -2.4832549,43.0654459,0
              </coordinates>
            </LinearRing>
          </outerBoundaryIs>
        </Polygon>
      </Placemark>
      <Placemark>
        <name>SECTOR_31_BR_1</name>
		<ExtendedData>
			<zoneId>63105</zoneId><zoneColor>8B4513</zoneColor>
	    </ExtendedData>
        <styleUrl>#poly-4E342E-1200-77-nodesc</styleUrl>
        <Polygon>
          <outerBoundaryIs>
            <LinearRing>
              <tessellate>1</tessellate>
              <coordinates>
                -2.4854009,43.0640544,0
                -2.4851487,43.0640661,0
                -2.4852399,43.0646109,0
                -2.4841456,43.0647167,0
                -2.4841375,43.0649342,0
                -2.4842904,43.0651478,0
                -2.4852104,43.0650851,0
                -2.4853204,43.065332,0
                -2.4855618,43.0653046,0
                -2.4854813,43.0644541,0
                -2.4854009,43.0640544,0
              </coordinates>
            </LinearRing>
          </outerBoundaryIs>
        </Polygon>
      </Placemark>
      <Placemark>
        <name>SECTOR_31_BR_2</name>
		<ExtendedData>
			<zoneId>63105</zoneId><zoneColor>8B4513</zoneColor>
	    </ExtendedData>
        <styleUrl>#poly-4E342E-1200-77-nodesc</styleUrl>
        <Polygon>
          <outerBoundaryIs>
            <LinearRing>
              <tessellate>1</tessellate>
              <coordinates>
                -2.4854223,43.0660648,0
                -2.4854545,43.0658611,0
                -2.4853633,43.0656298,0
                -2.4835018,43.0655318,0
                -2.4834482,43.0655906,0
                -2.4834428,43.0658415,0
                -2.4835394,43.0660962,0
                -2.4837432,43.0662138,0
                -2.4837754,43.0661236,0
                -2.4840275,43.066057,0
                -2.484682,43.0660766,0
                -2.4854223,43.0660648,0
              </coordinates>
            </LinearRing>
          </outerBoundaryIs>
        </Polygon>
      </Placemark>
      <Placemark>
        <name>SECTOR_32_EXPRESS_1</name>
		<ExtendedData>
			<zoneId>63201</zoneId><zoneColor>FF00FF</zoneColor>
	    </ExtendedData>
        <styleUrl>#poly-F48FB1-1200-77-nodesc</styleUrl>
        <Polygon>
          <outerBoundaryIs>
            <LinearRing>
              <tessellate>1</tessellate>
              <coordinates>
                -2.4836663,43.063163,0
                -2.4836953,43.0629551,0
                -2.483441,43.0629259,0
                -2.4832854,43.0629063,0
                -2.48328,43.0629984,0
                -2.4832666,43.0631081,0
                -2.4836663,43.063163,0
              </coordinates>
            </LinearRing>
          </outerBoundaryIs>
        </Polygon>
      </Placemark>
      <Placemark>
        <name>SECTOR_32_ARRUNTA_1</name>
		<ExtendedData>
			<zoneId>63203</zoneId><zoneColor>003399</zoneColor>
	    </ExtendedData>
        <styleUrl>#poly-0288D1-1200-77-nodesc</styleUrl>
        <Polygon>
          <outerBoundaryIs>
            <LinearRing>
              <tessellate>1</tessellate>
              <coordinates>
                -2.4847359,43.0629669,0
                -2.4842907,43.0628924,0
                -2.4838455,43.0628258,0
                -2.4829603,43.0626926,0
                -2.482204,43.0625985,0
                -2.4821342,43.0626416,0
                -2.4820752,43.0628807,0
                -2.4827189,43.0629669,0
                -2.4832313,43.0630962,0
                -2.4832608,43.0628846,0
                -2.4835075,43.0629316,0
                -2.4836953,43.0629551,0
                -2.4836899,43.0630963,0
                -2.4846474,43.0632344,0
                -2.484685,43.0630943,0
                -2.4847359,43.0629669,0
              </coordinates>
            </LinearRing>
          </outerBoundaryIs>
        </Polygon>
      </Placemark>
      <Placemark>
        <name>SECTOR_32_ARRUNTA_2</name>
		<ExtendedData>
			<zoneId>63203</zoneId><zoneColor>003399</zoneColor>
	    </ExtendedData>
        <styleUrl>#poly-0288D1-1200-77-nodesc</styleUrl>
        <Polygon>
          <outerBoundaryIs>
            <LinearRing>
              <tessellate>1</tessellate>
              <coordinates>
                -2.4834539,43.0638267,0
                -2.4835075,43.0635386,0
                -2.4821075,43.0633152,0
                -2.4819791,43.0636079,0
                -2.4833332,43.063811,0
                -2.4834539,43.0638267,0
              </coordinates>
            </LinearRing>
          </outerBoundaryIs>
        </Polygon>
      </Placemark>
      <Placemark>
        <name>SECTOR_32_LUZE_1</name>
		<ExtendedData>
			<zoneId>63204</zoneId><zoneColor>006600</zoneColor>
	    </ExtendedData>
        <styleUrl>#poly-097138-1200-77-nodesc</styleUrl>
        <Polygon>
          <outerBoundaryIs>
            <LinearRing>
              <tessellate>1</tessellate>
              <coordinates>
                -2.4854283,43.0637717,0
                -2.4856858,43.062839,0
                -2.4854605,43.0627802,0
                -2.4853961,43.0630428,0
                -2.4847953,43.062937,0
                -2.4846474,43.0632344,0
                -2.4852781,43.0633132,0
                -2.4850957,43.0637208,0
                -2.4854283,43.0637717,0
              </coordinates>
            </LinearRing>
          </outerBoundaryIs>
        </Polygon>
      </Placemark>
    </Folder>
  </Document>
</kml>
