<?xml version="1.0" encoding="UTF-8"?>
<kml xmlns="http://www.opengis.net/kml/2.2">
  <Document>
    <name>Deba_OTA_02</name>
    <description>Sectores de la OTA de Deba</description>
    <Style id="icon-1899-0288D1-nodesc-normal">
      <IconStyle>
        <color>ffd18802</color>
        <scale>1</scale>
        <Icon>
          <href>https://www.gstatic.com/mapspro/images/stock/503-wht-blank_maps.png</href>
        </Icon>
        <hotSpot x="32" xunits="pixels" y="64" yunits="insetPixels"/>
      </IconStyle>
      <LabelStyle>
        <scale>0</scale>
      </LabelStyle>
      <BalloonStyle>
        <text><![CDATA[<h3>$[name]</h3>]]></text>
      </BalloonStyle>
    </Style>
    <Style id="icon-1899-0288D1-nodesc-highlight">
      <IconStyle>
        <color>ffd18802</color>
        <scale>1</scale>
        <Icon>
          <href>https://www.gstatic.com/mapspro/images/stock/503-wht-blank_maps.png</href>
        </Icon>
        <hotSpot x="32" xunits="pixels" y="64" yunits="insetPixels"/>
      </IconStyle>
      <LabelStyle>
        <scale>1</scale>
      </LabelStyle>
      <BalloonStyle>
        <text><![CDATA[<h3>$[name]</h3>]]></text>
      </BalloonStyle>
    </Style>
    <StyleMap id="icon-1899-0288D1-nodesc">
      <Pair>
        <key>normal</key>
        <styleUrl>#icon-1899-0288D1-nodesc-normal</styleUrl>
      </Pair>
      <Pair>
        <key>highlight</key>
        <styleUrl>#icon-1899-0288D1-nodesc-highlight</styleUrl>
      </Pair>
    </StyleMap>
    <Style id="poly-000000-1200-77-normal">
      <LineStyle>
        <color>ff000000</color>
        <width>1.2</width>
      </LineStyle>
      <PolyStyle>
        <color>4d000000</color>
        <fill>1</fill>
        <outline>1</outline>
      </PolyStyle>
    </Style>
    <Style id="poly-000000-1200-77-highlight">
      <LineStyle>
        <color>ff000000</color>
        <width>1.8</width>
      </LineStyle>
      <PolyStyle>
        <color>4d000000</color>
        <fill>1</fill>
        <outline>1</outline>
      </PolyStyle>
    </Style>
    <StyleMap id="poly-000000-1200-77">
      <Pair>
        <key>normal</key>
        <styleUrl>#poly-000000-1200-77-normal</styleUrl>
      </Pair>
      <Pair>
        <key>highlight</key>
        <styleUrl>#poly-000000-1200-77-highlight</styleUrl>
      </Pair>
    </StyleMap>
    <Style id="poly-01579B-1200-77-nodesc-normal">
      <LineStyle>
        <color>ff9b5701</color>
        <width>1.2</width>
      </LineStyle>
      <PolyStyle>
        <color>4d9b5701</color>
        <fill>1</fill>
        <outline>1</outline>
      </PolyStyle>
      <BalloonStyle>
        <text><![CDATA[<h3>$[name]</h3>]]></text>
      </BalloonStyle>
    </Style>
    <Style id="poly-01579B-1200-77-nodesc-highlight">
      <LineStyle>
        <color>ff9b5701</color>
        <width>1.8</width>
      </LineStyle>
      <PolyStyle>
        <color>4d9b5701</color>
        <fill>1</fill>
        <outline>1</outline>
      </PolyStyle>
      <BalloonStyle>
        <text><![CDATA[<h3>$[name]</h3>]]></text>
      </BalloonStyle>
    </Style>
    <StyleMap id="poly-01579B-1200-77-nodesc">
      <Pair>
        <key>normal</key>
        <styleUrl>#poly-01579B-1200-77-nodesc-normal</styleUrl>
      </Pair>
      <Pair>
        <key>highlight</key>
        <styleUrl>#poly-01579B-1200-77-nodesc-highlight</styleUrl>
      </Pair>
    </StyleMap>
    <Style id="poly-1A237E-1200-77-nodesc-normal">
      <LineStyle>
        <color>ff7e231a</color>
        <width>1.2</width>
      </LineStyle>
      <PolyStyle>
        <color>4d7e231a</color>
        <fill>1</fill>
        <outline>1</outline>
      </PolyStyle>
      <BalloonStyle>
        <text><![CDATA[<h3>$[name]</h3>]]></text>
      </BalloonStyle>
    </Style>
    <Style id="poly-1A237E-1200-77-nodesc-highlight">
      <LineStyle>
        <color>ff7e231a</color>
        <width>1.8</width>
      </LineStyle>
      <PolyStyle>
        <color>4d7e231a</color>
        <fill>1</fill>
        <outline>1</outline>
      </PolyStyle>
      <BalloonStyle>
        <text><![CDATA[<h3>$[name]</h3>]]></text>
      </BalloonStyle>
    </Style>
    <StyleMap id="poly-1A237E-1200-77-nodesc">
      <Pair>
        <key>normal</key>
        <styleUrl>#poly-1A237E-1200-77-nodesc-normal</styleUrl>
      </Pair>
      <Pair>
        <key>highlight</key>
        <styleUrl>#poly-1A237E-1200-77-nodesc-highlight</styleUrl>
      </Pair>
    </StyleMap>
    <Style id="poly-9C27B0-1200-77-nodesc-normal">
      <LineStyle>
        <color>ffb0279c</color>
        <width>1.2</width>
      </LineStyle>
      <PolyStyle>
        <color>4db0279c</color>
        <fill>1</fill>
        <outline>1</outline>
      </PolyStyle>
      <BalloonStyle>
        <text><![CDATA[<h3>$[name]</h3>]]></text>
      </BalloonStyle>
    </Style>
    <Style id="poly-9C27B0-1200-77-nodesc-highlight">
      <LineStyle>
        <color>ffb0279c</color>
        <width>1.8</width>
      </LineStyle>
      <PolyStyle>
        <color>4db0279c</color>
        <fill>1</fill>
        <outline>1</outline>
      </PolyStyle>
      <BalloonStyle>
        <text><![CDATA[<h3>$[name]</h3>]]></text>
      </BalloonStyle>
    </Style>
    <StyleMap id="poly-9C27B0-1200-77-nodesc">
      <Pair>
        <key>normal</key>
        <styleUrl>#poly-9C27B0-1200-77-nodesc-normal</styleUrl>
      </Pair>
      <Pair>
        <key>highlight</key>
        <styleUrl>#poly-9C27B0-1200-77-nodesc-highlight</styleUrl>
      </Pair>
    </StyleMap>
    <Style id="poly-A52714-1200-77-nodesc-normal">
      <LineStyle>
        <color>ff1427a5</color>
        <width>1.2</width>
      </LineStyle>
      <PolyStyle>
        <color>4d1427a5</color>
        <fill>1</fill>
        <outline>1</outline>
      </PolyStyle>
      <BalloonStyle>
        <text><![CDATA[<h3>$[name]</h3>]]></text>
      </BalloonStyle>
    </Style>
    <Style id="poly-A52714-1200-77-nodesc-highlight">
      <LineStyle>
        <color>ff1427a5</color>
        <width>1.8</width>
      </LineStyle>
      <PolyStyle>
        <color>4d1427a5</color>
        <fill>1</fill>
        <outline>1</outline>
      </PolyStyle>
      <BalloonStyle>
        <text><![CDATA[<h3>$[name]</h3>]]></text>
      </BalloonStyle>
    </Style>
    <StyleMap id="poly-A52714-1200-77-nodesc">
      <Pair>
        <key>normal</key>
        <styleUrl>#poly-A52714-1200-77-nodesc-normal</styleUrl>
      </Pair>
      <Pair>
        <key>highlight</key>
        <styleUrl>#poly-A52714-1200-77-nodesc-highlight</styleUrl>
      </Pair>
    </StyleMap>
    <Style id="poly-B2EBF2-1200-77-nodesc-normal">
      <LineStyle>
        <color>fff2ebb2</color>
        <width>1.2</width>
      </LineStyle>
      <PolyStyle>
        <color>4df2ebb2</color>
        <fill>1</fill>
        <outline>1</outline>
      </PolyStyle>
      <BalloonStyle>
        <text><![CDATA[<h3>$[name]</h3>]]></text>
      </BalloonStyle>
    </Style>
    <Style id="poly-B2EBF2-1200-77-nodesc-highlight">
      <LineStyle>
        <color>fff2ebb2</color>
        <width>1.8</width>
      </LineStyle>
      <PolyStyle>
        <color>4df2ebb2</color>
        <fill>1</fill>
        <outline>1</outline>
      </PolyStyle>
      <BalloonStyle>
        <text><![CDATA[<h3>$[name]</h3>]]></text>
      </BalloonStyle>
    </Style>
    <StyleMap id="poly-B2EBF2-1200-77-nodesc">
      <Pair>
        <key>normal</key>
        <styleUrl>#poly-B2EBF2-1200-77-nodesc-normal</styleUrl>
      </Pair>
      <Pair>
        <key>highlight</key>
        <styleUrl>#poly-B2EBF2-1200-77-nodesc-highlight</styleUrl>
      </Pair>
    </StyleMap>
    <Style id="poly-F9A825-1200-77-nodesc-normal">
      <LineStyle>
        <color>ff25a8f9</color>
        <width>1.2</width>
      </LineStyle>
      <PolyStyle>
        <color>4d25a8f9</color>
        <fill>1</fill>
        <outline>1</outline>
      </PolyStyle>
      <BalloonStyle>
        <text><![CDATA[<h3>$[name]</h3>]]></text>
      </BalloonStyle>
    </Style>
    <Style id="poly-F9A825-1200-77-nodesc-highlight">
      <LineStyle>
        <color>ff25a8f9</color>
        <width>1.8</width>
      </LineStyle>
      <PolyStyle>
        <color>4d25a8f9</color>
        <fill>1</fill>
        <outline>1</outline>
      </PolyStyle>
      <BalloonStyle>
        <text><![CDATA[<h3>$[name]</h3>]]></text>
      </BalloonStyle>
    </Style>
    <StyleMap id="poly-F9A825-1200-77-nodesc">
      <Pair>
        <key>normal</key>
        <styleUrl>#poly-F9A825-1200-77-nodesc-normal</styleUrl>
      </Pair>
      <Pair>
        <key>highlight</key>
        <styleUrl>#poly-F9A825-1200-77-nodesc-highlight</styleUrl>
      </Pair>
    </StyleMap>
    <Folder>
      <name>Deba</name>
      <Placemark>
        <name>Sector 1</name>
		<ExtendedData>
			<zoneId>60001</zoneId><zoneColor>9C27B0</zoneColor>
		</ExtendedData>
        <styleUrl>#poly-9C27B0-1200-77-nodesc</styleUrl>
        <Polygon>
          <outerBoundaryIs>
            <LinearRing>
              <tessellate>1</tessellate>
              <coordinates>
                -2.3550355,43.2948114,0
                -2.355175,43.294419,0
                -2.3550221,43.294378,0
                -2.3548746,43.2946435,0
                -2.3550355,43.2948114,0
              </coordinates>
            </LinearRing>
          </outerBoundaryIs>
        </Polygon>
      </Placemark>
      <Placemark>
        <name>Sector 2</name>
		<ExtendedData>
			<zoneId>60002</zoneId><zoneColor>B2EBF2</zoneColor>
		</ExtendedData>
        <styleUrl>#poly-B2EBF2-1200-77-nodesc</styleUrl>
        <Polygon>
          <outerBoundaryIs>
            <LinearRing>
              <tessellate>1</tessellate>
              <coordinates>
                -2.3544774,43.2958095,0
                -2.354751,43.2959715,0
                -2.3549575,43.2957529,0
                -2.3550889,43.295585,0
                -2.3552204,43.2953721,0
                -2.3552579,43.2951613,0
                -2.355156,43.295052,0
                -2.3548958,43.2953566,0
                -2.3545418,43.2955342,0
                -2.3542387,43.2956719,0
                -2.3544774,43.2958095,0
              </coordinates>
            </LinearRing>
          </outerBoundaryIs>
        </Polygon>
      </Placemark>
      <Placemark>
        <name>Sector 3</name>
		<ExtendedData>
			<zoneId>60003</zoneId><zoneColor>1A237E</zoneColor>
		</ExtendedData>
        <styleUrl>#poly-1A237E-1200-77-nodesc</styleUrl>
        <Polygon>
          <outerBoundaryIs>
            <LinearRing>
              <tessellate>1</tessellate>
              <coordinates>
                -2.352558,43.2974049,0
                -2.3525527,43.2971101,0
                -2.3524025,43.2969714,0
                -2.3518446,43.2971501,0
                -2.3506645,43.2974224,0
                -2.3507449,43.2976059,0
                -2.3517025,43.297399,0
                -2.3517534,43.2974243,0
                -2.3520914,43.2974409,0
                -2.3524561,43.2974458,0
                -2.352558,43.2974049,0
              </coordinates>
            </LinearRing>
          </outerBoundaryIs>
        </Polygon>
      </Placemark>
      <Placemark>
        <name>Sector 4_1</name>
		<ExtendedData>
			<zoneId>60004</zoneId><zoneColor>01579B</zoneColor>
		</ExtendedData>
        <styleUrl>#poly-01579B-1200-77-nodesc</styleUrl>
        <Polygon>
          <outerBoundaryIs>
            <LinearRing>
              <tessellate>1</tessellate>
              <coordinates>
                -2.3553021,43.2975419,0
                -2.3553799,43.2971514,0
                -2.355404,43.2969835,0
                -2.3554308,43.2967903,0
                -2.3554764,43.2965327,0
                -2.3555247,43.296192,0
                -2.3555381,43.2961011,0
                -2.355337,43.2960679,0
                -2.3554523,43.2959187,0
                -2.3554496,43.2957576,0
                -2.3554094,43.2956619,0
                -2.355337,43.2956424,0
                -2.3551063,43.2959089,0
                -2.3548703,43.2961129,0
                -2.3546718,43.2962359,0
                -2.3541595,43.2964321,0
                -2.3529954,43.2968195,0
                -2.3525823,43.2969913,0
                -2.3525173,43.2970211,0
                -2.3525166,43.2970392,0
                -2.3525096,43.2970706,0
                -2.3525723,43.2970884,0
                -2.3525989,43.2970383,0
                -2.3526095,43.297119,0
                -2.3526145,43.2972178,0
                -2.352807,43.2973482,0
                -2.3531818,43.2973828,0
                -2.3540843,43.2974502,0
                -2.3546919,43.297497,0
                -2.3553021,43.2975419,0
              </coordinates>
            </LinearRing>
          </outerBoundaryIs>
        </Polygon>
      </Placemark>
      <Placemark>
        <name>Sector 4_2</name>
		<ExtendedData>
			<zoneId>60004</zoneId><zoneColor>01579B</zoneColor>
		</ExtendedData>
        <styleUrl>#poly-01579B-1200-77-nodesc</styleUrl>
        <Polygon>
          <outerBoundaryIs>
            <LinearRing>
              <tessellate>1</tessellate>
              <coordinates>
                -2.3523059,43.2967321,0
                -2.3514798,43.2970151,0
                -2.3513484,43.2969898,0
                -2.351225,43.296775,0
                -2.3510936,43.2968629,0
                -2.3511418,43.2971791,0
                -2.3513564,43.2972377,0
                -2.3524374,43.2969,0
                -2.3523059,43.2967321,0
              </coordinates>
            </LinearRing>
          </outerBoundaryIs>
        </Polygon>
      </Placemark>
      <Placemark>
        <name>Sector 6_1</name>
		<ExtendedData>
			<zoneId>60006</zoneId><zoneColor>F9A825</zoneColor>
		</ExtendedData>
        <styleUrl>#poly-F9A825-1200-77-nodesc</styleUrl>
        <Polygon>
          <outerBoundaryIs>
            <LinearRing>
              <tessellate>1</tessellate>
              <coordinates>
                -2.3502929,43.2978321,0
                -2.3506121,43.297633,0
                -2.350545,43.297385,0
                -2.350384,43.2971449,0
                -2.3501105,43.2973792,0
                -2.3502929,43.2978321,0
              </coordinates>
            </LinearRing>
          </outerBoundaryIs>
        </Polygon>
      </Placemark>
      <Placemark>
        <name>Sector 6_2</name>
		<ExtendedData>
			<zoneId>60006</zoneId><zoneColor>F9A825</zoneColor>
		</ExtendedData>
        <styleUrl>#poly-F9A825-1200-77-nodesc</styleUrl>
        <Polygon>
          <outerBoundaryIs>
            <LinearRing>
              <tessellate>1</tessellate>
              <coordinates>
                -2.3505772,43.2968131,0
                -2.3506362,43.2966764,0
                -2.3495901,43.2969575,0
                -2.3495981,43.2971215,0
                -2.349877,43.2972035,0
                -2.3502848,43.2970161,0
                -2.3505772,43.2968131,0
              </coordinates>
            </LinearRing>
          </outerBoundaryIs>
        </Polygon>
      </Placemark>
      <Placemark>
        <name>Sector 6_3</name>
		<ExtendedData>
			<zoneId>60006</zoneId><zoneColor>F9A825</zoneColor>
		</ExtendedData>
        <styleUrl>#poly-F9A825-1200-77-nodesc</styleUrl>
        <Polygon>
          <outerBoundaryIs>
            <LinearRing>
              <tessellate>1</tessellate>
              <coordinates>
                -2.3525889,43.2958629,0
                -2.3525379,43.2958102,0
                -2.3521812,43.2959488,0
                -2.3519827,43.2958551,0
                -2.3518138,43.2957829,0
                -2.3515777,43.2957516,0
                -2.3507971,43.2959546,0
                -2.3506551,43.295777,0
                -2.3505638,43.2959566,0
                -2.3506282,43.2960464,0
                -2.3506577,43.2960972,0
                -2.3507892,43.2961811,0
                -2.3509849,43.2962729,0
                -2.3512397,43.29647,0
                -2.3516582,43.2963431,0
                -2.3518003,43.2962904,0
                -2.3525889,43.2958629,0
              </coordinates>
            </LinearRing>
          </outerBoundaryIs>
        </Polygon>
      </Placemark>
      <Placemark>
        <name>Sector 6_4</name>
		<ExtendedData>
			<zoneId>60006</zoneId><zoneColor>F9A825</zoneColor>
		</ExtendedData>
        <styleUrl>#poly-F9A825-1200-77-nodesc</styleUrl>
        <Polygon>
          <outerBoundaryIs>
            <LinearRing>
              <tessellate>1</tessellate>
              <coordinates>
                -2.3542619,43.2917982,0
                -2.3540473,43.2917513,0
                -2.3534786,43.2925791,0
                -2.3526042,43.293157,0
                -2.3522341,43.2938168,0
                -2.3518532,43.2947227,0
                -2.3511719,43.2954372,0
                -2.3515689,43.2956168,0
                -2.3520463,43.2952927,0
                -2.3525452,43.2948828,0
                -2.3526794,43.2945811,0
                -2.3527008,43.2943147,0
                -2.3527276,43.2938676,0
                -2.3530656,43.2936021,0
                -2.3534035,43.2933131,0
                -2.3537522,43.2929578,0
                -2.3538676,43.2928202,0
                -2.3538863,43.2927372,0
                -2.3539507,43.292544,0
                -2.3542619,43.2917982,0
              </coordinates>
            </LinearRing>
          </outerBoundaryIs>
        </Polygon>
      </Placemark>
      <Placemark>
        <name>Sector 6_5</name>
		<ExtendedData>
			<zoneId>60006</zoneId><zoneColor>F9A825</zoneColor>
		</ExtendedData>
        <styleUrl>#poly-F9A825-1200-77-nodesc</styleUrl>
        <Polygon>
          <outerBoundaryIs>
            <LinearRing>
              <tessellate>1</tessellate>
              <coordinates>
                -2.3540643,43.2924953,0
                -2.3539517,43.2926944,0
                -2.353937,43.2928731,0
                -2.3538257,43.2930049,0
                -2.3535387,43.2933153,0
                -2.3536379,43.293407,0
                -2.3540014,43.292917,0
                -2.3541562,43.2928858,0
                -2.3543004,43.2927687,0
                -2.3547711,43.2929551,0
                -2.3546383,43.2931923,0
                -2.3550045,43.2931962,0
                -2.3553491,43.2931376,0
                -2.3554392,43.293094,0
                -2.3551758,43.2929433,0
                -2.3550066,43.2928289,0
                -2.3552504,43.2925154,0
                -2.3552922,43.2925411,0
                -2.3553904,43.2925805,0
                -2.355732,43.2927164,0
                -2.3558065,43.2926446,0
                -2.3555456,43.2925416,0
                -2.3553642,43.2924482,0
                -2.3555101,43.2922922,0
                -2.3560948,43.2917612,0
                -2.3561565,43.2915602,0
                -2.356363,43.2912419,0
                -2.3562128,43.2911053,0
                -2.3559607,43.291074,0
                -2.355612,43.2912185,0
                -2.355324,43.2912356,0
                -2.3550807,43.2912676,0
                -2.3549662,43.29128,0
                -2.3548302,43.2913064,0
                -2.3546465,43.2912984,0
                -2.354463,43.2913059,0
                -2.3542944,43.2913132,0
                -2.3540751,43.2913337,0
                -2.3536166,43.2912944,0
                -2.3533893,43.2913402,0
                -2.3534571,43.2914837,0
                -2.3533674,43.2915441,0
                -2.3531709,43.2915762,0
                -2.3528457,43.2915732,0
                -2.3523938,43.2916063,0
                -2.3520909,43.2917232,0
                -2.3519446,43.2917852,0
                -2.3519377,43.2920424,0
                -2.3518592,43.2921047,0
                -2.3518289,43.2921435,0
                -2.351865,43.2922094,0
                -2.3520037,43.292227,0
                -2.352056,43.2923092,0
                -2.3520824,43.2923634,0
                -2.3521252,43.2924315,0
                -2.3522859,43.2925308,0
                -2.3524891,43.2925104,0
                -2.3526701,43.2925125,0
                -2.3528255,43.2925312,0
                -2.3528738,43.2925538,0
                -2.3529488,43.2924554,0
                -2.3531795,43.2924472,0
                -2.353445,43.2924723,0
                -2.3536354,43.292232,0
                -2.3537597,43.2919296,0
                -2.3538036,43.2918379,0
                -2.3538698,43.2918187,0
                -2.3540399,43.2917334,0
                -2.3542592,43.2918002,0
                -2.3543185,43.2920434,0
                -2.3542387,43.2921673,0
                -2.3540643,43.2924953,0
              </coordinates>
            </LinearRing>
          </outerBoundaryIs>
        </Polygon>
      </Placemark>
      <Placemark>
        <name>Sector 6_6</name>
		<ExtendedData>
			<zoneId>60006</zoneId><zoneColor>F9A825</zoneColor>
		</ExtendedData>
        <styleUrl>#poly-F9A825-1200-77-nodesc</styleUrl>
        <Polygon>
          <outerBoundaryIs>
            <LinearRing>
              <tessellate>1</tessellate>
              <coordinates>
                -2.3565266,43.2909669,0
                -2.3567734,43.2909864,0
                -2.3569075,43.2908927,0
                -2.356591,43.2906701,0
                -2.3557408,43.2905979,0
                -2.3548798,43.2905452,0
                -2.3544131,43.2905491,0
                -2.3543916,43.2909084,0
                -2.3550514,43.2909357,0
                -2.3558722,43.2908966,0
                -2.3562048,43.2909239,0
                -2.3565266,43.2909669,0
              </coordinates>
            </LinearRing>
          </outerBoundaryIs>
        </Polygon>
      </Placemark>
      <Placemark>
        <name>Sector 6_7</name>
		<ExtendedData>
			<zoneId>60006</zoneId><zoneColor>F9A825</zoneColor>
		</ExtendedData>
        <styleUrl>#poly-F9A825-1200-77-nodesc</styleUrl>
        <Polygon>
          <outerBoundaryIs>
            <LinearRing>
              <tessellate>1</tessellate>
              <coordinates>
                -2.3551166,43.2955847,0
                -2.35478,43.295979,0
                -2.3550034,43.2959507,0
                -2.3552322,43.2957076,0
                -2.3552876,43.2956237,0
                -2.3554411,43.2956627,0
                -2.3555055,43.2954011,0
                -2.3555913,43.2948155,0
                -2.3556235,43.2945812,0
                -2.3557093,43.2944446,0
                -2.3557147,43.2943235,0
                -2.3555645,43.2943626,0
                -2.3555055,43.294507,0
                -2.3554465,43.2949795,0
                -2.3552963,43.2951884,0
                -2.3552399,43.2953836,0
                -2.3551166,43.2955847,0
              </coordinates>
            </LinearRing>
          </outerBoundaryIs>
        </Polygon>
      </Placemark>
      <Placemark>
        <name>Sector 7</name>
		<ExtendedData>
			<zoneId>60007</zoneId><zoneColor>43A047</zoneColor>
		</ExtendedData>
        <styleUrl>#poly-A52714-1200-77-nodesc</styleUrl>
        <Polygon>
          <outerBoundaryIs>
            <LinearRing>
              <tessellate>1</tessellate>
              <coordinates>
                -2.3555469,43.2931703,0
                -2.3554607,43.293094,0
                -2.3552626,43.2932133,0
                -2.3547637,43.2932211,0
                -2.3545813,43.2931938,0
                -2.3547423,43.292979,0
                -2.3543453,43.2928033,0
                -2.3541414,43.2929282,0
                -2.3540127,43.2929634,0
                -2.3537016,43.2934163,0
                -2.3535299,43.293346,0
                -2.3533904,43.293471,0
                -2.3532802,43.2935045,0
                -2.3530751,43.293722,0
                -2.3527521,43.2939278,0
                -2.3527869,43.2947829,0
                -2.3525106,43.294982,0
                -2.3516899,43.2956809,0
                -2.3520549,43.2958471,0
                -2.3522642,43.2959068,0
                -2.3525594,43.2958102,0
                -2.3526104,43.2958629,0
                -2.3524049,43.2960004,0
                -2.3526509,43.296112,0
                -2.3528056,43.2962315,0
                -2.353165,43.2960323,0
                -2.3542862,43.2956361,0
                -2.3550104,43.2952007,0
                -2.3551661,43.2949273,0
                -2.355504,43.2942011,0
                -2.3558098,43.2933187,0
                -2.3555469,43.2931703,0
              </coordinates>
            </LinearRing>
          </outerBoundaryIs>
          <innerBoundaryIs>
            <LinearRing>
              <tessellate>1</tessellate>
              <coordinates>
                -2.3549728,43.294781,0
                -2.3550507,43.29482,0
                -2.3551164,43.2946355,0
                -2.3551714,43.294451,0
                -2.3552867,43.2937355,0
                -2.355327,43.2934944,0
                -2.3552412,43.2939903,0
                -2.3551714,43.2943866,0
                -2.3550266,43.2943417,0
                -2.3548549,43.2946423,0
                -2.3548978,43.2947224,0
                -2.3549728,43.294781,0
              </coordinates>
            </LinearRing>
          </innerBoundaryIs>
        </Polygon>
      </Placemark>
      <Placemark>
        <name>Sector 8</name>
		<ExtendedData>
			<zoneId>60008</zoneId><zoneColor>43A047</zoneColor>
		</ExtendedData>
        <description>Foruen Plaza</description>
        <styleUrl>#poly-000000-1200-77</styleUrl>
        <Polygon>
          <outerBoundaryIs>
            <LinearRing>
              <tessellate>1</tessellate>
              <coordinates>
                -2.3540892,43.2943681,0
                -2.3542448,43.2940733,0
                -2.3536895,43.2939601,0
                -2.353546,43.2942783,0
                -2.3540892,43.2943681,0
              </coordinates>
            </LinearRing>
          </outerBoundaryIs>
        </Polygon>
      </Placemark>
      <Placemark>
        <name>Centro</name>
        <styleUrl>#icon-1899-0288D1-nodesc</styleUrl>
        <Point>
          <coordinates>
            -2.3540333,43.2944826,0
          </coordinates>
        </Point>
      </Placemark>
    </Folder>
  </Document>
</kml>
