<?xml version="1.0" encoding="UTF-8"?>
<kml xmlns="http://www.opengis.net/kml/2.2">
  <Document>
    <name>Durango_OTA</name>
    <description>OTA de Durango</description>
    <Style id="poly-0288D1-1200-77-nodesc-normal">
      <LineStyle>
        <color>ffd18802</color>
        <width>1.2</width>
      </LineStyle>
      <PolyStyle>
        <color>4dd18802</color>
        <fill>1</fill>
        <outline>1</outline>
      </PolyStyle>
      <BalloonStyle>
        <text><![CDATA[<h3>$[name]</h3>]]></text>
      </BalloonStyle>
    </Style>
    <Style id="poly-0288D1-1200-77-nodesc-highlight">
      <LineStyle>
        <color>ffd18802</color>
        <width>1.8</width>
      </LineStyle>
      <PolyStyle>
        <color>4dd18802</color>
        <fill>1</fill>
        <outline>1</outline>
      </PolyStyle>
      <BalloonStyle>
        <text><![CDATA[<h3>$[name]</h3>]]></text>
      </BalloonStyle>
    </Style>
    <StyleMap id="poly-0288D1-1200-77-nodesc">
      <Pair>
        <key>normal</key>
        <styleUrl>#poly-0288D1-1200-77-nodesc-normal</styleUrl>
      </Pair>
      <Pair>
        <key>highlight</key>
        <styleUrl>#poly-0288D1-1200-77-nodesc-highlight</styleUrl>
      </Pair>
    </StyleMap>
    <Style id="poly-7CB342-1200-77-nodesc-normal">
      <LineStyle>
        <color>ff42b37c</color>
        <width>1.2</width>
      </LineStyle>
      <PolyStyle>
        <color>4d42b37c</color>
        <fill>1</fill>
        <outline>1</outline>
      </PolyStyle>
      <BalloonStyle>
        <text><![CDATA[<h3>$[name]</h3>]]></text>
      </BalloonStyle>
    </Style>
    <Style id="poly-7CB342-1200-77-nodesc-highlight">
      <LineStyle>
        <color>ff42b37c</color>
        <width>1.8</width>
      </LineStyle>
      <PolyStyle>
        <color>4d42b37c</color>
        <fill>1</fill>
        <outline>1</outline>
      </PolyStyle>
      <BalloonStyle>
        <text><![CDATA[<h3>$[name]</h3>]]></text>
      </BalloonStyle>
    </Style>
    <StyleMap id="poly-7CB342-1200-77-nodesc">
      <Pair>
        <key>normal</key>
        <styleUrl>#poly-7CB342-1200-77-nodesc-normal</styleUrl>
      </Pair>
      <Pair>
        <key>highlight</key>
        <styleUrl>#poly-7CB342-1200-77-nodesc-highlight</styleUrl>
      </Pair>
    </StyleMap>
    <Style id="poly-F57C00-1200-77-nodesc-normal">
      <LineStyle>
        <color>ff007cf5</color>
        <width>1.2</width>
      </LineStyle>
      <PolyStyle>
        <color>4d007cf5</color>
        <fill>1</fill>
        <outline>1</outline>
      </PolyStyle>
      <BalloonStyle>
        <text><![CDATA[<h3>$[name]</h3>]]></text>
      </BalloonStyle>
    </Style>
    <Style id="poly-F57C00-1200-77-nodesc-highlight">
      <LineStyle>
        <color>ff007cf5</color>
        <width>1.8</width>
      </LineStyle>
      <PolyStyle>
        <color>4d007cf5</color>
        <fill>1</fill>
        <outline>1</outline>
      </PolyStyle>
      <BalloonStyle>
        <text><![CDATA[<h3>$[name]</h3>]]></text>
      </BalloonStyle>
    </Style>
    <StyleMap id="poly-F57C00-1200-77-nodesc">
      <Pair>
        <key>normal</key>
        <styleUrl>#poly-F57C00-1200-77-nodesc-normal</styleUrl>
      </Pair>
      <Pair>
        <key>highlight</key>
        <styleUrl>#poly-F57C00-1200-77-nodesc-highlight</styleUrl>
      </Pair>
    </StyleMap>
    <Folder>
      <name>ZONA 1</name>
	  <ExtendedData>
		<zoneId>50001</zoneId><zoneColor>FFFFFF</zoneColor>
	  </ExtendedData>
      <Placemark>
        <name>SECTOR_01_AZUL_1</name>
		<ExtendedData>
			<zoneId>60101</zoneId><zoneColor>003399</zoneColor>
	    </ExtendedData>
        <styleUrl>#poly-0288D1-1200-77-nodesc</styleUrl>
        <Polygon>
          <outerBoundaryIs>
            <LinearRing>
              <tessellate>1</tessellate>
              <coordinates>
                -2.6291909,43.1701856,0
                -2.6294377,43.1701816,0
                -2.629584,43.1697051,0
                -2.6293572,43.1694226,0
                -2.6288101,43.1694383,0
                -2.6288584,43.1688847,0
                -2.6279196,43.168112,0
                -2.6265249,43.1683194,0
                -2.6262245,43.1686128,0
                -2.6259723,43.1691019,0
                -2.6264927,43.1700095,0
                -2.6291909,43.1701856,0
              </coordinates>
            </LinearRing>
          </outerBoundaryIs>
        </Polygon>
      </Placemark>
      <Placemark>
        <name>SECTOR_01_AZUL_2</name>
		<ExtendedData>
			<zoneId>60101</zoneId><zoneColor>003399</zoneColor>
	    </ExtendedData>
        <styleUrl>#poly-0288D1-1200-77-nodesc</styleUrl>
        <Polygon>
          <outerBoundaryIs>
            <LinearRing>
              <tessellate>1</tessellate>
              <coordinates>
                -2.6302681,43.1666611,0
                -2.6310084,43.1656203,0
                -2.6312337,43.1649943,0
                -2.6310983,43.1643575,0
                -2.6323146,43.1642763,0
                -2.6322891,43.1640288,0
                -2.6310835,43.1641178,0
                -2.6281223,43.1640631,0
                -2.6277254,43.1644074,0
                -2.6268993,43.1661525,0
                -2.6268563,43.1668098,0
                -2.6280902,43.1670054,0
                -2.6302681,43.1666611,0
              </coordinates>
            </LinearRing>
          </outerBoundaryIs>
        </Polygon>
      </Placemark>
      <Placemark>
        <name>SECTOR_01_NARANJA_1</name>
		<ExtendedData>
			<zoneId>60103</zoneId><zoneColor>FF8000</zoneColor>
	    </ExtendedData>
        <styleUrl>#poly-F57C00-1200-77-nodesc</styleUrl>
        <Polygon>
          <outerBoundaryIs>
            <LinearRing>
              <tessellate>1</tessellate>
              <coordinates>
                -2.6279962,43.1681714,0
                -2.6288626,43.1688718,0
                -2.6293534,43.1693843,0
                -2.629584,43.1697051,0
                -2.6314563,43.1696777,0
                -2.6314455,43.1695252,0
                -2.6305175,43.1690048,0
                -2.6306409,43.1684962,0
                -2.6299757,43.1683201,0
                -2.629686,43.1677997,0
                -2.6279962,43.1681714,0
              </coordinates>
            </LinearRing>
          </outerBoundaryIs>
        </Polygon>
      </Placemark>
      <Placemark>
        <name>SECTOR_01_NARANJA_2</name>
		<ExtendedData>
			<zoneId>60103</zoneId><zoneColor>FF8000</zoneColor>
	    </ExtendedData>
        <styleUrl>#poly-F57C00-1200-77-nodesc</styleUrl>
        <Polygon>
          <outerBoundaryIs>
            <LinearRing>
              <tessellate>1</tessellate>
              <coordinates>
                -2.631746,43.1647718,0
                -2.6317259,43.1644197,0
                -2.6311694,43.1644471,0
                -2.6312551,43.1648226,0
                -2.631746,43.1647718,0
              </coordinates>
            </LinearRing>
          </outerBoundaryIs>
        </Polygon>
      </Placemark>
    </Folder>
    <Folder>
      <name>ZONA 2</name>
	  <ExtendedData>
		<zoneId>50002</zoneId><zoneColor>FFFFFF</zoneColor>
	  </ExtendedData>
      <Placemark>
        <name>SECTOR_02_AZUL_1</name>
		<ExtendedData>
			<zoneId>60201</zoneId><zoneColor>003399</zoneColor>
	    </ExtendedData>
        <styleUrl>#poly-0288D1-1200-77-nodesc</styleUrl>
        <Polygon>
          <outerBoundaryIs>
            <LinearRing>
              <tessellate>1</tessellate>
              <coordinates>
                -2.6353952,43.1668925,0
                -2.6346066,43.1673405,0
                -2.634805,43.1675577,0
                -2.6345462,43.1679793,0
                -2.6344168,43.1679719,0
                -2.6340487,43.1688449,0
                -2.6340862,43.1692048,0
                -2.636924,43.1695335,0
                -2.6373532,43.167632,0
                -2.6353952,43.1668925,0
              </coordinates>
            </LinearRing>
          </outerBoundaryIs>
        </Polygon>
      </Placemark>
      <Placemark>
        <name>SECTOR_02_AZUL_2</name>
		<ExtendedData>
			<zoneId>60201</zoneId><zoneColor>003399</zoneColor>
	    </ExtendedData>
        <styleUrl>#poly-0288D1-1200-77-nodesc</styleUrl>
        <Polygon>
          <outerBoundaryIs>
            <LinearRing>
              <tessellate>1</tessellate>
              <coordinates>
                -2.6353814,43.1668769,0
                -2.6329138,43.1663565,0
                -2.6323022,43.168035,0
                -2.6322298,43.1682913,0
                -2.6325168,43.1682698,0
                -2.6326831,43.1679803,0
                -2.6343542,43.1681328,0
                -2.6344078,43.167992,0
                -2.6340108,43.1679412,0
                -2.6340028,43.1676555,0
                -2.6353814,43.1668769,0
              </coordinates>
            </LinearRing>
          </outerBoundaryIs>
        </Polygon>
      </Placemark>
      <Placemark>
        <name>SECTOR_02_AZUL_3</name>
		<ExtendedData>
			<zoneId>60201</zoneId><zoneColor>003399</zoneColor>
	    </ExtendedData>
        <styleUrl>#poly-0288D1-1200-77-nodesc</styleUrl>
        <Polygon>
          <outerBoundaryIs>
            <LinearRing>
              <tessellate>1</tessellate>
              <coordinates>
                -2.6345446,43.1679803,0
                -2.6347699,43.1675812,0
                -2.6345928,43.1673973,0
                -2.6340671,43.167636,0
                -2.6340618,43.1679411,0
                -2.6345446,43.1679803,0
              </coordinates>
            </LinearRing>
          </outerBoundaryIs>
        </Polygon>
      </Placemark>
      <Placemark>
        <name>SECTOR_02_VERDE_1 (60202) #66CC00</name>
		<ExtendedData>
			<zoneId>60202</zoneId><zoneColor>66CC00</zoneColor>
	    </ExtendedData>
        <styleUrl>#poly-7CB342-1200-77-nodesc</styleUrl>
        <Polygon>
          <outerBoundaryIs>
            <LinearRing>
              <tessellate>1</tessellate>
              <coordinates>
                -2.6326662,43.1694576,0
                -2.6326233,43.1683229,0
                -2.6321888,43.1683269,0
                -2.6321459,43.1694771,0
                -2.6326662,43.1694576,0
              </coordinates>
            </LinearRing>
          </outerBoundaryIs>
        </Polygon>
      </Placemark>
    </Folder>
    <Folder>
      <name>ZONA 3</name>
	  <ExtendedData>
		<zoneId>50003</zoneId><zoneColor>FFFFFF</zoneColor>
	  </ExtendedData>
      <Placemark>
        <name>SECTOR_03_AZUL_1</name>
		<ExtendedData>
			<zoneId>60301</zoneId><zoneColor>003399</zoneColor>
	    </ExtendedData>
        <styleUrl>#poly-0288D1-1200-77-nodesc</styleUrl>
        <Polygon>
          <outerBoundaryIs>
            <LinearRing>
              <tessellate>1</tessellate>
              <coordinates>
                -2.6367861,43.1712509,0
                -2.6370758,43.1709927,0
                -2.6342112,43.1695607,0
                -2.6326233,43.1695607,0
                -2.6312286,43.170038,0
                -2.6317543,43.1714602,0
                -2.6321405,43.1716539,0
                -2.6327414,43.1719355,0
                -2.6331812,43.1719551,0
                -2.6348119,43.1719707,0
                -2.6352304,43.1715247,0
                -2.6359493,43.1708283,0
                -2.6367861,43.1712509,0
              </coordinates>
            </LinearRing>
          </outerBoundaryIs>
        </Polygon>
      </Placemark>
      <Placemark>
        <name>SECTOR_03_AZUL_2</name>
		<ExtendedData>
			<zoneId>60301</zoneId><zoneColor>003399</zoneColor>
	    </ExtendedData>
        <styleUrl>#poly-0288D1-1200-77-nodesc</styleUrl>
        <Polygon>
          <outerBoundaryIs>
            <LinearRing>
              <tessellate>1</tessellate>
              <coordinates>
                -2.6370758,43.1710005,0
                -2.6366895,43.1713291,0
                -2.6363462,43.1720881,0
                -2.6351553,43.1716343,0
                -2.634804,43.1719981,0
                -2.6333985,43.1719766,0
                -2.6337391,43.1745841,0
                -2.6352304,43.1742711,0
                -2.6367003,43.1734965,0
                -2.6378375,43.1728705,0
                -2.6389104,43.1716656,0
                -2.6370758,43.1710005,0
              </coordinates>
            </LinearRing>
          </outerBoundaryIs>
        </Polygon>
      </Placemark>
      <Placemark>
        <name>SECTOR_03_NARANJA_1</name>
		<ExtendedData>
			<zoneId>60303</zoneId><zoneColor>FF8000</zoneColor>
	    </ExtendedData>
        <styleUrl>#poly-F57C00-1200-77-nodesc</styleUrl>
        <Polygon>
          <outerBoundaryIs>
            <LinearRing>
              <tessellate>1</tessellate>
              <coordinates>
                -2.6363254,43.1720006,0
                -2.6363469,43.1718989,0
                -2.6366473,43.1712651,0
                -2.6359177,43.1709052,0
                -2.6352203,43.1716172,0
                -2.6363254,43.1720006,0
              </coordinates>
            </LinearRing>
          </outerBoundaryIs>
        </Polygon>
      </Placemark>
    </Folder>
    <Folder>
      <name>ZONA 4</name>
	  <ExtendedData>
		<zoneId>50004</zoneId><zoneColor>FFFFFF</zoneColor>
	  </ExtendedData>
      <Placemark>
        <name>SECTOR_04_AZUL_1</name>
		<ExtendedData>
			<zoneId>60401</zoneId><zoneColor>003399</zoneColor>
	    </ExtendedData>
        <styleUrl>#poly-0288D1-1200-77-nodesc</styleUrl>
        <Polygon>
          <outerBoundaryIs>
            <LinearRing>
              <tessellate>1</tessellate>
              <coordinates>
                -2.6293842,43.1704781,0
                -2.6294111,43.1702277,0
                -2.6259832,43.1700164,0
                -2.6256399,43.169946,0
                -2.6244167,43.1698209,0
                -2.6235585,43.1709143,0
                -2.6232581,43.1718513,0
                -2.6270185,43.1717926,0
                -2.6276569,43.1714366,0
                -2.6278339,43.1708654,0
                -2.6278607,43.1704546,0
                -2.6293842,43.1704781,0
              </coordinates>
            </LinearRing>
          </outerBoundaryIs>
        </Polygon>
      </Placemark>
      <Placemark>
        <name>SECTOR_04_AZUL_2</name>
		<ExtendedData>
			<zoneId>60401</zoneId><zoneColor>003399</zoneColor>
	    </ExtendedData>
        <styleUrl>#poly-0288D1-1200-77-nodesc</styleUrl>
        <Polygon>
          <outerBoundaryIs>
            <LinearRing>
              <tessellate>1</tessellate>
              <coordinates>
                -2.6277571,43.1714299,0
                -2.6271778,43.1718133,0
                -2.6271885,43.1723219,0
                -2.6269525,43.1735112,0
                -2.6315873,43.1735347,0
                -2.6330893,43.1728461,0
                -2.6328748,43.1720637,0
                -2.6320057,43.1716079,0
                -2.6278107,43.1714299,0
                -2.6297493,43.1720881,0
                -2.6304004,43.1723082,0
                -2.6303615,43.1718055,0
                -2.631256,43.1717957,0
                -2.6315497,43.1718837,0
                -2.6315712,43.1726427,0
                -2.6304071,43.1726662,0
                -2.6304044,43.1723415,0
                -2.6277571,43.1714299,0
              </coordinates>
            </LinearRing>
          </outerBoundaryIs>
        </Polygon>
      </Placemark>
      <Placemark>
        <name>SECTOR_04_VERDE_1</name>
		<ExtendedData>
			<zoneId>60402</zoneId><zoneColor>66CC00</zoneColor>
	    </ExtendedData>
        <styleUrl>#poly-7CB342-1200-77-nodesc</styleUrl>
        <Polygon>
          <outerBoundaryIs>
            <LinearRing>
              <tessellate>1</tessellate>
              <coordinates>
                -2.6271885,43.1723219,0
                -2.6271724,43.1720461,0
                -2.6266601,43.1720344,0
                -2.6265314,43.1720324,0
                -2.626526,43.1723904,0
                -2.6271697,43.1723962,0
                -2.6271885,43.1723219,0
              </coordinates>
            </LinearRing>
          </outerBoundaryIs>
        </Polygon>
      </Placemark>
      <Placemark>
        <name>SECTOR_04_NARANJA_1</name>
		<ExtendedData>
			<zoneId>60403</zoneId><zoneColor>FF8000</zoneColor>
	    </ExtendedData>
        <styleUrl>#poly-F57C00-1200-77-nodesc</styleUrl>
        <Polygon>
          <outerBoundaryIs>
            <LinearRing>
              <tessellate>1</tessellate>
              <coordinates>
                -2.63045,43.1726349,0
                -2.6314989,43.1726222,0
                -2.6314989,43.1718946,0
                -2.6312682,43.171832,0
                -2.6303992,43.1718163,0
                -2.63045,43.1726349,0
              </coordinates>
            </LinearRing>
          </outerBoundaryIs>
        </Polygon>
      </Placemark>
    </Folder>
  </Document>
</kml>
