<?xml version="1.0" encoding="UTF-8"?>
<kml xmlns="http://www.opengis.net/kml/2.2">
  <Document>
    <name>Mutriku_OTA</name>
    <description>OTA de Mutriku</description>
    <Style id="poly-01579B-1200-77-nodesc-normal">
      <LineStyle>
        <color>ff9b5701</color>
        <width>1.2</width>
      </LineStyle>
      <PolyStyle>
        <color>4d9b5701</color>
        <fill>1</fill>
        <outline>1</outline>
      </PolyStyle>
      <BalloonStyle>
        <text><![CDATA[<h3>$[name]</h3>]]></text>
      </BalloonStyle>
    </Style>
    <Style id="poly-01579B-1200-77-nodesc-highlight">
      <LineStyle>
        <color>ff9b5701</color>
        <width>1.8</width>
      </LineStyle>
      <PolyStyle>
        <color>4d9b5701</color>
        <fill>1</fill>
        <outline>1</outline>
      </PolyStyle>
      <BalloonStyle>
        <text><![CDATA[<h3>$[name]</h3>]]></text>
      </BalloonStyle>
    </Style>
    <StyleMap id="poly-01579B-1200-77-nodesc">
      <Pair>
        <key>normal</key>
        <styleUrl>#poly-01579B-1200-77-nodesc-normal</styleUrl>
      </Pair>
      <Pair>
        <key>highlight</key>
        <styleUrl>#poly-01579B-1200-77-nodesc-highlight</styleUrl>
      </Pair>
    </StyleMap>
    <Style id="poly-673AB7-1200-77-nodesc-normal">
      <LineStyle>
        <color>ffb73a67</color>
        <width>1.2</width>
      </LineStyle>
      <PolyStyle>
        <color>4db73a67</color>
        <fill>1</fill>
        <outline>1</outline>
      </PolyStyle>
      <BalloonStyle>
        <text><![CDATA[<h3>$[name]</h3>]]></text>
      </BalloonStyle>
    </Style>
    <Style id="poly-673AB7-1200-77-nodesc-highlight">
      <LineStyle>
        <color>ffb73a67</color>
        <width>1.8</width>
      </LineStyle>
      <PolyStyle>
        <color>4db73a67</color>
        <fill>1</fill>
        <outline>1</outline>
      </PolyStyle>
      <BalloonStyle>
        <text><![CDATA[<h3>$[name]</h3>]]></text>
      </BalloonStyle>
    </Style>
    <StyleMap id="poly-673AB7-1200-77-nodesc">
      <Pair>
        <key>normal</key>
        <styleUrl>#poly-673AB7-1200-77-nodesc-normal</styleUrl>
      </Pair>
      <Pair>
        <key>highlight</key>
        <styleUrl>#poly-673AB7-1200-77-nodesc-highlight</styleUrl>
      </Pair>
    </StyleMap>
    <Style id="poly-A52714-1200-77-nodesc-normal">
      <LineStyle>
        <color>ff1427a5</color>
        <width>1.2</width>
      </LineStyle>
      <PolyStyle>
        <color>4d1427a5</color>
        <fill>1</fill>
        <outline>1</outline>
      </PolyStyle>
      <BalloonStyle>
        <text><![CDATA[<h3>$[name]</h3>]]></text>
      </BalloonStyle>
    </Style>
    <Style id="poly-A52714-1200-77-nodesc-highlight">
      <LineStyle>
        <color>ff1427a5</color>
        <width>1.8</width>
      </LineStyle>
      <PolyStyle>
        <color>4d1427a5</color>
        <fill>1</fill>
        <outline>1</outline>
      </PolyStyle>
      <BalloonStyle>
        <text><![CDATA[<h3>$[name]</h3>]]></text>
      </BalloonStyle>
    </Style>
    <StyleMap id="poly-A52714-1200-77-nodesc">
      <Pair>
        <key>normal</key>
        <styleUrl>#poly-A52714-1200-77-nodesc-normal</styleUrl>
      </Pair>
      <Pair>
        <key>highlight</key>
        <styleUrl>#poly-A52714-1200-77-nodesc-highlight</styleUrl>
      </Pair>
    </StyleMap>
    <Style id="poly-CE93D8-1200-77-nodesc-normal">
      <LineStyle>
        <color>ffd893ce</color>
        <width>1.2</width>
      </LineStyle>
      <PolyStyle>
        <color>4dd893ce</color>
        <fill>1</fill>
        <outline>1</outline>
      </PolyStyle>
      <BalloonStyle>
        <text><![CDATA[<h3>$[name]</h3>]]></text>
      </BalloonStyle>
    </Style>
    <Style id="poly-CE93D8-1200-77-nodesc-highlight">
      <LineStyle>
        <color>ffd893ce</color>
        <width>1.8</width>
      </LineStyle>
      <PolyStyle>
        <color>4dd893ce</color>
        <fill>1</fill>
        <outline>1</outline>
      </PolyStyle>
      <BalloonStyle>
        <text><![CDATA[<h3>$[name]</h3>]]></text>
      </BalloonStyle>
    </Style>
    <StyleMap id="poly-CE93D8-1200-77-nodesc">
      <Pair>
        <key>normal</key>
        <styleUrl>#poly-CE93D8-1200-77-nodesc-normal</styleUrl>
      </Pair>
      <Pair>
        <key>highlight</key>
        <styleUrl>#poly-CE93D8-1200-77-nodesc-highlight</styleUrl>
      </Pair>
    </StyleMap>
    <Style id="poly-FFCC80-1200-77-nodesc-normal">
      <LineStyle>
        <color>ff80ccff</color>
        <width>1.2</width>
      </LineStyle>
      <PolyStyle>
        <color>4d80ccff</color>
        <fill>1</fill>
        <outline>1</outline>
      </PolyStyle>
      <BalloonStyle>
        <text><![CDATA[<h3>$[name]</h3>]]></text>
      </BalloonStyle>
    </Style>
    <Style id="poly-FFCC80-1200-77-nodesc-highlight">
      <LineStyle>
        <color>ff80ccff</color>
        <width>1.8</width>
      </LineStyle>
      <PolyStyle>
        <color>4d80ccff</color>
        <fill>1</fill>
        <outline>1</outline>
      </PolyStyle>
      <BalloonStyle>
        <text><![CDATA[<h3>$[name]</h3>]]></text>
      </BalloonStyle>
    </Style>
    <StyleMap id="poly-FFCC80-1200-77-nodesc">
      <Pair>
        <key>normal</key>
        <styleUrl>#poly-FFCC80-1200-77-nodesc-normal</styleUrl>
      </Pair>
      <Pair>
        <key>highlight</key>
        <styleUrl>#poly-FFCC80-1200-77-nodesc-highlight</styleUrl>
      </Pair>
    </StyleMap>
    <Folder>
      <name>SECTOR_1_RESIDENTES</name>
	  <ExtendedData>
			<zoneId>60001</zoneId><zoneColor>FFCC80</zoneColor>
		</ExtendedData>
      <Placemark>
        <name>IBIRRIAGA KALEA</name>
		<ExtendedData>
			<zoneId>60001</zoneId><zoneColor>FFCC80</zoneColor>
		</ExtendedData>
        <styleUrl>#poly-FFCC80-1200-77-nodesc</styleUrl>
        <Polygon>
          <outerBoundaryIs>
            <LinearRing>
              <tessellate>1</tessellate>
              <coordinates>
                -2.3840407,43.3065573,0
                -2.3840863,43.3064939,0
                -2.383916,43.3064119,0
                -2.3838476,43.3062841,0
                -2.3838033,43.3061884,0
                -2.384148,43.3057903,0
                -2.3838161,43.3058444,0
                -2.3834731,43.3061292,0
                -2.3830495,43.3063018,0
                -2.3832213,43.3064471,0
                -2.3836987,43.3062333,0
                -2.3837604,43.3063397,0
                -2.3838248,43.3064675,0
                -2.383916,43.3065271,0
                -2.3840407,43.3065573,0
              </coordinates>
            </LinearRing>
          </outerBoundaryIs>
        </Polygon>
      </Placemark>
      <Placemark>
        <name>PLAZA PIÃ‘ASTEGI</name>
		<ExtendedData>
			<zoneId>60001</zoneId><zoneColor>FFCC80</zoneColor>
		</ExtendedData>
        <styleUrl>#poly-FFCC80-1200-77-nodesc</styleUrl>
        <Polygon>
          <outerBoundaryIs>
            <LinearRing>
              <tessellate>1</tessellate>
              <coordinates>
                -2.3843434,43.3066265,0
                -2.3844467,43.3065221,0
                -2.3852339,43.3065201,0
                -2.3851266,43.3061625,0
                -2.3843488,43.3058712,0
                -2.3843085,43.3065084,0
                -2.3842629,43.306566,0
                -2.3841007,43.3065035,0
                -2.3840591,43.3065757,0
                -2.3841758,43.3066421,0
                -2.3842898,43.3066606,0
                -2.3843434,43.3066265,0
              </coordinates>
            </LinearRing>
          </outerBoundaryIs>
        </Polygon>
      </Placemark>
      <Placemark>
        <name>PUERTO KALEA</name>
		<ExtendedData>
			<zoneId>60001</zoneId><zoneColor>FFCC80</zoneColor>
		</ExtendedData>
        <styleUrl>#poly-FFCC80-1200-77-nodesc</styleUrl>
        <Polygon>
          <outerBoundaryIs>
            <LinearRing>
              <tessellate>1</tessellate>
              <coordinates>
                -2.3862692,43.3068706,0
                -2.38514,43.3069248,0
                -2.3848704,43.3067782,0
                -2.3841931,43.3070805,0
                -2.3841703,43.3069848,0
                -2.3842776,43.3068345,0
                -2.3842991,43.3066862,0
                -2.3842065,43.3066725,0
                -2.3842079,43.306692,0
                -2.3841744,43.3068267,0
                -2.3840845,43.3069263,0
                -2.3840134,43.3069673,0
                -2.3840349,43.3070063,0
                -2.3840979,43.3071019,0
                -2.3834247,43.3077988,0
                -2.3821135,43.3091755,0
                -2.3817944,43.3098892,0
                -2.3816946,43.3102823,0
                -2.3814123,43.310613,0
                -2.3818456,43.3105717,0
                -2.3829739,43.3104701,0
                -2.3832698,43.3110322,0
                -2.3831562,43.3116079,0
                -2.3830909,43.3122344,0
                -2.3825669,43.3123691,0
                -2.3833304,43.3132649,0
                -2.3840473,43.3132297,0
                -2.3843083,43.3126247,0
                -2.384011,43.3111844,0
                -2.3855648,43.309861,0
                -2.3873493,43.3086117,0
                -2.3888792,43.308195,0
                -2.389612,43.307284,0
                -2.3894018,43.3071252,0
                -2.3888643,43.3077236,0
                -2.3877952,43.3078534,0
                -2.386769,43.3077021,0
                -2.3862692,43.3068706,0
              </coordinates>
            </LinearRing>
          </outerBoundaryIs>
        </Polygon>
      </Placemark>
      <Placemark>
        <name>MUELLE KALEA</name>
		<ExtendedData>
			<zoneId>60001</zoneId><zoneColor>FFCC80</zoneColor>
		</ExtendedData>
        <styleUrl>#poly-FFCC80-1200-77-nodesc</styleUrl>
        <Polygon>
          <outerBoundaryIs>
            <LinearRing>
              <tessellate>1</tessellate>
              <coordinates>
                -2.3840738,43.3069107,0
                -2.3838646,43.306654,0
                -2.3836125,43.30649,0
                -2.3831726,43.3065915,0
                -2.382502,43.3069116,0
                -2.3819173,43.3071868,0
                -2.3814694,43.307382,0
                -2.3815525,43.307466,0
                -2.3821158,43.3072083,0
                -2.382891,43.3068921,0
                -2.3834542,43.3066286,0
                -2.3836768,43.306615,0
                -2.3839772,43.3069409,0
                -2.3840738,43.3069107,0
              </coordinates>
            </LinearRing>
          </outerBoundaryIs>
        </Polygon>
      </Placemark>
      <Placemark>
        <name>GI638_ENTRADA</name>
		<ExtendedData>
			<zoneId>60001</zoneId><zoneColor>FFCC80</zoneColor>
		</ExtendedData>
        <styleUrl>#poly-FFCC80-1200-77-nodesc</styleUrl>
        <Polygon>
          <outerBoundaryIs>
            <LinearRing>
              <tessellate>1</tessellate>
              <coordinates>
                -2.3840628,43.3055932,0
                -2.3838965,43.3053395,0
                -2.3835344,43.305847,0
                -2.3828639,43.3061964,0
                -2.3820055,43.3065204,0
                -2.3809568,43.306819,0
                -2.3802702,43.3069498,0
                -2.3802863,43.3071293,0
                -2.3805867,43.3070942,0
                -2.3810319,43.306979,0
                -2.3818902,43.3067643,0
                -2.3829443,43.3063388,0
                -2.3834754,43.3061046,0
                -2.3837543,43.3058841,0
                -2.3839206,43.305683,0
                -2.3840628,43.3055932,0
              </coordinates>
            </LinearRing>
          </outerBoundaryIs>
        </Polygon>
      </Placemark>
      <Placemark>
        <name>AZKIAGA KALEA 4-5</name>
		<ExtendedData>
			<zoneId>60001</zoneId><zoneColor>FFCC80</zoneColor>
		</ExtendedData>
        <styleUrl>#poly-FFCC80-1200-77-nodesc</styleUrl>
        <Polygon>
          <outerBoundaryIs>
            <LinearRing>
              <tessellate>1</tessellate>
              <coordinates>
                -2.3863671,43.3066541,0
                -2.3864852,43.3065917,0
                -2.3866676,43.3064492,0
                -2.3869706,43.3062579,0
                -2.3871584,43.30609,0
                -2.3871638,43.3059554,0
                -2.386925,43.3061369,0
                -2.3866005,43.3063535,0
                -2.3863055,43.3065838,0
                -2.3863671,43.3066541,0
              </coordinates>
            </LinearRing>
          </outerBoundaryIs>
        </Polygon>
      </Placemark>
      <Placemark>
        <name>TENIENTES TXURRUKA ETORBIDEA</name>
		<ExtendedData>
			<zoneId>60001</zoneId><zoneColor>FFCC80</zoneColor>
		</ExtendedData>
        <styleUrl>#poly-FFCC80-1200-77-nodesc</styleUrl>
        <Polygon>
          <outerBoundaryIs>
            <LinearRing>
              <tessellate>1</tessellate>
              <coordinates>
                -2.3860647,43.3042495,0
                -2.3871404,43.3048293,0
                -2.3871483,43.305284,0
                -2.3871242,43.3057387,0
                -2.3867863,43.3058959,0
                -2.3864014,43.3059979,0
                -2.3862773,43.3060977,0
                -2.3864483,43.3062365,0
                -2.3871859,43.305893,0
                -2.3871591,43.3062326,0
                -2.3870786,43.3067518,0
                -2.3873951,43.3067167,0
                -2.3873415,43.3065488,0
                -2.3873522,43.3053582,0
                -2.3873898,43.3036639,0
                -2.3865583,43.3038591,0
                -2.3860647,43.3042495,0
              </coordinates>
            </LinearRing>
          </outerBoundaryIs>
        </Polygon>
      </Placemark>
      <Placemark>
        <name>SAN MIGEL KALEA</name>
		<ExtendedData>
			<zoneId>60001</zoneId><zoneColor>FFCC80</zoneColor>
		</ExtendedData>
        <styleUrl>#poly-FFCC80-1200-77-nodesc</styleUrl>
        <Polygon>
          <outerBoundaryIs>
            <LinearRing>
              <tessellate>1</tessellate>
              <coordinates>
                -2.3870425,43.3056763,0
                -2.3870881,43.3053464,0
                -2.3870372,43.3049912,0
                -2.3867394,43.305161,0
                -2.3860233,43.3055846,0
                -2.3857819,43.3062053,0
                -2.3859509,43.3062833,0
                -2.3862191,43.3061096,0
                -2.3863907,43.3059652,0
                -2.3870425,43.3056763,0
              </coordinates>
            </LinearRing>
          </outerBoundaryIs>
        </Polygon>
      </Placemark>
      <Placemark>
        <name>GI3230_JOSE MARIA ALCIBAR 19</name>
		<ExtendedData>
			<zoneId>60001</zoneId><zoneColor>FFCC80</zoneColor>
		</ExtendedData>
        <styleUrl>#poly-FFCC80-1200-77-nodesc</styleUrl>
        <Polygon>
          <outerBoundaryIs>
            <LinearRing>
              <tessellate>1</tessellate>
              <coordinates>
                -2.3883687,43.3046826,0
                -2.388417,43.304179,0
                -2.3881568,43.3041849,0
                -2.3878336,43.3042581,0
                -2.3875721,43.3045596,0
                -2.3875583,43.3049478,0
                -2.3876091,43.3057148,0
                -2.3877821,43.3057391,0
                -2.3881884,43.3057889,0
                -2.3882821,43.3051285,0
                -2.3879332,43.3050752,0
                -2.388016,43.304748,0
                -2.388071,43.3046494,0
                -2.3883687,43.3046826,0
              </coordinates>
            </LinearRing>
          </outerBoundaryIs>
        </Polygon>
      </Placemark>
      <Placemark>
        <name>ELOGIO ULACIA KALEA</name>
		<ExtendedData>
			<zoneId>60001</zoneId><zoneColor>FFCC80</zoneColor>
		</ExtendedData>
        <styleUrl>#poly-FFCC80-1200-77-nodesc</styleUrl>
        <Polygon>
          <outerBoundaryIs>
            <LinearRing>
              <tessellate>1</tessellate>
              <coordinates>
                -2.3882447,43.3070974,0
                -2.3882126,43.3070056,0
                -2.3880837,43.306986,0
                -2.3879738,43.3070037,0
                -2.3877954,43.3071081,0
                -2.3878678,43.3071979,0
                -2.3879999,43.3073655,0
                -2.3880985,43.3075858,0
                -2.3882346,43.3075953,0
                -2.388253,43.307196,0
                -2.3882447,43.3070974,0
              </coordinates>
            </LinearRing>
          </outerBoundaryIs>
        </Polygon>
      </Placemark>
      <Placemark>
        <name>GI638_TENIENTES_TXURRUKA</name>
		<ExtendedData>
			<zoneId>60001</zoneId><zoneColor>FFCC80</zoneColor>
		</ExtendedData>
        <styleUrl>#poly-FFCC80-1200-77-nodesc</styleUrl>
        <Polygon>
          <outerBoundaryIs>
            <LinearRing>
              <tessellate>1</tessellate>
              <coordinates>
                -2.3844947,43.3052406,0
                -2.3844518,43.3051839,0
                -2.3844356,43.3051606,0
                -2.3844403,43.3051342,0
                -2.3842844,43.3048487,0
                -2.3839837,43.3047116,0
                -2.3840628,43.3053225,0
                -2.3840306,43.3054553,0
                -2.3844302,43.3052835,0
                -2.3844947,43.3052406,0
              </coordinates>
            </LinearRing>
          </outerBoundaryIs>
        </Polygon>
      </Placemark>
      <Placemark>
        <name>TRANPAKALE</name>
		<ExtendedData>
			<zoneId>60001</zoneId><zoneColor>FFCC80</zoneColor>
		</ExtendedData>
        <styleUrl>#poly-FFCC80-1200-77-nodesc</styleUrl>
        <Polygon>
          <outerBoundaryIs>
            <LinearRing>
              <tessellate>1</tessellate>
              <coordinates>
                -2.3854232,43.306875,0
                -2.3854118,43.3068281,0
                -2.3853548,43.306812,0
                -2.385332,43.306854,0
                -2.3854232,43.306875,0
              </coordinates>
            </LinearRing>
          </outerBoundaryIs>
        </Polygon>
      </Placemark>
      <Placemark>
        <name>ALMIRANTE GAZTAÃ‘ETA</name>
		<ExtendedData>
			<zoneId>60001</zoneId><zoneColor>FFCC80</zoneColor>
		</ExtendedData>
        <styleUrl>#poly-FFCC80-1200-77-nodesc</styleUrl>
        <Polygon>
          <outerBoundaryIs>
            <LinearRing>
              <tessellate>1</tessellate>
              <coordinates>
                -2.3884364,43.3047232,0
                -2.388474,43.3049184,0
                -2.3888388,43.3050511,0
                -2.3884364,43.3055938,0
                -2.388415,43.3058905,0
                -2.389284,43.3064604,0
                -2.3901906,43.3066868,0
                -2.3904065,43.3065189,0
                -2.39055,43.3063276,0
                -2.3906841,43.3060915,0
                -2.3912742,43.3049419,0
                -2.388828,43.3045788,0
                -2.3884633,43.3044226,0
                -2.3884364,43.3047232,0
              </coordinates>
            </LinearRing>
          </outerBoundaryIs>
        </Polygon>
      </Placemark>
      <Placemark>
        <name>HIRIGIBEL KALEA</name>
		<ExtendedData>
			<zoneId>60001</zoneId><zoneColor>FFCC80</zoneColor>
		</ExtendedData>
        <styleUrl>#poly-FFCC80-1200-77-nodesc</styleUrl>
        <Polygon>
          <outerBoundaryIs>
            <LinearRing>
              <tessellate>1</tessellate>
              <coordinates>
                -2.3905251,43.3066983,0
                -2.3913834,43.3059566,0
                -2.3923168,43.3050842,0
                -2.392404,43.3049026,0
                -2.392062,43.3048187,0
                -2.3912225,43.3057771,0
                -2.3903467,43.3066173,0
                -2.3905251,43.3066983,0
              </coordinates>
            </LinearRing>
          </outerBoundaryIs>
        </Polygon>
      </Placemark>
      <Placemark>
        <name>JOSE ANTONIO EZEIZA KALEA</name>
		<ExtendedData>
			<zoneId>60001</zoneId><zoneColor>FFCC80</zoneColor>
		</ExtendedData>
        <styleUrl>#poly-FFCC80-1200-77-nodesc</styleUrl>
        <Polygon>
          <outerBoundaryIs>
            <LinearRing>
              <tessellate>1</tessellate>
              <coordinates>
                -2.3895103,43.3069677,0
                -2.3896256,43.3069716,0
                -2.3895988,43.3068174,0
                -2.3897047,43.3067862,0
                -2.3900829,43.3070858,0
                -2.3903753,43.3071326,0
                -2.3906422,43.3071434,0
                -2.3905617,43.306715,0
                -2.3902989,43.3066398,0
                -2.3901547,43.3067335,0
                -2.3898764,43.306755,0
                -2.3895988,43.3066993,0
                -2.3894768,43.3067891,0
                -2.3895103,43.3069677,0
              </coordinates>
            </LinearRing>
          </outerBoundaryIs>
        </Polygon>
      </Placemark>
    </Folder>
    <Folder>
      <name>SECTOR_2_AZUL</name>
	  <ExtendedData>
			<zoneId>60002</zoneId><zoneColor>1E88E5</zoneColor>
		</ExtendedData>
      <Placemark>
        <name>MIJOA_SATURRARAN</name>
		<ExtendedData>
			<zoneId>60002</zoneId><zoneColor>1E88E5</zoneColor>
		</ExtendedData>
        <styleUrl>#poly-01579B-1200-77-nodesc</styleUrl>
        <Polygon>
          <outerBoundaryIs>
            <LinearRing>
              <tessellate>1</tessellate>
              <coordinates>
                -2.41164,43.3203819,0
                -2.4116883,43.3201009,0
                -2.4118063,43.3197838,0
                -2.412391,43.3190286,0
                -2.412147,43.3190287,0
                -2.4110057,43.3202209,0
                -2.41164,43.3203819,0
              </coordinates>
            </LinearRing>
          </outerBoundaryIs>
        </Polygon>
      </Placemark>
      <Placemark>
        <name>MUELLE_KALEA_BURUMENDI</name>
		<ExtendedData>
			<zoneId>60002</zoneId><zoneColor>1E88E5</zoneColor>
		</ExtendedData>
        <styleUrl>#poly-01579B-1200-77-nodesc</styleUrl>
        <Polygon>
          <outerBoundaryIs>
            <LinearRing>
              <tessellate>1</tessellate>
              <coordinates>
                -2.3822293,43.311963,0
                -2.3830796,43.3119438,0
                -2.3831681,43.3111651,0
                -2.382873,43.3105386,0
                -2.3821274,43.3106615,0
                -2.381945,43.3106401,0
                -2.381894,43.3119669,0
                -2.3822293,43.311963,0
              </coordinates>
            </LinearRing>
          </outerBoundaryIs>
        </Polygon>
      </Placemark>
      <Placemark>
        <name>DOMINGO IBAIBARRIAGA 2-4-6-9</name>
		<ExtendedData>
			<zoneId>60002</zoneId><zoneColor>1E88E5</zoneColor>
		</ExtendedData>
        <styleUrl>#poly-01579B-1200-77-nodesc</styleUrl>
        <Polygon>
          <outerBoundaryIs>
            <LinearRing>
              <tessellate>1</tessellate>
              <coordinates>
                -2.3881439,43.3076907,0
                -2.3881479,43.3076009,0
                -2.3878408,43.307595,0
                -2.3874814,43.3075804,0
                -2.3874492,43.3076634,0
                -2.3878193,43.3076624,0
                -2.3881439,43.3076907,0
              </coordinates>
            </LinearRing>
          </outerBoundaryIs>
        </Polygon>
      </Placemark>
      <Placemark>
        <name>DOMINGO IBAIBARRIAGA 3-5-8-10-12</name>
		<ExtendedData>
			<zoneId>60002</zoneId><zoneColor>1E88E5</zoneColor>
		</ExtendedData>
        <styleUrl>#poly-01579B-1200-77-nodesc</styleUrl>
        <Polygon>
          <outerBoundaryIs>
            <LinearRing>
              <tessellate>1</tessellate>
              <coordinates>
                -2.3890492,43.3072848,0
                -2.3889338,43.3072828,0
                -2.3889133,43.3074459,0
                -2.3888221,43.3075239,0
                -2.3886263,43.307604,0
                -2.3883608,43.3076137,0
                -2.3881998,43.3076098,0
                -2.388173,43.3076957,0
                -2.388578,43.3076976,0
                -2.3888704,43.3075864,0
                -2.3890126,43.3074771,0
                -2.3890492,43.3072848,0
              </coordinates>
            </LinearRing>
          </outerBoundaryIs>
        </Polygon>
      </Placemark>
      <Placemark>
        <name>JOSE MARIA ALCIBAR 1-8</name>
		<ExtendedData>
			<zoneId>60002</zoneId><zoneColor>1E88E5</zoneColor>
		</ExtendedData>
        <styleUrl>#poly-01579B-1200-77-nodesc</styleUrl>
        <Polygon>
          <outerBoundaryIs>
            <LinearRing>
              <tessellate>1</tessellate>
              <coordinates>
                -2.3881465,43.3067805,0
                -2.3883504,43.3058339,0
                -2.3876423,43.3057656,0
                -2.3875323,43.3067161,0
                -2.3881465,43.3067805,0
              </coordinates>
            </LinearRing>
          </outerBoundaryIs>
        </Polygon>
      </Placemark>
      <Placemark>
        <name>FUTBOL ZELAIA (PARKING)</name>
		<ExtendedData>
			<zoneId>60002</zoneId><zoneColor>1E88E5</zoneColor>
		</ExtendedData>
        <styleUrl>#poly-01579B-1200-77-nodesc</styleUrl>
        <Polygon>
          <outerBoundaryIs>
            <LinearRing>
              <tessellate>1</tessellate>
              <coordinates>
                -2.3859627,43.305229,0
                -2.385437,43.304542,0
                -2.3844714,43.3050026,0
                -2.3845894,43.3055101,0
                -2.3859627,43.305229,0
              </coordinates>
            </LinearRing>
          </outerBoundaryIs>
        </Polygon>
      </Placemark>
      <Placemark>
        <name>JOSE MARIA ALCIBAR 17</name>
		<ExtendedData>
			<zoneId>60002</zoneId><zoneColor>1E88E5</zoneColor>
		</ExtendedData>
        <styleUrl>#poly-01579B-1200-77-nodesc</styleUrl>
        <Polygon>
          <outerBoundaryIs>
            <LinearRing>
              <tessellate>1</tessellate>
              <coordinates>
                -2.3883021,43.3050743,0
                -2.3883772,43.3047112,0
                -2.3880715,43.3046722,0
                -2.3879642,43.3050274,0
                -2.3883021,43.3050743,0
              </coordinates>
            </LinearRing>
          </outerBoundaryIs>
        </Polygon>
      </Placemark>
    </Folder>
    <Folder>
      <name>SECTOR_3_VERDE</name>
	  <ExtendedData>
			<zoneId>60003</zoneId><zoneColor>7CB342</zoneColor>
		</ExtendedData>
    </Folder>
    <Folder>
      <name>SECTOR_4_AUTOCARAVANAS</name>
	  <ExtendedData>
			<zoneId>60004</zoneId><zoneColor>CE93D8</zoneColor>
		</ExtendedData>
      <Placemark>
        <name>MUELLE_KALEA_BURUMENDI_ENTRADA</name>
		<ExtendedData>
			<zoneId>60004</zoneId><zoneColor>CE93D8</zoneColor>
		</ExtendedData>
        <styleUrl>#poly-CE93D8-1200-77-nodesc</styleUrl>
        <Polygon>
          <outerBoundaryIs>
            <LinearRing>
              <tessellate>1</tessellate>
              <coordinates>
                -2.3821489,43.3123943,0
                -2.3825137,43.3123289,0
                -2.3830608,43.3121933,0
                -2.3830554,43.3119708,0
                -2.381894,43.3119669,0
                -2.3818672,43.3121445,0
                -2.3816835,43.3123026,0
                -2.3817572,43.3123435,0
                -2.3817814,43.3124119,0
                -2.3821489,43.3123943,0
              </coordinates>
            </LinearRing>
          </outerBoundaryIs>
        </Polygon>
      </Placemark>
    </Folder>
    <Folder>
      <name>SECTOR_5_ROJO_ALTA_ROTACION</name>
	  <ExtendedData>
			<zoneId>60005</zoneId><zoneColor>A52714</zoneColor>
		</ExtendedData>
      <Placemark>
        <name>DOMINGO IBAIBARRIAGA 14</name>
		<ExtendedData>
			<zoneId>60005</zoneId><zoneColor>A52714</zoneColor>
		</ExtendedData>
        <styleUrl>#poly-A52714-1200-77-nodesc</styleUrl>
        <Polygon>
          <outerBoundaryIs>
            <LinearRing>
              <tessellate>1</tessellate>
              <coordinates>
                -2.3890492,43.3072848,0
                -2.3890317,43.3071589,0
                -2.3890639,43.3069881,0
                -2.3889446,43.3069598,0
                -2.3889352,43.306991,0
                -2.3889271,43.3071023,0
                -2.3889338,43.3072828,0
                -2.3890492,43.3072848,0
              </coordinates>
            </LinearRing>
          </outerBoundaryIs>
        </Polygon>
      </Placemark>
      <Placemark>
        <name>TXURRUKA PLAZA</name>
		<ExtendedData>
			<zoneId>60005</zoneId><zoneColor>A52714</zoneColor>
		</ExtendedData>
        <styleUrl>#poly-A52714-1200-77-nodesc</styleUrl>
        <Polygon>
          <outerBoundaryIs>
            <LinearRing>
              <tessellate>1</tessellate>
              <coordinates>
                -2.3874371,43.3076634,0
                -2.387476,43.3075745,0
                -2.3873137,43.3075375,0
                -2.387346,43.3072047,0
                -2.3872494,43.3072271,0
                -2.3871541,43.307193,0
                -2.3869088,43.3072008,0
                -2.3868766,43.3075745,0
                -2.3872239,43.307597,0
                -2.3874371,43.3076634,0
              </coordinates>
            </LinearRing>
          </outerBoundaryIs>
        </Polygon>
      </Placemark>
    </Folder>
    <Folder>
      <name>SECTOR_6_AZUL_ALTA_ROTACION</name>
	  <ExtendedData>
			<zoneId>60006</zoneId><zoneColor>0188D1</zoneColor>
		</ExtendedData>
    </Folder>
    <Folder>
      <name>SECTOR_7_AZUL_ROJO_ALTA_ROTACION (60007) #673AB7</name>
	  <ExtendedData>
			<zoneId>60007</zoneId><zoneColor>673AB7</zoneColor>
		</ExtendedData>
      <Placemark>
        <name>SAN AGUSTIN 1-8</name>
		<ExtendedData>
			<zoneId>60007</zoneId><zoneColor>673AB7</zoneColor>
		</ExtendedData>
        <styleUrl>#poly-673AB7-1200-77-nodesc</styleUrl>
        <Polygon>
          <outerBoundaryIs>
            <LinearRing>
              <tessellate>1</tessellate>
              <coordinates>
                -2.3855464,43.3068086,0
                -2.3855239,43.306468,0
                -2.3857224,43.3061148,0
                -2.3855024,43.3053809,0
                -2.3842338,43.3056932,0
                -2.3843116,43.3058141,0
                -2.3848025,43.305983,0
                -2.3851726,43.3061557,0
                -2.3853603,43.3064504,0
                -2.3854187,43.3068412,0
                -2.3855464,43.3068086,0
              </coordinates>
            </LinearRing>
          </outerBoundaryIs>
        </Polygon>
      </Placemark>
      <Placemark>
        <name>ZUBIAGA PLAZA 3</name>
		<ExtendedData>
			<zoneId>60007</zoneId><zoneColor>673AB7</zoneColor>
		</ExtendedData>
        <styleUrl>#poly-673AB7-1200-77-nodesc</styleUrl>
        <Polygon>
          <outerBoundaryIs>
            <LinearRing>
              <tessellate>1</tessellate>
              <coordinates>
                -2.3862241,43.3067306,0
                -2.3861677,43.3066428,0
                -2.3860256,43.306675,0
                -2.3861128,43.3067677,0
                -2.3862241,43.3067306,0
              </coordinates>
            </LinearRing>
          </outerBoundaryIs>
        </Polygon>
      </Placemark>
      <Placemark>
        <name>AZKIAGA KALEA 1</name>
		<ExtendedData>
			<zoneId>60007</zoneId><zoneColor>673AB7</zoneColor>
		</ExtendedData>
        <styleUrl>#poly-673AB7-1200-77-nodesc</styleUrl>
        <Polygon>
          <outerBoundaryIs>
            <LinearRing>
              <tessellate>1</tessellate>
              <coordinates>
                -2.3863352,43.3066678,0
                -2.3862829,43.3066024,0
                -2.3861676,43.30662,0
                -2.3862306,43.3067107,0
                -2.3863352,43.3066678,0
              </coordinates>
            </LinearRing>
          </outerBoundaryIs>
        </Polygon>
      </Placemark>
      <Placemark>
        <name>BARRENKALE KALEA 2</name>
		<ExtendedData>
			<zoneId>60007</zoneId><zoneColor>673AB7</zoneColor>
		</ExtendedData>
        <styleUrl>#poly-673AB7-1200-77-nodesc</styleUrl>
        <Polygon>
          <outerBoundaryIs>
            <LinearRing>
              <tessellate>1</tessellate>
              <coordinates>
                -2.3861421,43.3066394,0
                -2.3860013,43.3065301,0
                -2.3859034,43.3065165,0
                -2.3858792,43.3065936,0
                -2.3859919,43.3066092,0
                -2.3860295,43.3066707,0
                -2.3861421,43.3066394,0
              </coordinates>
            </LinearRing>
          </outerBoundaryIs>
        </Polygon>
      </Placemark>
      <Placemark>
        <name>FELIX TXURRUKA 1-4-6</name>
		<ExtendedData>
			<zoneId>60007</zoneId><zoneColor>673AB7</zoneColor>
		</ExtendedData>
        <styleUrl>#poly-673AB7-1200-77-nodesc</styleUrl>
        <Polygon>
          <outerBoundaryIs>
            <LinearRing>
              <tessellate>1</tessellate>
              <coordinates>
                -2.3858698,43.3065907,0
                -2.3858886,43.3065146,0
                -2.3856901,43.3064784,0
                -2.3855118,43.306416,0
                -2.3855413,43.3064999,0
                -2.385674,43.306537,0
                -2.3858698,43.3065907,0
              </coordinates>
            </LinearRing>
          </outerBoundaryIs>
        </Polygon>
      </Placemark>
    </Folder>
  </Document>
</kml>
