<?xml version="1.0" encoding="UTF-8"?>
<kml xmlns="http://www.opengis.net/kml/2.2">
  <Document>
    <name>Tolosa_OTA</name>
    <description>OTA de Tolosa</description>
    <Style id="poly-0288D1-1200-77-normal">
      <LineStyle>
        <color>ffd18802</color>
        <width>1.2</width>
      </LineStyle>
      <PolyStyle>
        <color>4dd18802</color>
        <fill>1</fill>
        <outline>1</outline>
      </PolyStyle>
    </Style>
    <Style id="poly-0288D1-1200-77-highlight">
      <LineStyle>
        <color>ffd18802</color>
        <width>1.8</width>
      </LineStyle>
      <PolyStyle>
        <color>4dd18802</color>
        <fill>1</fill>
        <outline>1</outline>
      </PolyStyle>
    </Style>
    <StyleMap id="poly-0288D1-1200-77">
      <Pair>
        <key>normal</key>
        <styleUrl>#poly-0288D1-1200-77-normal</styleUrl>
      </Pair>
      <Pair>
        <key>highlight</key>
        <styleUrl>#poly-0288D1-1200-77-highlight</styleUrl>
      </Pair>
    </StyleMap>
    <Style id="poly-0F9D58-1200-77-normal">
      <LineStyle>
        <color>ff589d0f</color>
        <width>1.2</width>
      </LineStyle>
      <PolyStyle>
        <color>4d589d0f</color>
        <fill>1</fill>
        <outline>1</outline>
      </PolyStyle>
    </Style>
    <Style id="poly-0F9D58-1200-77-highlight">
      <LineStyle>
        <color>ff589d0f</color>
        <width>1.8</width>
      </LineStyle>
      <PolyStyle>
        <color>4d589d0f</color>
        <fill>1</fill>
        <outline>1</outline>
      </PolyStyle>
    </Style>
    <StyleMap id="poly-0F9D58-1200-77">
      <Pair>
        <key>normal</key>
        <styleUrl>#poly-0F9D58-1200-77-normal</styleUrl>
      </Pair>
      <Pair>
        <key>highlight</key>
        <styleUrl>#poly-0F9D58-1200-77-highlight</styleUrl>
      </Pair>
    </StyleMap>
    <Style id="poly-C2185B-1200-77-normal">
      <LineStyle>
        <color>ff5b18c2</color>
        <width>1.2</width>
      </LineStyle>
      <PolyStyle>
        <color>4d5b18c2</color>
        <fill>1</fill>
        <outline>1</outline>
      </PolyStyle>
    </Style>
    <Style id="poly-C2185B-1200-77-highlight">
      <LineStyle>
        <color>ff5b18c2</color>
        <width>1.8</width>
      </LineStyle>
      <PolyStyle>
        <color>4d5b18c2</color>
        <fill>1</fill>
        <outline>1</outline>
      </PolyStyle>
    </Style>
    <StyleMap id="poly-C2185B-1200-77">
      <Pair>
        <key>normal</key>
        <styleUrl>#poly-C2185B-1200-77-normal</styleUrl>
      </Pair>
      <Pair>
        <key>highlight</key>
        <styleUrl>#poly-C2185B-1200-77-highlight</styleUrl>
      </Pair>
    </StyleMap>
    <Style id="poly-F9A825-1200-77-normal">
      <LineStyle>
        <color>ff25a8f9</color>
        <width>1.2</width>
      </LineStyle>
      <PolyStyle>
        <color>4d25a8f9</color>
        <fill>1</fill>
        <outline>1</outline>
      </PolyStyle>
    </Style>
    <Style id="poly-F9A825-1200-77-highlight">
      <LineStyle>
        <color>ff25a8f9</color>
        <width>1.8</width>
      </LineStyle>
      <PolyStyle>
        <color>4d25a8f9</color>
        <fill>1</fill>
        <outline>1</outline>
      </PolyStyle>
    </Style>
    <StyleMap id="poly-F9A825-1200-77">
      <Pair>
        <key>normal</key>
        <styleUrl>#poly-F9A825-1200-77-normal</styleUrl>
      </Pair>
      <Pair>
        <key>highlight</key>
        <styleUrl>#poly-F9A825-1200-77-highlight</styleUrl>
      </Pair>
    </StyleMap>
    <Folder>
      <name>Tolosa</name>
      <Placemark>
        <name>Zona 1 Urdina 01</name>
        <description>1 - URDINA</description>
		<ExtendedData>
			<zoneId>60009</zoneId><zoneColor>1E88E5</zoneColor>
	    </ExtendedData>
        <styleUrl>#poly-0288D1-1200-77</styleUrl>
        <Polygon>
          <outerBoundaryIs>
            <LinearRing>
              <tessellate>1</tessellate>
              <coordinates>
                -2.0740097,43.1365907,0
                -2.0754581,43.1357334,0
                -2.0744281,43.1348056,0
                -2.0745461,43.134606,0
                -2.0740902,43.1336233,0
                -2.0734035,43.1343358,0
                -2.0731514,43.1361053,0
                -2.0740097,43.1365907,0
              </coordinates>
            </LinearRing>
          </outerBoundaryIs>
        </Polygon>
      </Placemark>
      <Placemark>
        <name>Zona 1 Urdina 02</name>
        <description>1 - URDINA</description>
		<ExtendedData>
			<zoneId>60009</zoneId><zoneColor>1E88E5</zoneColor>
	    </ExtendedData>
        <styleUrl>#poly-0288D1-1200-77</styleUrl>
        <Polygon>
          <outerBoundaryIs>
            <LinearRing>
              <tessellate>1</tessellate>
              <coordinates>
                -2.0765063,43.1366082,0
                -2.0759216,43.136068,0
                -2.0754978,43.1363264,0
                -2.0760504,43.1367844,0
                -2.0765063,43.1366082,0
              </coordinates>
            </LinearRing>
          </outerBoundaryIs>
        </Polygon>
      </Placemark>
      <Placemark>
        <name>Zona 1 Urdina Lim 01 Santa Klara</name>
        <description>1 - URDINA LIM</description>
		<ExtendedData>
			<zoneId>60018</zoneId><zoneColor>D81B60</zoneColor>
	    </ExtendedData>
        <styleUrl>#poly-C2185B-1200-77</styleUrl>
        <Polygon>
          <outerBoundaryIs>
            <LinearRing>
              <tessellate>1</tessellate>
              <coordinates>
                -2.0725553,43.1350726,0
                -2.0721368,43.1367637,0
                -2.0726196,43.1366541,0
                -2.0728342,43.1352918,0
                -2.0725553,43.1350726,0
              </coordinates>
            </LinearRing>
          </outerBoundaryIs>
        </Polygon>
      </Placemark>
      <Placemark>
        <name>Zona 1 Urdina Lim 02 Belate</name>
        <description>1 - URDINA LIM</description>
		<ExtendedData>
			<zoneId>60018</zoneId><zoneColor>D81B60</zoneColor>
	    </ExtendedData>
        <styleUrl>#poly-C2185B-1200-77</styleUrl>
        <Polygon>
          <outerBoundaryIs>
            <LinearRing>
              <tessellate>1</tessellate>
              <coordinates>
                -2.0726593,43.1435609,0
                -2.0722731,43.145377,0
                -2.0719727,43.1465277,0
                -2.0725413,43.146559,0
                -2.0727022,43.1455414,0
                -2.0731207,43.1436157,0
                -2.0726593,43.1435609,0
              </coordinates>
            </LinearRing>
          </outerBoundaryIs>
        </Polygon>
      </Placemark>
      <Placemark>
        <name>Zona 1 Marroia Lim 01 Rondilla</name>
        <description>1 - MARROIA LIM</description>
		<ExtendedData>
			<zoneId>60019</zoneId><zoneColor>6D4C41</zoneColor>
	    </ExtendedData>
        <styleUrl>#poly-F9A825-1200-77</styleUrl>
        <Polygon>
          <outerBoundaryIs>
            <LinearRing>
              <tessellate>1</tessellate>
              <coordinates>
                -2.0721378,43.1405224,0
                -2.0731463,43.1402719,0
                -2.0734574,43.1391054,0
                -2.0738812,43.137477,0
                -2.0736935,43.1374104,0
                -2.073157,43.1392933,0
                -2.0728995,43.1401936,0
                -2.0720197,43.140405,0
                -2.0721378,43.1405224,0
              </coordinates>
            </LinearRing>
          </outerBoundaryIs>
        </Polygon>
      </Placemark>
      <Placemark>
        <name>Zona 1 Marroia CS SF 01</name>
        <description>1 - MARROIA CS</description>
		<ExtendedData>
			<zoneId>60001</zoneId><zoneColor>6D4C41</zoneColor>
	    </ExtendedData>
        <styleUrl>#poly-F9A825-1200-77</styleUrl>
        <Polygon>
          <outerBoundaryIs>
            <LinearRing>
              <tessellate>1</tessellate>
              <coordinates>
                -2.074143,43.1366709,0
                -2.0748726,43.1361855,0
                -2.0755377,43.1358018,0
                -2.0754734,43.1357549,0
                -2.074025,43.1366122,0
                -2.0736991,43.1373931,0
                -2.0739016,43.1374616,0
                -2.0740505,43.1368255,0
                -2.074143,43.1366709,0
              </coordinates>
            </LinearRing>
          </outerBoundaryIs>
        </Polygon>
      </Placemark>
      <Placemark>
        <name>Zona 2 Urdina</name>
        <description>2 - URDINA</description>
		<ExtendedData>
			<zoneId>60011</zoneId><zoneColor>1E88E5</zoneColor>
	    </ExtendedData>
        <styleUrl>#poly-0288D1-1200-77</styleUrl>
        <Polygon>
          <outerBoundaryIs>
            <LinearRing>
              <tessellate>1</tessellate>
              <coordinates>
                -2.0765548,43.1366659,0
                -2.0768659,43.1370182,0
                -2.0788883,43.1359221,0
                -2.0778583,43.1352801,0
                -2.0772951,43.1347634,0
                -2.0776518,43.1345853,0
                -2.0778449,43.1347555,0
                -2.0780407,43.1349395,0
                -2.0786415,43.1346968,0
                -2.0806049,43.1342427,0
                -2.0821874,43.1337886,0
                -2.0830403,43.1332171,0
                -2.0827668,43.1330096,0
                -2.0796554,43.1336477,0
                -2.078207,43.1334167,0
                -2.0772897,43.1329078,0
                -2.0764207,43.1327081,0
                -2.0741247,43.1336007,0
                -2.0744573,43.1343171,0
                -2.0745914,43.1345754,0
                -2.0767372,43.1336281,0
                -2.0768283,43.1338317,0
                -2.0759271,43.1342231,0
                -2.07619,43.1345246,0
                -2.0759432,43.1346107,0
                -2.075675,43.1343602,0
                -2.0747577,43.1347751,0
                -2.0757215,43.1356942,0
                -2.075557,43.1358399,0
                -2.0759164,43.1360455,0
                -2.0762865,43.1363762,0
                -2.0764984,43.1365778,0
                -2.0765548,43.1366659,0
              </coordinates>
            </LinearRing>
          </outerBoundaryIs>
        </Polygon>
      </Placemark>
      <Placemark>
        <name>Zona 2 Berdea Parking Geltoki</name>
        <description>2 - BERDEA</description>
		<ExtendedData>
			<zoneId>60004</zoneId><zoneColor>43A047</zoneColor>
	    </ExtendedData>
        <styleUrl>#poly-0F9D58-1200-77</styleUrl>
        <Polygon>
          <outerBoundaryIs>
            <LinearRing>
              <tessellate>1</tessellate>
              <coordinates>
                -2.0793694,43.1353175,0
                -2.0787042,43.1347303,0
                -2.0780176,43.1350043,0
                -2.0776313,43.1346207,0
                -2.0773309,43.1347694,0
                -2.0778459,43.1352313,0
                -2.0786828,43.1356463,0
                -2.0793694,43.1353175,0
              </coordinates>
            </LinearRing>
          </outerBoundaryIs>
        </Polygon>
      </Placemark>
      <Placemark>
        <name>Zona 2 Marroia CS Nafarroa</name>
        <description>2 - MARROIA CS</description>
		<ExtendedData>
			<zoneId>60003</zoneId><zoneColor>6D4C41</zoneColor>
	    </ExtendedData>
        <styleUrl>#poly-F9A825-1200-77</styleUrl>
        <Polygon>
          <outerBoundaryIs>
            <LinearRing>
              <tessellate>1</tessellate>
              <coordinates>
                -2.0747451,43.1347455,0
                -2.0756946,43.1342992,0
                -2.0759735,43.1345693,0
                -2.0761237,43.1345067,0
                -2.075877,43.1342209,0
                -2.0767407,43.1337786,0
                -2.0766763,43.133669,0
                -2.0746378,43.1346281,0
                -2.074493,43.1348082,0
                -2.0755605,43.135792,0
                -2.0756852,43.1356928,0
                -2.0747451,43.1347455,0
              </coordinates>
            </LinearRing>
          </outerBoundaryIs>
        </Polygon>
      </Placemark>
      <Placemark>
        <name>Zona 3 Urdina</name>
        <description>3-URDINA</description>
		<ExtendedData>
			<zoneId>60005</zoneId><zoneColor>1E88E5</zoneColor>
	    </ExtendedData>
        <styleUrl>#poly-0288D1-1200-77</styleUrl>
        <Polygon>
          <outerBoundaryIs>
            <LinearRing>
              <tessellate>1</tessellate>
              <coordinates>
                -2.07749,43.136682,0
                -2.080108,43.13723,0
                -2.081281,43.137034,0
                -2.08023,43.136087,0
                -2.0792,43.135813,0
                -2.07749,43.136682,0
              </coordinates>
            </LinearRing>
          </outerBoundaryIs>
        </Polygon>
      </Placemark>
      <Placemark>
        <name>Zona 4 Urdina</name>
        <description>4-URDINA</description>
		<ExtendedData>
			<zoneId>60007</zoneId><zoneColor>1E88E5</zoneColor>
	    </ExtendedData>
        <styleUrl>#poly-0288D1-1200-77</styleUrl>
        <Polygon>
          <outerBoundaryIs>
            <LinearRing>
              <tessellate>1</tessellate>
              <coordinates>
                -2.0792,43.1278818,0
                -2.075853,43.1310018,0
                -2.076057,43.1324738,0
                -2.078632,43.1333118,0
                -2.0792,43.1278818,0
              </coordinates>
            </LinearRing>
          </outerBoundaryIs>
        </Polygon>
      </Placemark>
      <Placemark>
        <name>Zona 5 Urdina</name>
        <description>5-URDINA</description>
		<ExtendedData>
			<zoneId>60016</zoneId><zoneColor>1E88E5</zoneColor>
	    </ExtendedData>
        <styleUrl>#poly-0288D1-1200-77</styleUrl>
        <Polygon>
          <outerBoundaryIs>
            <LinearRing>
              <tessellate>1</tessellate>
              <coordinates>
                -2.070212,43.139171,0
                -2.069875,43.14077,0
                -2.070323,43.145383,0
                -2.071953,43.146466,0
                -2.072361,43.144838,0
                -2.072567,43.142573,0
                -2.070212,43.139171,0
              </coordinates>
            </LinearRing>
          </outerBoundaryIs>
        </Polygon>
      </Placemark>
    </Folder>
  </Document>
</kml>
