<?xml version="1.0" encoding="UTF-8"?>
<kml xmlns="http://www.opengis.net/kml/2.2">
  <Document>
    <name>Ota_Zarautz_2023</name>
    <description>Zonas y sectores nuevos de la OTA de Zarautz</description>
    <Style id="poly-000000-1000-66-normal">
      <LineStyle>
        <color>ff000000</color>
        <width>1</width>
      </LineStyle>
      <PolyStyle>
        <color>42000000</color>
        <fill>1</fill>
        <outline>1</outline>
      </PolyStyle>
    </Style>
    <Style id="poly-000000-1000-66-highlight">
      <LineStyle>
        <color>ff000000</color>
        <width>1.5</width>
      </LineStyle>
      <PolyStyle>
        <color>42000000</color>
        <fill>1</fill>
        <outline>1</outline>
      </PolyStyle>
    </Style>
    <StyleMap id="poly-000000-1000-66">
      <Pair>
        <key>normal</key>
        <styleUrl>#poly-000000-1000-66-normal</styleUrl>
      </Pair>
      <Pair>
        <key>highlight</key>
        <styleUrl>#poly-000000-1000-66-highlight</styleUrl>
      </Pair>
    </StyleMap>
    <Style id="poly-000000-1200-77-normal">
      <LineStyle>
        <color>ff000000</color>
        <width>1.2</width>
      </LineStyle>
      <PolyStyle>
        <color>4d000000</color>
        <fill>1</fill>
        <outline>1</outline>
      </PolyStyle>
    </Style>
    <Style id="poly-000000-1200-77-highlight">
      <LineStyle>
        <color>ff000000</color>
        <width>1.8</width>
      </LineStyle>
      <PolyStyle>
        <color>4d000000</color>
        <fill>1</fill>
        <outline>1</outline>
      </PolyStyle>
    </Style>
    <StyleMap id="poly-000000-1200-77">
      <Pair>
        <key>normal</key>
        <styleUrl>#poly-000000-1200-77-normal</styleUrl>
      </Pair>
      <Pair>
        <key>highlight</key>
        <styleUrl>#poly-000000-1200-77-highlight</styleUrl>
      </Pair>
    </StyleMap>
    <Style id="poly-000000-1200-77-nodesc-normal">
      <LineStyle>
        <color>ff000000</color>
        <width>1.2</width>
      </LineStyle>
      <PolyStyle>
        <color>4d000000</color>
        <fill>1</fill>
        <outline>1</outline>
      </PolyStyle>
      <BalloonStyle>
        <text><![CDATA[<h3>$[name]</h3>]]></text>
      </BalloonStyle>
    </Style>
    <Style id="poly-000000-1200-77-nodesc-highlight">
      <LineStyle>
        <color>ff000000</color>
        <width>1.8</width>
      </LineStyle>
      <PolyStyle>
        <color>4d000000</color>
        <fill>1</fill>
        <outline>1</outline>
      </PolyStyle>
      <BalloonStyle>
        <text><![CDATA[<h3>$[name]</h3>]]></text>
      </BalloonStyle>
    </Style>
    <StyleMap id="poly-000000-1200-77-nodesc">
      <Pair>
        <key>normal</key>
        <styleUrl>#poly-000000-1200-77-nodesc-normal</styleUrl>
      </Pair>
      <Pair>
        <key>highlight</key>
        <styleUrl>#poly-000000-1200-77-nodesc-highlight</styleUrl>
      </Pair>
    </StyleMap>
    <Style id="poly-0288D1-1000-105-normal">
      <LineStyle>
        <color>ffd18802</color>
        <width>1</width>
      </LineStyle>
      <PolyStyle>
        <color>69d18802</color>
        <fill>1</fill>
        <outline>1</outline>
      </PolyStyle>
    </Style>
    <Style id="poly-0288D1-1000-105-highlight">
      <LineStyle>
        <color>ffd18802</color>
        <width>1.5</width>
      </LineStyle>
      <PolyStyle>
        <color>69d18802</color>
        <fill>1</fill>
        <outline>1</outline>
      </PolyStyle>
    </Style>
    <StyleMap id="poly-0288D1-1000-105">
      <Pair>
        <key>normal</key>
        <styleUrl>#poly-0288D1-1000-105-normal</styleUrl>
      </Pair>
      <Pair>
        <key>highlight</key>
        <styleUrl>#poly-0288D1-1000-105-highlight</styleUrl>
      </Pair>
    </StyleMap>
    <Style id="poly-0288D1-1000-61-normal">
      <LineStyle>
        <color>ffd18802</color>
        <width>1</width>
      </LineStyle>
      <PolyStyle>
        <color>3dd18802</color>
        <fill>1</fill>
        <outline>1</outline>
      </PolyStyle>
    </Style>
    <Style id="poly-0288D1-1000-61-highlight">
      <LineStyle>
        <color>ffd18802</color>
        <width>1.5</width>
      </LineStyle>
      <PolyStyle>
        <color>3dd18802</color>
        <fill>1</fill>
        <outline>1</outline>
      </PolyStyle>
    </Style>
    <StyleMap id="poly-0288D1-1000-61">
      <Pair>
        <key>normal</key>
        <styleUrl>#poly-0288D1-1000-61-normal</styleUrl>
      </Pair>
      <Pair>
        <key>highlight</key>
        <styleUrl>#poly-0288D1-1000-61-highlight</styleUrl>
      </Pair>
    </StyleMap>
    <Style id="poly-0288D1-1000-69-normal">
      <LineStyle>
        <color>ffd18802</color>
        <width>1</width>
      </LineStyle>
      <PolyStyle>
        <color>45d18802</color>
        <fill>1</fill>
        <outline>1</outline>
      </PolyStyle>
    </Style>
    <Style id="poly-0288D1-1000-69-highlight">
      <LineStyle>
        <color>ffd18802</color>
        <width>1.5</width>
      </LineStyle>
      <PolyStyle>
        <color>45d18802</color>
        <fill>1</fill>
        <outline>1</outline>
      </PolyStyle>
    </Style>
    <StyleMap id="poly-0288D1-1000-69">
      <Pair>
        <key>normal</key>
        <styleUrl>#poly-0288D1-1000-69-normal</styleUrl>
      </Pair>
      <Pair>
        <key>highlight</key>
        <styleUrl>#poly-0288D1-1000-69-highlight</styleUrl>
      </Pair>
    </StyleMap>
    <Style id="poly-0288D1-1000-74-normal">
      <LineStyle>
        <color>ffd18802</color>
        <width>1</width>
      </LineStyle>
      <PolyStyle>
        <color>4ad18802</color>
        <fill>1</fill>
        <outline>1</outline>
      </PolyStyle>
    </Style>
    <Style id="poly-0288D1-1000-74-highlight">
      <LineStyle>
        <color>ffd18802</color>
        <width>1.5</width>
      </LineStyle>
      <PolyStyle>
        <color>4ad18802</color>
        <fill>1</fill>
        <outline>1</outline>
      </PolyStyle>
    </Style>
    <StyleMap id="poly-0288D1-1000-74">
      <Pair>
        <key>normal</key>
        <styleUrl>#poly-0288D1-1000-74-normal</styleUrl>
      </Pair>
      <Pair>
        <key>highlight</key>
        <styleUrl>#poly-0288D1-1000-74-highlight</styleUrl>
      </Pair>
    </StyleMap>
    <Style id="poly-0288D1-1000-87-normal">
      <LineStyle>
        <color>ffd18802</color>
        <width>1</width>
      </LineStyle>
      <PolyStyle>
        <color>57d18802</color>
        <fill>1</fill>
        <outline>1</outline>
      </PolyStyle>
    </Style>
    <Style id="poly-0288D1-1000-87-highlight">
      <LineStyle>
        <color>ffd18802</color>
        <width>1.5</width>
      </LineStyle>
      <PolyStyle>
        <color>57d18802</color>
        <fill>1</fill>
        <outline>1</outline>
      </PolyStyle>
    </Style>
    <StyleMap id="poly-0288D1-1000-87">
      <Pair>
        <key>normal</key>
        <styleUrl>#poly-0288D1-1000-87-normal</styleUrl>
      </Pair>
      <Pair>
        <key>highlight</key>
        <styleUrl>#poly-0288D1-1000-87-highlight</styleUrl>
      </Pair>
    </StyleMap>
    <Style id="poly-0288D1-1200-77-normal">
      <LineStyle>
        <color>ffd18802</color>
        <width>1.2</width>
      </LineStyle>
      <PolyStyle>
        <color>4dd18802</color>
        <fill>1</fill>
        <outline>1</outline>
      </PolyStyle>
    </Style>
    <Style id="poly-0288D1-1200-77-highlight">
      <LineStyle>
        <color>ffd18802</color>
        <width>1.8</width>
      </LineStyle>
      <PolyStyle>
        <color>4dd18802</color>
        <fill>1</fill>
        <outline>1</outline>
      </PolyStyle>
    </Style>
    <StyleMap id="poly-0288D1-1200-77">
      <Pair>
        <key>normal</key>
        <styleUrl>#poly-0288D1-1200-77-normal</styleUrl>
      </Pair>
      <Pair>
        <key>highlight</key>
        <styleUrl>#poly-0288D1-1200-77-highlight</styleUrl>
      </Pair>
    </StyleMap>
    <Style id="poly-0288D1-1200-77-nodesc-normal">
      <LineStyle>
        <color>ffd18802</color>
        <width>1.2</width>
      </LineStyle>
      <PolyStyle>
        <color>4dd18802</color>
        <fill>1</fill>
        <outline>1</outline>
      </PolyStyle>
      <BalloonStyle>
        <text><![CDATA[<h3>$[name]</h3>]]></text>
      </BalloonStyle>
    </Style>
    <Style id="poly-0288D1-1200-77-nodesc-highlight">
      <LineStyle>
        <color>ffd18802</color>
        <width>1.8</width>
      </LineStyle>
      <PolyStyle>
        <color>4dd18802</color>
        <fill>1</fill>
        <outline>1</outline>
      </PolyStyle>
      <BalloonStyle>
        <text><![CDATA[<h3>$[name]</h3>]]></text>
      </BalloonStyle>
    </Style>
    <StyleMap id="poly-0288D1-1200-77-nodesc">
      <Pair>
        <key>normal</key>
        <styleUrl>#poly-0288D1-1200-77-nodesc-normal</styleUrl>
      </Pair>
      <Pair>
        <key>highlight</key>
        <styleUrl>#poly-0288D1-1200-77-nodesc-highlight</styleUrl>
      </Pair>
    </StyleMap>
    <Style id="poly-558B2F-1000-105-normal">
      <LineStyle>
        <color>ff2f8b55</color>
        <width>1</width>
      </LineStyle>
      <PolyStyle>
        <color>692f8b55</color>
        <fill>1</fill>
        <outline>1</outline>
      </PolyStyle>
    </Style>
    <Style id="poly-558B2F-1000-105-highlight">
      <LineStyle>
        <color>ff2f8b55</color>
        <width>1.5</width>
      </LineStyle>
      <PolyStyle>
        <color>692f8b55</color>
        <fill>1</fill>
        <outline>1</outline>
      </PolyStyle>
    </Style>
    <StyleMap id="poly-558B2F-1000-105">
      <Pair>
        <key>normal</key>
        <styleUrl>#poly-558B2F-1000-105-normal</styleUrl>
      </Pair>
      <Pair>
        <key>highlight</key>
        <styleUrl>#poly-558B2F-1000-105-highlight</styleUrl>
      </Pair>
    </StyleMap>
    <Style id="poly-558B2F-1000-54-normal">
      <LineStyle>
        <color>ff2f8b55</color>
        <width>1</width>
      </LineStyle>
      <PolyStyle>
        <color>362f8b55</color>
        <fill>1</fill>
        <outline>1</outline>
      </PolyStyle>
    </Style>
    <Style id="poly-558B2F-1000-54-highlight">
      <LineStyle>
        <color>ff2f8b55</color>
        <width>1.5</width>
      </LineStyle>
      <PolyStyle>
        <color>362f8b55</color>
        <fill>1</fill>
        <outline>1</outline>
      </PolyStyle>
    </Style>
    <StyleMap id="poly-558B2F-1000-54">
      <Pair>
        <key>normal</key>
        <styleUrl>#poly-558B2F-1000-54-normal</styleUrl>
      </Pair>
      <Pair>
        <key>highlight</key>
        <styleUrl>#poly-558B2F-1000-54-highlight</styleUrl>
      </Pair>
    </StyleMap>
    <Style id="poly-558B2F-1000-61-normal">
      <LineStyle>
        <color>ff2f8b55</color>
        <width>1</width>
      </LineStyle>
      <PolyStyle>
        <color>3d2f8b55</color>
        <fill>1</fill>
        <outline>1</outline>
      </PolyStyle>
    </Style>
    <Style id="poly-558B2F-1000-61-highlight">
      <LineStyle>
        <color>ff2f8b55</color>
        <width>1.5</width>
      </LineStyle>
      <PolyStyle>
        <color>3d2f8b55</color>
        <fill>1</fill>
        <outline>1</outline>
      </PolyStyle>
    </Style>
    <StyleMap id="poly-558B2F-1000-61">
      <Pair>
        <key>normal</key>
        <styleUrl>#poly-558B2F-1000-61-normal</styleUrl>
      </Pair>
      <Pair>
        <key>highlight</key>
        <styleUrl>#poly-558B2F-1000-61-highlight</styleUrl>
      </Pair>
    </StyleMap>
    <Style id="poly-558B2F-1000-87-normal">
      <LineStyle>
        <color>ff2f8b55</color>
        <width>1</width>
      </LineStyle>
      <PolyStyle>
        <color>572f8b55</color>
        <fill>1</fill>
        <outline>1</outline>
      </PolyStyle>
    </Style>
    <Style id="poly-558B2F-1000-87-highlight">
      <LineStyle>
        <color>ff2f8b55</color>
        <width>1.5</width>
      </LineStyle>
      <PolyStyle>
        <color>572f8b55</color>
        <fill>1</fill>
        <outline>1</outline>
      </PolyStyle>
    </Style>
    <StyleMap id="poly-558B2F-1000-87">
      <Pair>
        <key>normal</key>
        <styleUrl>#poly-558B2F-1000-87-normal</styleUrl>
      </Pair>
      <Pair>
        <key>highlight</key>
        <styleUrl>#poly-558B2F-1000-87-highlight</styleUrl>
      </Pair>
    </StyleMap>
    <Style id="poly-558B2F-1200-77-normal">
      <LineStyle>
        <color>ff2f8b55</color>
        <width>1.2</width>
      </LineStyle>
      <PolyStyle>
        <color>4d2f8b55</color>
        <fill>1</fill>
        <outline>1</outline>
      </PolyStyle>
    </Style>
    <Style id="poly-558B2F-1200-77-highlight">
      <LineStyle>
        <color>ff2f8b55</color>
        <width>1.8</width>
      </LineStyle>
      <PolyStyle>
        <color>4d2f8b55</color>
        <fill>1</fill>
        <outline>1</outline>
      </PolyStyle>
    </Style>
    <StyleMap id="poly-558B2F-1200-77">
      <Pair>
        <key>normal</key>
        <styleUrl>#poly-558B2F-1200-77-normal</styleUrl>
      </Pair>
      <Pair>
        <key>highlight</key>
        <styleUrl>#poly-558B2F-1200-77-highlight</styleUrl>
      </Pair>
    </StyleMap>
    <Style id="poly-795548-1000-54-normal">
      <LineStyle>
        <color>ff485579</color>
        <width>1</width>
      </LineStyle>
      <PolyStyle>
        <color>36485579</color>
        <fill>1</fill>
        <outline>1</outline>
      </PolyStyle>
    </Style>
    <Style id="poly-795548-1000-54-highlight">
      <LineStyle>
        <color>ff485579</color>
        <width>1.5</width>
      </LineStyle>
      <PolyStyle>
        <color>36485579</color>
        <fill>1</fill>
        <outline>1</outline>
      </PolyStyle>
    </Style>
    <StyleMap id="poly-795548-1000-54">
      <Pair>
        <key>normal</key>
        <styleUrl>#poly-795548-1000-54-normal</styleUrl>
      </Pair>
      <Pair>
        <key>highlight</key>
        <styleUrl>#poly-795548-1000-54-highlight</styleUrl>
      </Pair>
    </StyleMap>
    <Style id="poly-795548-1200-77-nodesc-normal">
      <LineStyle>
        <color>ff485579</color>
        <width>1.2</width>
      </LineStyle>
      <PolyStyle>
        <color>4d485579</color>
        <fill>1</fill>
        <outline>1</outline>
      </PolyStyle>
      <BalloonStyle>
        <text><![CDATA[<h3>$[name]</h3>]]></text>
      </BalloonStyle>
    </Style>
    <Style id="poly-795548-1200-77-nodesc-highlight">
      <LineStyle>
        <color>ff485579</color>
        <width>1.8</width>
      </LineStyle>
      <PolyStyle>
        <color>4d485579</color>
        <fill>1</fill>
        <outline>1</outline>
      </PolyStyle>
      <BalloonStyle>
        <text><![CDATA[<h3>$[name]</h3>]]></text>
      </BalloonStyle>
    </Style>
    <StyleMap id="poly-795548-1200-77-nodesc">
      <Pair>
        <key>normal</key>
        <styleUrl>#poly-795548-1200-77-nodesc-normal</styleUrl>
      </Pair>
      <Pair>
        <key>highlight</key>
        <styleUrl>#poly-795548-1200-77-nodesc-highlight</styleUrl>
      </Pair>
    </StyleMap>
    <Style id="poly-A52714-2000-77-nodesc-normal">
      <LineStyle>
        <color>ff1427a5</color>
        <width>2</width>
      </LineStyle>
      <PolyStyle>
        <color>4d1427a5</color>
        <fill>1</fill>
        <outline>1</outline>
      </PolyStyle>
      <BalloonStyle>
        <text><![CDATA[<h3>$[name]</h3>]]></text>
      </BalloonStyle>
    </Style>
    <Style id="poly-A52714-2000-77-nodesc-highlight">
      <LineStyle>
        <color>ff1427a5</color>
        <width>3</width>
      </LineStyle>
      <PolyStyle>
        <color>4d1427a5</color>
        <fill>1</fill>
        <outline>1</outline>
      </PolyStyle>
      <BalloonStyle>
        <text><![CDATA[<h3>$[name]</h3>]]></text>
      </BalloonStyle>
    </Style>
    <StyleMap id="poly-A52714-2000-77-nodesc">
      <Pair>
        <key>normal</key>
        <styleUrl>#poly-A52714-2000-77-nodesc-normal</styleUrl>
      </Pair>
      <Pair>
        <key>highlight</key>
        <styleUrl>#poly-A52714-2000-77-nodesc-highlight</styleUrl>
      </Pair>
    </StyleMap>
    <Style id="poly-B2EBF2-1200-77-nodesc-normal">
      <LineStyle>
        <color>fff2ebb2</color>
        <width>1.2</width>
      </LineStyle>
      <PolyStyle>
        <color>4df2ebb2</color>
        <fill>1</fill>
        <outline>1</outline>
      </PolyStyle>
      <BalloonStyle>
        <text><![CDATA[<h3>$[name]</h3>]]></text>
      </BalloonStyle>
    </Style>
    <Style id="poly-B2EBF2-1200-77-nodesc-highlight">
      <LineStyle>
        <color>fff2ebb2</color>
        <width>1.8</width>
      </LineStyle>
      <PolyStyle>
        <color>4df2ebb2</color>
        <fill>1</fill>
        <outline>1</outline>
      </PolyStyle>
      <BalloonStyle>
        <text><![CDATA[<h3>$[name]</h3>]]></text>
      </BalloonStyle>
    </Style>
    <StyleMap id="poly-B2EBF2-1200-77-nodesc">
      <Pair>
        <key>normal</key>
        <styleUrl>#poly-B2EBF2-1200-77-nodesc-normal</styleUrl>
      </Pair>
      <Pair>
        <key>highlight</key>
        <styleUrl>#poly-B2EBF2-1200-77-nodesc-highlight</styleUrl>
      </Pair>
    </StyleMap>
    <Style id="poly-CE93D8-1000-69-normal">
      <LineStyle>
        <color>ffd893ce</color>
        <width>1</width>
      </LineStyle>
      <PolyStyle>
        <color>45d893ce</color>
        <fill>1</fill>
        <outline>1</outline>
      </PolyStyle>
    </Style>
    <Style id="poly-CE93D8-1000-69-highlight">
      <LineStyle>
        <color>ffd893ce</color>
        <width>1.5</width>
      </LineStyle>
      <PolyStyle>
        <color>45d893ce</color>
        <fill>1</fill>
        <outline>1</outline>
      </PolyStyle>
    </Style>
    <StyleMap id="poly-CE93D8-1000-69">
      <Pair>
        <key>normal</key>
        <styleUrl>#poly-CE93D8-1000-69-normal</styleUrl>
      </Pair>
      <Pair>
        <key>highlight</key>
        <styleUrl>#poly-CE93D8-1000-69-highlight</styleUrl>
      </Pair>
    </StyleMap>
    <Style id="poly-E65100-2000-46-nodesc-normal">
      <LineStyle>
        <color>ff0051e6</color>
        <width>2</width>
      </LineStyle>
      <PolyStyle>
        <color>2e0051e6</color>
        <fill>1</fill>
        <outline>1</outline>
      </PolyStyle>
      <BalloonStyle>
        <text><![CDATA[<h3>$[name]</h3>]]></text>
      </BalloonStyle>
    </Style>
    <Style id="poly-E65100-2000-46-nodesc-highlight">
      <LineStyle>
        <color>ff0051e6</color>
        <width>3</width>
      </LineStyle>
      <PolyStyle>
        <color>2e0051e6</color>
        <fill>1</fill>
        <outline>1</outline>
      </PolyStyle>
      <BalloonStyle>
        <text><![CDATA[<h3>$[name]</h3>]]></text>
      </BalloonStyle>
    </Style>
    <StyleMap id="poly-E65100-2000-46-nodesc">
      <Pair>
        <key>normal</key>
        <styleUrl>#poly-E65100-2000-46-nodesc-normal</styleUrl>
      </Pair>
      <Pair>
        <key>highlight</key>
        <styleUrl>#poly-E65100-2000-46-nodesc-highlight</styleUrl>
      </Pair>
    </StyleMap>
    <Style id="poly-F9A825-1000-56-normal">
      <LineStyle>
        <color>ff25a8f9</color>
        <width>1</width>
      </LineStyle>
      <PolyStyle>
        <color>3825a8f9</color>
        <fill>1</fill>
        <outline>1</outline>
      </PolyStyle>
    </Style>
    <Style id="poly-F9A825-1000-56-highlight">
      <LineStyle>
        <color>ff25a8f9</color>
        <width>1.5</width>
      </LineStyle>
      <PolyStyle>
        <color>3825a8f9</color>
        <fill>1</fill>
        <outline>1</outline>
      </PolyStyle>
    </Style>
    <StyleMap id="poly-F9A825-1000-56">
      <Pair>
        <key>normal</key>
        <styleUrl>#poly-F9A825-1000-56-normal</styleUrl>
      </Pair>
      <Pair>
        <key>highlight</key>
        <styleUrl>#poly-F9A825-1000-56-highlight</styleUrl>
      </Pair>
    </StyleMap>
    <Folder>
      <name>ZONA_1</name>
	  <ExtendedData>
		<zoneId>10001</zoneId><zoneColor>673AB7</zoneColor>
	  </ExtendedData>
      <Placemark>
        <name>Z_1_ALTA_ROTACION_01</name>
		<ExtendedData>
			<zoneId>21001</zoneId><zoneColor>E53935</zoneColor>
		</ExtendedData>
        <styleUrl>#poly-795548-1200-77-nodesc</styleUrl>
        <Polygon>
          <outerBoundaryIs>
            <LinearRing>
              <tessellate>1</tessellate>
              <coordinates>
                -2.1724999,43.2853616,0
                -2.1734225,43.2854319,0
                -2.1735835,43.2853538,0
                -2.172752,43.2848383,0
                -2.1718025,43.2845338,0
                -2.1712446,43.2854866,0
                -2.1722064,43.2856055,0
                -2.172328,43.285569,0
                -2.1724999,43.2853616,0
              </coordinates>
            </LinearRing>
          </outerBoundaryIs>
        </Polygon>
      </Placemark>
      <Placemark>
        <name>Z_1_ALTA_ROTACION_02</name>
		<ExtendedData>
			<zoneId>21001</zoneId><zoneColor>E53935</zoneColor>
		</ExtendedData>
        <styleUrl>#poly-795548-1200-77-nodesc</styleUrl>
        <Polygon>
          <outerBoundaryIs>
            <LinearRing>
              <tessellate>1</tessellate>
              <coordinates>
                -2.1768653,43.2839386,0
                -2.1749341,43.283509,0
                -2.174899,43.283731,0
                -2.174492,43.283672,0
                -2.1745532,43.2835285,0
                -2.1742636,43.2835441,0
                -2.1741187,43.2838761,0
                -2.1748161,43.2842588,0
                -2.1758568,43.2843369,0
                -2.1760714,43.2839112,0
                -2.1768385,43.2841026,0
                -2.1768653,43.2839386,0
              </coordinates>
            </LinearRing>
          </outerBoundaryIs>
        </Polygon>
      </Placemark>
      <Placemark>
        <name>SALBIDE 10</name>
        <description>Z1 ALTA ROTACION AMB</description>
		<ExtendedData>
			<zoneId>21002</zoneId><zoneColor>E53935</zoneColor>
		</ExtendedData>
        <styleUrl>#poly-CE93D8-1000-69</styleUrl>
        <Polygon>
          <outerBoundaryIs>
            <LinearRing>
              <tessellate>1</tessellate>
              <coordinates>
                -2.1779206,43.2827193,0
                -2.1783329,43.2829324,0
                -2.1785785,43.2828877,0
                -2.1783233,43.2827335,0
                -2.1784490,43.2824108,0
                -2.1781381,43.2822145,0
                -2.1780986,43.2819543,0
                -2.1779316,43.2819583,0
                -2.1778996,43.2825443,0
                -2.1779206,43.2827193,0
              </coordinates>
            </LinearRing>
          </outerBoundaryIs>
        </Polygon>
      </Placemark>
      <Placemark>
        <name>Z_1_AZUL_01</name>
		<ExtendedData>
			<zoneId>21003</zoneId><zoneColor>1E88E5</zoneColor>
		</ExtendedData>
        <styleUrl>#poly-0288D1-1200-77-nodesc</styleUrl>
        <Polygon>
          <outerBoundaryIs>
            <LinearRing>
              <tessellate>1</tessellate>
              <coordinates>
                -2.1673478,43.2857842,0
                -2.1674712,43.2852727,0
                -2.1703197,43.2854796,0
                -2.1703664,43.2852735,0
                -2.168705,43.285175,0
                -2.1682544,43.2851126,0
                -2.1671762,43.2850462,0
                -2.1669562,43.2857335,0
                -2.1673478,43.2857842,0
              </coordinates>
            </LinearRing>
          </outerBoundaryIs>
        </Polygon>
      </Placemark>
      <Placemark>
        <name>Z_1_AZUL_02</name>
		<ExtendedData>
			<zoneId>21003</zoneId><zoneColor>1E88E5</zoneColor>
		</ExtendedData>
        <styleUrl>#poly-0288D1-1200-77-nodesc</styleUrl>
        <Polygon>
          <outerBoundaryIs>
            <LinearRing>
              <tessellate>1</tessellate>
              <coordinates>
                -2.169209,43.285977,0
                -2.1675838,43.2858623,0
                -2.1675892,43.2860107,0
                -2.1721114,43.2864051,0
                -2.1723619,43.2862732,0
                -2.1712209,43.285999,0
                -2.1692307,43.285792,0
                -2.169209,43.285977,0
              </coordinates>
            </LinearRing>
          </outerBoundaryIs>
        </Polygon>
      </Placemark>
      <Placemark>
        <name>ITURRIBIDEA 8-14</name>
        <description>Z1 AZUL</description>
		<ExtendedData>
			<zoneId>21003</zoneId><zoneColor>1E88E5</zoneColor>
		</ExtendedData>
        <styleUrl>#poly-0288D1-1200-77</styleUrl>
        <Polygon>
          <outerBoundaryIs>
            <LinearRing>
              <tessellate>1</tessellate>
              <coordinates>
                -2.1751497,43.2834426,0
                -2.1752771,43.2828861,0
                -2.175322,43.2828114,0
                -2.1754219,43.2824946,0
                -2.1755145,43.2821422,0
                -2.1753324,43.282097,0
                -2.1752463,43.282478,0
                -2.1749624,43.283403,0
                -2.1751497,43.2834426,0
              </coordinates>
            </LinearRing>
          </outerBoundaryIs>
        </Polygon>
      </Placemark>
      <Placemark>
        <name>ITURRIBIDE 24-32</name>
        <description>Z1 AZUL</description>
		<ExtendedData>
			<zoneId>21003</zoneId><zoneColor>1E88E5</zoneColor>
		</ExtendedData>
        <styleUrl>#poly-0288D1-1000-69</styleUrl>
        <Polygon>
          <outerBoundaryIs>
            <LinearRing>
              <tessellate>1</tessellate>
              <coordinates>
                -2.177739,43.2819358,0
                -2.1780025,43.2817298,0
                -2.1779381,43.2816938,0
                -2.1778334,43.2816248,0
                -2.1776741,43.2815362,0
                -2.1774517,43.2814411,0
                -2.1771873,43.2813706,0
                -2.1769393,43.2813197,0
                -2.1766715,43.2812949,0
                -2.17639,43.2812992,0
                -2.1764074,43.2813771,0
                -2.1764234,43.2814271,0
                -2.1764354,43.281488,0
                -2.176453,43.2815732,0
                -2.1765054,43.2815604,0
                -2.1765722,43.2815486,0
                -2.1766243,43.2815436,0
                -2.176792,43.2815497,0
                -2.17709,43.281598,0
                -2.1773538,43.2817056,0
                -2.1776087,43.2818302,0
                -2.177739,43.2819358,0
              </coordinates>
            </LinearRing>
          </outerBoundaryIs>
        </Polygon>
      </Placemark>
      <Placemark>
        <name>Z_1_RESIDENTES_01</name>
		<ExtendedData>
			<zoneId>21004</zoneId><zoneColor>707974</zoneColor>
		</ExtendedData>
        <styleUrl>#poly-000000-1200-77-nodesc</styleUrl>
        <Polygon>
          <outerBoundaryIs>
            <LinearRing>
              <tessellate>1</tessellate>
              <coordinates>
                -2.1773145,43.2839913,0
                -2.1778187,43.2835969,0
                -2.1779525,43.2833613,0
                -2.1780332,43.2832098,0
                -2.1780589,43.2830242,0
                -2.1781284,43.2828510,0
                -2.1779040,43.2827050,0
                -2.1778996,43.2825443,0
                -2.1771589,43.2823941,0
                -2.1752854,43.2828900,0
                -2.1752082,43.2832087,0
                -2.1751497,43.2834426,0
                -2.1750920,43.2835450,0
                -2.1761979,43.2837720,0
                -2.1773145,43.2839913,0
              </coordinates>
            </LinearRing>
          </outerBoundaryIs>
        </Polygon>
      </Placemark>
      <Placemark>
        <name>Z_1_RESIDENTES_02</name>
		<ExtendedData>
			<zoneId>21004</zoneId><zoneColor>707974</zoneColor>
		</ExtendedData>
        <styleUrl>#poly-000000-1200-77-nodesc</styleUrl>
        <Polygon>
          <outerBoundaryIs>
            <LinearRing>
              <tessellate>1</tessellate>
              <coordinates>
                -2.1703664,43.2852735,0
                -2.170302,43.2855352,0
                -2.1721634,43.2862146,0
                -2.1723619,43.2862732,0
                -2.1720722,43.2864529,0
                -2.1739069,43.2867535,0
                -2.1744326,43.2855781,0
                -2.1725658,43.285379,0
                -2.172368,43.285544,0
                -2.1722064,43.2856055,0
                -2.1711764,43.2854922,0
                -2.1718684,43.2843871,0
                -2.1686068,43.2840161,0
                -2.1679738,43.2840825,0
                -2.1683225,43.2851291,0
                -2.1686176,43.2851642,0
                -2.1703664,43.2852735,0
              </coordinates>
            </LinearRing>
          </outerBoundaryIs>
        </Polygon>
      </Placemark>
      <Placemark>
        <name>Z_1_RESIDENTES_03</name>
		<ExtendedData>
			<zoneId>21004</zoneId><zoneColor>707974</zoneColor>
		</ExtendedData>
        <styleUrl>#poly-000000-1200-77-nodesc</styleUrl>
        <Polygon>
          <outerBoundaryIs>
            <LinearRing>
              <tessellate>1</tessellate>
              <coordinates>
                -2.17665,43.2865697,0
                -2.1774922,43.2865619,0
                -2.1778409,43.2858082,0
                -2.1779696,43.2849765,0
                -2.1783881,43.2839026,0
                -2.1787743,43.2831684,0
                -2.179241,43.2821921,0
                -2.178726,43.2819422,0
                -2.1783612,43.2827506,0
                -2.1786187,43.2828951,0
                -2.1782539,43.2833402,0
                -2.1779428,43.2841916,0
                -2.177224,43.2859059,0
                -2.1766339,43.2863588,0
                -2.17665,43.2865697,0
              </coordinates>
            </LinearRing>
          </outerBoundaryIs>
        </Polygon>
      </Placemark>
      <Placemark>
        <name>Z_1_RESIDENTES_04</name>
		<ExtendedData>
			<zoneId>21004</zoneId><zoneColor>707974</zoneColor>
		</ExtendedData>
        <styleUrl>#poly-000000-1200-77-nodesc</styleUrl>
        <Polygon>
          <outerBoundaryIs>
            <LinearRing>
              <tessellate>1</tessellate>
              <coordinates>
                -2.1764567,43.2815803,0
                -2.1763816,43.2812953,0
                -2.1756467,43.2816233,0
                -2.1753194,43.2820451,0
                -2.1750727,43.2820138,0
                -2.174529,43.283681,0
                -2.1748581,43.2837243,0
                -2.174957,43.283403,0
                -2.175327,43.282097,0
                -2.1755662,43.2821544,0
                -2.1759202,43.2817717,0
                -2.1764567,43.2815803,0
              </coordinates>
            </LinearRing>
          </outerBoundaryIs>
        </Polygon>
      </Placemark>
      <Placemark>
        <name>NAFARROA 22- 28B</name>
        <description>Z1 RESIDENTES</description>
		<ExtendedData>
			<zoneId>21004</zoneId><zoneColor>707974</zoneColor>
		</ExtendedData>
        <styleUrl>#poly-000000-1000-66</styleUrl>
        <Polygon>
          <outerBoundaryIs>
            <LinearRing>
              <tessellate>1</tessellate>
              <coordinates>
                -2.169209,43.285977,0
                -2.169218,43.28594,0
                -2.168681,43.285891,0
                -2.168384,43.285864,0
                -2.167806,43.285825,0
                -2.167695,43.285818,0
                -2.167668,43.28585,0
                -2.167935,43.285874,0
                -2.168305,43.285898,0
                -2.168446,43.285906,0
                -2.168856,43.285942,0
                -2.169209,43.285977,0
              </coordinates>
            </LinearRing>
          </outerBoundaryIs>
        </Polygon>
      </Placemark>
    </Folder>
    <Folder>
      <name>ZONA_2</name>
	  <ExtendedData>
		<zoneId>10002</zoneId><zoneColor>673AB7</zoneColor>
	  </ExtendedData>
      <Placemark>
        <name>ARABA 1-5 (22001) #E53935</name>
        <description>Z2 ALTA ROTACION</description>
		<ExtendedData>
			<zoneId>22001</zoneId><zoneColor>E53935</zoneColor>
		</ExtendedData>
        <styleUrl>#poly-795548-1000-54</styleUrl>
        <Polygon>
          <outerBoundaryIs>
            <LinearRing>
              <tessellate>1</tessellate>
              <coordinates>
                -2.1742344,43.2818575,0
                -2.1735277,43.2816971,0
                -2.17349,43.2818,0
                -2.17419,43.2819437,0
                -2.1742344,43.2818575,0
              </coordinates>
            </LinearRing>
          </outerBoundaryIs>
        </Polygon>
      </Placemark>
      <Placemark>
        <name>Z_2_AZUL_01</name>
		<ExtendedData>
			<zoneId>22002</zoneId><zoneColor>1E88E5</zoneColor>
		</ExtendedData>
        <styleUrl>#poly-0288D1-1200-77-nodesc</styleUrl>
        <Polygon>
          <outerBoundaryIs>
            <LinearRing>
              <tessellate>1</tessellate>
              <coordinates>
                -2.1730751,43.2816645,0
                -2.1731248,43.2816035,0
                -2.1734613,43.2811334,0
                -2.1735579,43.2793448,0
                -2.172023,43.279016,0
                -2.1716589,43.2789777,0
                -2.1685475,43.2794541,0
                -2.165801,43.2796885,0
                -2.1659082,43.2806804,0
                -2.1617347,43.2810709,0
                -2.1612627,43.282633,0
                -2.1634299,43.2823909,0
                -2.1655435,43.282223,0
                -2.1657312,43.2820433,0
                -2.1656272,43.2809826,0
                -2.1678674,43.2810935,0
                -2.1698886,43.2812115,0
                -2.1708904,43.2812382,0
                -2.1714938,43.2813121,0
                -2.1720666,43.2815083,0
                -2.1729356,43.2817583,0
                -2.1730751,43.2816645,0
              </coordinates>
            </LinearRing>
          </outerBoundaryIs>
        </Polygon>
      </Placemark>
      <Placemark>
        <name>Z_2_AZUL_02</name>
		<ExtendedData>
			<zoneId>22002</zoneId><zoneColor>1E88E5</zoneColor>
		</ExtendedData>
        <styleUrl>#poly-0288D1-1200-77-nodesc</styleUrl>
        <Polygon>
          <outerBoundaryIs>
            <LinearRing>
              <tessellate>1</tessellate>
              <coordinates>
                -2.1680639,43.2834395,0
                -2.1680639,43.2832209,0
                -2.166002,43.283182,0
                -2.1654997,43.2831584,0
                -2.1628282,43.2827288,0
                -2.1622811,43.2828772,0
                -2.1623401,43.2831584,0
                -2.1649928,43.2832677,0
                -2.1660415,43.2833244,0
                -2.1672416,43.2833619,0
                -2.1680639,43.2834395,0
              </coordinates>
            </LinearRing>
          </outerBoundaryIs>
        </Polygon>
      </Placemark>
      <Placemark>
        <name>Z_2_AZUL_03</name>
		<ExtendedData>
			<zoneId>22002</zoneId><zoneColor>1E88E5</zoneColor>
		</ExtendedData>
        <styleUrl>#poly-0288D1-1200-77-nodesc</styleUrl>
        <Polygon>
          <outerBoundaryIs>
            <LinearRing>
              <tessellate>1</tessellate>
              <coordinates>
                -2.1668589,43.2858777,0
                -2.1671762,43.2850462,0
                -2.1625823,43.2847326,0
                -2.1624161,43.2848161,0
                -2.162119,43.284792,0
                -2.1620995,43.2855917,0
                -2.1602219,43.2852793,0
                -2.157896,43.28439,0
                -2.1575719,43.2846466,0
                -2.1590954,43.2852636,0
                -2.1605653,43.2857479,0
                -2.162273,43.285851,0
                -2.1639663,43.2858806,0
                -2.165522,43.2859041,0
                -2.1668589,43.2858777,0
              </coordinates>
            </LinearRing>
          </outerBoundaryIs>
        </Polygon>
      </Placemark>
      <Placemark>
        <name>Z_2_AZUL_04</name>
		<ExtendedData>
			<zoneId>22002</zoneId><zoneColor>1E88E5</zoneColor>
		</ExtendedData>
        <styleUrl>#poly-0288D1-1200-77-nodesc</styleUrl>
        <Polygon>
          <outerBoundaryIs>
            <LinearRing>
              <tessellate>1</tessellate>
              <coordinates>
                -2.1624161,43.2848161,0
                -2.162466,43.284722,0
                -2.161771,43.284673,0
                -2.1618311,43.2839011,0
                -2.1616111,43.2838835,0
                -2.1615575,43.2845728,0
                -2.1585829,43.284315,0
                -2.158548,43.2845825,0
                -2.1593795,43.2846177,0
                -2.1593983,43.2847524,0
                -2.1601305,43.2847641,0
                -2.160173,43.284673,0
                -2.1609191,43.2847505,0
                -2.1609213,43.2846927,0
                -2.1624161,43.2848161,0
              </coordinates>
            </LinearRing>
          </outerBoundaryIs>
        </Polygon>
      </Placemark>
      <Placemark>
        <name>MENDIBELTZ BIDEA 1-21 2-8</name>
        <description>Z2 AZUL</description>
		<ExtendedData>
			<zoneId>22002</zoneId><zoneColor>1E88E5</zoneColor>
		</ExtendedData>
        <styleUrl>#poly-0288D1-1200-77</styleUrl>
        <Polygon>
          <outerBoundaryIs>
            <LinearRing>
              <tessellate>1</tessellate>
              <coordinates>
                -2.15514,43.2844784,0
                -2.1551876,43.2843695,0
                -2.1549649,43.2842933,0
                -2.154686,43.2841284,0
                -2.1544409,43.2840136,0
                -2.1541784,43.2838979,0
                -2.1536178,43.2837247,0
                -2.1531558,43.2835269,0
                -2.15319,43.2834823,0
                -2.1520078,43.2829114,0
                -2.151641,43.2828104,0
                -2.1516329,43.2829617,0
                -2.1517912,43.2830129,0
                -2.1521721,43.2832111,0
                -2.1529131,43.2836162,0
                -2.1532893,43.283792,0
                -2.1535675,43.2839006,0
                -2.1538759,43.2840185,0
                -2.154332,43.2841723,0
                -2.1545814,43.2842328,0
                -2.154737,43.2843617,0
                -2.1549408,43.2844085,0
                -2.1550082,43.2844903,0
                -2.15514,43.2844784,0
              </coordinates>
            </LinearRing>
          </outerBoundaryIs>
        </Polygon>
      </Placemark>
      <Placemark>
        <name>ALLEMENDI 1-8</name>
        <description>Z2. AZUL</description>
		<ExtendedData>
			<zoneId>22002</zoneId><zoneColor>1E88E5</zoneColor>
		</ExtendedData>
        <styleUrl>#poly-0288D1-1000-87</styleUrl>
        <Polygon>
          <outerBoundaryIs>
            <LinearRing>
              <tessellate>1</tessellate>
              <coordinates>
                -2.1805645,43.2845514,0
                -2.1804923,43.284611,0
                -2.1804713,43.284627,0
                -2.1805745,43.284691,0
                -2.1806402,43.2847512,0
                -2.1806798,43.2848131,0
                -2.1807179,43.2848891,0
                -2.1807619,43.284963,0
                -2.1808152,43.2850121,0
                -2.180901,43.2850594,0
                -2.1809713,43.285085,0
                -2.1810394,43.2851103,0
                -2.1811077,43.2851082,0
                -2.181229,43.2850852,0
                -2.1813462,43.2850652,0
                -2.1814599,43.2850442,0
                -2.1815537,43.2850219,0
                -2.1815953,43.2848931,0
                -2.1814699,43.2849029,0
                -2.1813673,43.2849261,0
                -2.1812543,43.2849427,0
                -2.1811136,43.284957,0
                -2.1810513,43.2849344,0
                -2.1809101,43.2848387,0
                -2.1808064,43.2846982,0
                -2.1807273,43.284645,0
                -2.180679,43.2846119,0
                -2.1805645,43.2845514,0
              </coordinates>
            </LinearRing>
          </outerBoundaryIs>
        </Polygon>
      </Placemark>
      <Placemark>
        <name>ALLEMENDI S/N</name>
        <description>Z2.AZUL</description>
		<ExtendedData>
			<zoneId>22002</zoneId><zoneColor>1E88E5</zoneColor>
		</ExtendedData>
        <styleUrl>#poly-0288D1-1000-105</styleUrl>
        <Polygon>
          <outerBoundaryIs>
            <LinearRing>
              <tessellate>1</tessellate>
              <coordinates>
                -2.1802139,43.283865,0
                -2.1801372,43.2838618,0
                -2.1799693,43.2838556,0
                -2.1798258,43.2838889,0
                -2.1796797,43.2839194,0
                -2.1795119,43.283972,0
                -2.179445,43.2840893,0
                -2.179527,43.2841675,0
                -2.1796432,43.2841362,0
                -2.1797644,43.2841031,0
                -2.1799232,43.284064,0
                -2.1800833,43.284028,0
                -2.1801472,43.283966,0
                -2.1802139,43.283865,0
              </coordinates>
            </LinearRing>
          </outerBoundaryIs>
        </Polygon>
      </Placemark>
      <Placemark>
        <name>LANPARDOÂ  2-4</name>
        <description>Z2 AZUL</description>
		<ExtendedData>
			<zoneId>22002</zoneId><zoneColor>1E88E5</zoneColor>
		</ExtendedData>
        <styleUrl>#poly-0288D1-1000-61</styleUrl>
        <Polygon>
          <outerBoundaryIs>
            <LinearRing>
              <tessellate>1</tessellate>
              <coordinates>
                -2.1753559,43.2804113,0
                -2.1752341,43.2803568,0
                -2.1752431,43.2804598,0
                -2.1752741,43.2806978,0
                -2.1752981,43.2807878,0
                -2.1753431,43.2808618,0
                -2.1754201,43.2809298,0
                -2.1755241,43.2809868,0
                -2.1756281,43.2810205,0
                -2.1757238,43.2810344,0
                -2.1757534,43.2809576,0
                -2.1756929,43.2809209,0
                -2.1756379,43.2808658,0
                -2.1755918,43.2808169,0
                -2.1754824,43.2807125,0
                -2.1753559,43.2804113,0
              </coordinates>
            </LinearRing>
          </outerBoundaryIs>
        </Polygon>
      </Placemark>
      <Placemark>
        <name>LAPURDI 15-39</name>
        <description>Z2 AZUL</description>
		<ExtendedData>
			<zoneId>22002</zoneId><zoneColor>1E88E5</zoneColor>
		</ExtendedData>
        <styleUrl>#poly-0288D1-1000-74</styleUrl>
        <Polygon>
          <outerBoundaryIs>
            <LinearRing>
              <tessellate>1</tessellate>
              <coordinates>
                -2.1679176,43.2842071,0
                -2.1679523,43.2839562,0
                -2.1666067,43.2838945,0
                -2.1650397,43.2838274,0
                -2.1641586,43.2837903,0
                -2.1632586,43.2837689,0
                -2.1617791,43.2837202,0
                -2.1617674,43.2838927,0
                -2.162481,43.283922,0
                -2.162747,43.283927,0
                -2.1636387,43.2839683,0
                -2.164525,43.283994,0
                -2.165388,43.284037,0
                -2.166392,43.2840977,0
                -2.1679176,43.2842071,0
              </coordinates>
            </LinearRing>
          </outerBoundaryIs>
        </Polygon>
      </Placemark>
      <Placemark>
        <name>BIZKAIA 31-39</name>
		<ExtendedData>
			<zoneId>22002</zoneId><zoneColor>1E88E5</zoneColor>
		</ExtendedData>
        <styleUrl>#poly-0288D1-1200-77-nodesc</styleUrl>
        <Polygon>
          <outerBoundaryIs>
            <LinearRing>
              <tessellate>1</tessellate>
              <coordinates>
                -2.1692767,43.2834871,0
                -2.171106,43.2834871,0
                -2.1712777,43.2822843,0
                -2.1692177,43.28205,0
                -2.1692767,43.2834871,0
              </coordinates>
            </LinearRing>
          </outerBoundaryIs>
        </Polygon>
      </Placemark>
      <Placemark>
        <name>HERRIKOSORO 1-25</name>
        <description>Z2 VERDE</description>
		<ExtendedData>
			<zoneId>22003</zoneId><zoneColor>43A047</zoneColor>
		</ExtendedData>
        <styleUrl>#poly-558B2F-1000-54</styleUrl>
        <Polygon>
          <outerBoundaryIs>
            <LinearRing>
              <tessellate>1</tessellate>
              <coordinates>
                -2.174207,43.279546,0
                -2.1743364,43.2793182,0
                -2.1737207,43.2791272,0
                -2.1730995,43.2789622,0
                -2.1723891,43.2788154,0
                -2.1718805,43.2787299,0
                -2.171838,43.278978,0
                -2.172023,43.279016,0
                -2.172552,43.279107,0
                -2.17283,43.279166,0
                -2.173279,43.279269,0
                -2.174207,43.279546,0
              </coordinates>
            </LinearRing>
          </outerBoundaryIs>
        </Polygon>
      </Placemark>
      <Placemark>
        <name>HERRIKOSORO 35-138</name>
        <description>Z2 VERDE</description>
		<ExtendedData>
			<zoneId>22003</zoneId><zoneColor>43A047</zoneColor>
		</ExtendedData>
        <styleUrl>#poly-558B2F-1000-61</styleUrl>
        <Polygon>
          <outerBoundaryIs>
            <LinearRing>
              <tessellate>1</tessellate>
              <coordinates>
                -2.171753,43.278978,0
                -2.171826,43.278955,0
                -2.1718605,43.2787364,0
                -2.1714266,43.2786813,0
                -2.1708413,43.2786442,0
                -2.1702995,43.2786271,0
                -2.1693718,43.2786458,0
                -2.1684409,43.2787302,0
                -2.1672444,43.2789296,0
                -2.1662793,43.2791418,0
                -2.1656537,43.2793749,0
                -2.1658959,43.2796282,0
                -2.1665688,43.2794915,0
                -2.1675478,43.2792179,0
                -2.1687766,43.2790147,0
                -2.1690448,43.2789935,0
                -2.1697071,43.2789272,0
                -2.1703752,43.2789211,0
                -2.171096,43.2789413,0
                -2.171753,43.278978,0
              </coordinates>
            </LinearRing>
          </outerBoundaryIs>
        </Polygon>
      </Placemark>
      <Placemark>
        <name>MONDRA</name>
        <description>Z2 VERDE</description>
		<ExtendedData>
			<zoneId>22003</zoneId><zoneColor>43A047</zoneColor>
		</ExtendedData>
        <styleUrl>#poly-558B2F-1000-105</styleUrl>
        <Polygon>
          <outerBoundaryIs>
            <LinearRing>
              <tessellate>1</tessellate>
              <coordinates>
                -2.166002,43.283182,0
                -2.166037,43.282786,0
                -2.165594,43.282753,0
                -2.165578,43.283126,0
                -2.165643,43.283173,0
                -2.166002,43.283182,0
              </coordinates>
            </LinearRing>
          </outerBoundaryIs>
        </Polygon>
      </Placemark>
      <Placemark>
        <name>KORTAZAR</name>
        <description>Z2 VERDE</description>
		<ExtendedData>
			<zoneId>22003</zoneId><zoneColor>43A047</zoneColor>
		</ExtendedData>
        <styleUrl>#poly-558B2F-1000-87</styleUrl>
        <Polygon>
          <outerBoundaryIs>
            <LinearRing>
              <tessellate>1</tessellate>
              <coordinates>
                -2.162466,43.284722,0
                -2.16252,43.283934,0
                -2.161843,43.283913,0
                -2.161796,43.284674,0
                -2.162466,43.284722,0
              </coordinates>
            </LinearRing>
          </outerBoundaryIs>
        </Polygon>
      </Placemark>
      <Placemark>
        <name>ITSASMENDI PARKING</name>
        <description>Z2 VERDE</description>
		<ExtendedData>
			<zoneId>22003</zoneId><zoneColor>43A047</zoneColor>
		</ExtendedData>
        <styleUrl>#poly-558B2F-1200-77</styleUrl>
        <Polygon>
          <outerBoundaryIs>
            <LinearRing>
              <tessellate>1</tessellate>
              <coordinates>
                -2.1603805,43.2820945,0
                -2.1603054,43.2815087,0
                -2.1593612,43.2816103,0
                -2.1594793,43.2821804,0
                -2.1603805,43.2820945,0
              </coordinates>
            </LinearRing>
          </outerBoundaryIs>
        </Polygon>
      </Placemark>
      <Placemark>
        <name>HEGOALDE</name>
        <description>Z2 VERDE</description>
		<ExtendedData>
			<zoneId>22003</zoneId><zoneColor>43A047</zoneColor>
		</ExtendedData>
        <styleUrl>#poly-558B2F-1200-77</styleUrl>
        <Polygon>
          <outerBoundaryIs>
            <LinearRing>
              <tessellate>1</tessellate>
              <coordinates>
                -2.1672946,43.2819729,0
                -2.1674636,43.2813032,0
                -2.1677935,43.2813325,0
                -2.1678203,43.2811216,0
                -2.1656638,43.2810122,0
                -2.1657764,43.2819339,0
                -2.1665368,43.2819436,0
                -2.1672946,43.2819729,0
              </coordinates>
            </LinearRing>
          </outerBoundaryIs>
        </Polygon>
      </Placemark>
      <Placemark>
        <name>Z_2_RESIDENTES_01</name>
		<ExtendedData>
			<zoneId>22004</zoneId><zoneColor>707974</zoneColor>
		</ExtendedData>
        <styleUrl>#poly-000000-1200-77-nodesc</styleUrl>
        <Polygon>
          <outerBoundaryIs>
            <LinearRing>
              <tessellate>1</tessellate>
              <coordinates>
                -2.1810646,43.2851283,0
                -2.1811344,43.2852923,0
                -2.1814187,43.28539,0
                -2.1821482,43.2849058,0
                -2.1825023,43.2839529,0
                -2.1835698,43.2835819,0
                -2.1842242,43.2835116,0
                -2.1849189,43.2834706,0
                -2.1855814,43.2831719,0
                -2.1855171,43.2826291,0
                -2.1850182,43.2822386,0
                -2.1787204,43.2833867,0
                -2.178892,43.2837499,0
                -2.1797208,43.2838358,0
                -2.1803136,43.2838631,0
                -2.1801527,43.284031,0
                -2.1795527,43.284187,0
                -2.1806086,43.2845035,0
                -2.1816171,43.2848628,0
                -2.1816005,43.2850276,0
                -2.1810646,43.2851283,0
              </coordinates>
            </LinearRing>
          </outerBoundaryIs>
        </Polygon>
      </Placemark>
      <Placemark>
        <name>Z_2_RESIDENTES_02</name>
		<ExtendedData>
			<zoneId>22004</zoneId><zoneColor>707974</zoneColor>
		</ExtendedData>
        <styleUrl>#poly-000000-1200-77-nodesc</styleUrl>
        <Polygon>
          <outerBoundaryIs>
            <LinearRing>
              <tessellate>1</tessellate>
              <coordinates>
                -2.180986,43.2851242,0
                -2.1807806,43.2850216,0
                -2.1806212,43.2847493,0
                -2.1804432,43.2846185,0
                -2.18053,43.2845267,0
                -2.1795473,43.2842026,0
                -2.1780387,43.284799,0
                -2.1779809,43.2850085,0
                -2.1780195,43.2851906,0
                -2.1789529,43.284843,0
                -2.18053,43.2854718,0
                -2.180986,43.2851242,0
              </coordinates>
            </LinearRing>
          </outerBoundaryIs>
        </Polygon>
      </Placemark>
      <Placemark>
        <name>Z_2_RESIDENTES_03</name>
		<ExtendedData>
			<zoneId>22004</zoneId><zoneColor>707974</zoneColor>
		</ExtendedData>
        <styleUrl>#poly-000000-1200-77-nodesc</styleUrl>
        <Polygon>
          <outerBoundaryIs>
            <LinearRing>
              <tessellate>1</tessellate>
              <coordinates>
                -2.1780499,43.2815679,0
                -2.1782215,43.2813687,0
                -2.1754052,43.2798652,0
                -2.1753086,43.2802323,0
                -2.1756681,43.2806814,0
                -2.1764727,43.281068,0
                -2.1780499,43.2815679,0
              </coordinates>
            </LinearRing>
          </outerBoundaryIs>
        </Polygon>
      </Placemark>
      <Placemark>
        <name>Z_2_RESIDENTES_04</name>
		<ExtendedData>
			<zoneId>22004</zoneId><zoneColor>707974</zoneColor>
		</ExtendedData>
        <styleUrl>#poly-000000-1200-77-nodesc</styleUrl>
        <Polygon>
          <outerBoundaryIs>
            <LinearRing>
              <tessellate>1</tessellate>
              <coordinates>
                -2.1749756,43.2820214,0
                -2.1755013,43.2815411,0
                -2.1748736,43.2810138,0
                -2.1734091,43.2812091,0
                -2.1731248,43.2816035,0
                -2.1749756,43.2820214,0
              </coordinates>
            </LinearRing>
          </outerBoundaryIs>
        </Polygon>
      </Placemark>
      <Placemark>
        <name>Z_2_RESIDENTES_05</name>
		<ExtendedData>
			<zoneId>22004</zoneId><zoneColor>707974</zoneColor>
		</ExtendedData>
        <styleUrl>#poly-000000-1200-77-nodesc</styleUrl>
        <Polygon>
          <outerBoundaryIs>
            <LinearRing>
              <tessellate>1</tessellate>
              <coordinates>
                -2.171315,43.282421,0
                -2.1716373,43.2824941,0
                -2.172576,43.2828612,0
                -2.1729784,43.2830213,0
                -2.1742014,43.2832791,0
                -2.1747164,43.282209,0
                -2.1737455,43.281963,0
                -2.172914,43.281924,0
                -2.1715353,43.2813147,0
                -2.171315,43.282421,0
              </coordinates>
            </LinearRing>
          </outerBoundaryIs>
        </Polygon>
      </Placemark>
      <Placemark>
        <name>Z_2_RESIDENTES_06</name>
		<ExtendedData>
			<zoneId>22004</zoneId><zoneColor>707974</zoneColor>
		</ExtendedData>
        <styleUrl>#poly-000000-1200-77-nodesc</styleUrl>
        <Polygon>
          <outerBoundaryIs>
            <LinearRing>
              <tessellate>1</tessellate>
              <coordinates>
                -2.1685701,43.283464,0
                -2.1692246,43.283503,0
                -2.1691871,43.2821401,0
                -2.1693138,43.2812631,0
                -2.1678674,43.2810935,0
                -2.1678252,43.2813669,0
                -2.1674983,43.2813278,0
                -2.1674396,43.2815973,0
                -2.167334,43.2819986,0
                -2.1667447,43.2819766,0
                -2.16578,43.2819547,0
                -2.1657592,43.2820992,0
                -2.1676327,43.2823589,0
                -2.1675402,43.2832336,0
                -2.1677333,43.2832414,0
                -2.1680927,43.2831711,0
                -2.1685701,43.2832687,0
                -2.1685701,43.283464,0
              </coordinates>
            </LinearRing>
          </outerBoundaryIs>
        </Polygon>
      </Placemark>
      <Placemark>
        <name>Z_2_RESIDENTES_07</name>
		<ExtendedData>
			<zoneId>22004</zoneId><zoneColor>707974</zoneColor>
		</ExtendedData>
        <styleUrl>#poly-000000-1200-77-nodesc</styleUrl>
        <Polygon>
          <outerBoundaryIs>
            <LinearRing>
              <tessellate>1</tessellate>
              <coordinates>
                -2.1658436,43.2806424,0
                -2.165747,43.2797598,0
                -2.1645561,43.2799629,0
                -2.161713,43.2799863,0
                -2.1581617,43.2803456,0
                -2.1580759,43.2817906,0
                -2.1593612,43.2816103,0
                -2.1603054,43.2815087,0
                -2.1610478,43.2814469,0
                -2.1615306,43.2809783,0
                -2.1658436,43.2806424,0
              </coordinates>
            </LinearRing>
          </outerBoundaryIs>
        </Polygon>
      </Placemark>
      <Placemark>
        <name>Z_2_RESIDENTES_08</name>
		<ExtendedData>
			<zoneId>22004</zoneId><zoneColor>707974</zoneColor>
		</ExtendedData>
        <styleUrl>#poly-000000-1200-77-nodesc</styleUrl>
        <Polygon>
          <outerBoundaryIs>
            <LinearRing>
              <tessellate>1</tessellate>
              <coordinates>
                -2.1620741,43.283037,0
                -2.1612319,43.2829902,0
                -2.1612426,43.2835135,0
                -2.1672293,43.2837126,0
                -2.1672454,43.2833767,0
                -2.1660415,43.2833244,0
                -2.1649709,43.2832713,0
                -2.1620741,43.2831698,0
                -2.1620741,43.283037,0
              </coordinates>
            </LinearRing>
          </outerBoundaryIs>
        </Polygon>
      </Placemark>
      <Placemark>
        <name>Z_2_RESIDENTES_09</name>
		<ExtendedData>
			<zoneId>22004</zoneId><zoneColor>707974</zoneColor>
		</ExtendedData>
        <styleUrl>#poly-000000-1200-77-nodesc</styleUrl>
        <Polygon>
          <outerBoundaryIs>
            <LinearRing>
              <tessellate>1</tessellate>
              <coordinates>
                -2.1666004,43.2850075,0
                -2.166697,43.2841249,0
                -2.1645995,43.2840078,0
                -2.16252,43.283934,0
                -2.162466,43.284722,0
                -2.1642722,43.2848357,0
                -2.1666004,43.2850075,0
              </coordinates>
            </LinearRing>
          </outerBoundaryIs>
        </Polygon>
      </Placemark>
      <Placemark>
        <name>Z_2_RESIDENTES_10</name>
		<ExtendedData>
			<zoneId>22004</zoneId><zoneColor>707974</zoneColor>
		</ExtendedData>
        <styleUrl>#poly-000000-1200-77-nodesc</styleUrl>
        <Polygon>
          <outerBoundaryIs>
            <LinearRing>
              <tessellate>1</tessellate>
              <coordinates>
                -2.1578941,43.2861988,0
                -2.1609948,43.2885418,0
                -2.1670029,43.287628,0
                -2.167078,43.286644,0
                -2.1663878,43.2858633,0
                -2.1648786,43.2859489,0
                -2.162307,43.285833,0
                -2.1605441,43.2858084,0
                -2.1596215,43.2854647,0
                -2.1578941,43.2861988,0
              </coordinates>
            </LinearRing>
          </outerBoundaryIs>
        </Polygon>
      </Placemark>
      <Placemark>
        <name>Z_2_RESIDENTES_11</name>
		<ExtendedData>
			<zoneId>22004</zoneId><zoneColor>707974</zoneColor>
		</ExtendedData>
        <styleUrl>#poly-000000-1200-77-nodesc</styleUrl>
        <Polygon>
          <outerBoundaryIs>
            <LinearRing>
              <tessellate>1</tessellate>
              <coordinates>
                -2.1714686,43.2842623,0
                -2.1716081,43.282544,0
                -2.171315,43.282421,0
                -2.171061,43.2841608,0
                -2.1714686,43.2842623,0
              </coordinates>
            </LinearRing>
          </outerBoundaryIs>
        </Polygon>
      </Placemark>
      <Placemark>
        <name>GIPUZKOA 43-45</name>
        <description>Z2 RESIDENTES</description>
		<ExtendedData>
			<zoneId>22004</zoneId><zoneColor>707974</zoneColor>
		</ExtendedData>
        <styleUrl>#poly-000000-1000-66</styleUrl>
        <Polygon>
          <outerBoundaryIs>
            <LinearRing>
              <tessellate>1</tessellate>
              <coordinates>
                -2.162119,43.284792,0
                -2.1618425,43.2847641,0
                -2.161566,43.2847402,0
                -2.1615837,43.2848519,0
                -2.1621036,43.2848802,0
                -2.162119,43.284792,0
              </coordinates>
            </LinearRing>
          </outerBoundaryIs>
        </Polygon>
      </Placemark>
      <Placemark>
        <name>LAPURDI S/N</name>
        <description>Z2 RESIDENTES</description>
		<ExtendedData>
			<zoneId>22004</zoneId><zoneColor>707974</zoneColor>
		</ExtendedData>
        <styleUrl>#poly-000000-1200-77</styleUrl>
        <Polygon>
          <outerBoundaryIs>
            <LinearRing>
              <tessellate>1</tessellate>
              <coordinates>
                -2.161758,43.2838869,0
                -2.1617669,43.2837179,0
                -2.1613868,43.2837013,0
                -2.1610026,43.2836837,0
                -2.1609717,43.2838468,0
                -2.161758,43.2838869,0
              </coordinates>
            </LinearRing>
          </outerBoundaryIs>
        </Polygon>
      </Placemark>
      <Placemark>
        <name>TALAIMENDI BIDEA 1-25</name>
        <description>Z2 RESIDENTES</description>
		<ExtendedData>
			<zoneId>22004</zoneId><zoneColor>707974</zoneColor>
		</ExtendedData>
        <styleUrl>#poly-000000-1200-77</styleUrl>
        <Polygon>
          <outerBoundaryIs>
            <LinearRing>
              <tessellate>1</tessellate>
              <coordinates>
                -2.1530364,43.2844847,0
                -2.1528245,43.2840863,0
                -2.1525644,43.2837016,0
                -2.1523794,43.2835728,0
                -2.1520146,43.283358,0
                -2.1516846,43.2831568,0
                -2.1515398,43.2830241,0
                -2.1512528,43.283067,0
                -2.1514003,43.2832585,0
                -2.1516471,43.283399,0
                -2.1519448,43.283561,0
                -2.1522211,43.2837115,0
                -2.15239,43.2839222,0
                -2.1525563,43.2842249,0
                -2.1527226,43.2845549,0
                -2.1530364,43.2844847,0
              </coordinates>
            </LinearRing>
          </outerBoundaryIs>
        </Polygon>
      </Placemark>
      <Placemark>
        <name>AÃ‘ORBE BIDEA</name>
        <description>Z2 RESIDENTES</description>
		<ExtendedData>
			<zoneId>22004</zoneId><zoneColor>707974</zoneColor>
		</ExtendedData>
        <styleUrl>#poly-000000-1200-77</styleUrl>
        <Polygon>
          <outerBoundaryIs>
            <LinearRing>
              <tessellate>1</tessellate>
              <coordinates>
                -2.151175,43.2829764,0
                -2.1511991,43.2827675,0
                -2.1503971,43.2827109,0
                -2.1496756,43.2826777,0
                -2.1491123,43.2826933,0
                -2.1486296,43.2827226,0
                -2.148482,43.2827128,0
                -2.1482138,43.2827226,0
                -2.148179,43.282871,0
                -2.1486537,43.2829589,0
                -2.149174,43.2829178,0
                -2.1497052,43.2829159,0
                -2.1503596,43.2829354,0
                -2.151175,43.2829764,0
              </coordinates>
            </LinearRing>
          </outerBoundaryIs>
        </Polygon>
      </Placemark>
      <Placemark>
        <name>ASTIBIDEA S/N</name>
        <description>Z2 RESIDENTES</description>
		<ExtendedData>
			<zoneId>22004</zoneId><zoneColor>707974</zoneColor>
		</ExtendedData>
        <styleUrl>#poly-000000-1200-77</styleUrl>
        <Polygon>
          <outerBoundaryIs>
            <LinearRing>
              <tessellate>1</tessellate>
              <coordinates>
                -2.1548637,43.2822475,0
                -2.1552124,43.2819937,0
                -2.1549442,43.2817281,0
                -2.1544238,43.2818062,0
                -2.1544775,43.2820249,0
                -2.1548637,43.2822475,0
              </coordinates>
            </LinearRing>
          </outerBoundaryIs>
        </Polygon>
      </Placemark>
    </Folder>
    <Folder>
      <name>ZONA_3</name>
	  <ExtendedData>
		<zoneId>10003</zoneId><zoneColor>673AB7</zoneColor>
	  </ExtendedData>
      <Placemark>
        <name>AIZIAZPIA KALEA 2 -6</name>
        <description>Z3 AUTOCARAVANAS</description>
		<ExtendedData>
			<zoneId>23001</zoneId><zoneColor>FB8C00</zoneColor>
		</ExtendedData>
        <styleUrl>#poly-F9A825-1000-56</styleUrl>
        <Polygon>
          <outerBoundaryIs>
            <LinearRing>
              <tessellate>1</tessellate>
              <coordinates>
                -2.1732953,43.2781267,0
                -2.1726186,43.2777419,0
                -2.1720016,43.2773083,0
                -2.1712736,43.2779235,0
                -2.169773,43.277824,0
                -2.169778,43.27797,0
                -2.171677,43.278044,0
                -2.1732953,43.2781267,0
              </coordinates>
            </LinearRing>
          </outerBoundaryIs>
        </Polygon>
      </Placemark>
    </Folder>
  </Document>
</kml>
